{
"type": "FeatureCollection",
"name": "catalytic_arts",
"crs": { "type": "name", "properties": { "name": "urn:ogc:def:crs:OGC:1.3:CRS84" } },
"features": [
{ "type": "Feature", "properties": { "name": "Maynardville Open-Air Theatre", "type": "theatre" }, "geometry": { "type": "Point", "coordinates": [ 18.4642331, -34.0053499 ] } },
{ "type": "Feature", "properties": { "name": "Nu Metro", "type": "cinema" }, "geometry": { "type": "Point", "coordinates": [ 18.5099802, -33.8929378 ] } },
{ "type": "Feature", "properties": { "name": "Arena Theatre", "type": "theatre" }, "geometry": { "type": "Point", "coordinates": [ 18.4133994, -33.9294058 ] } },
{ "type": "Feature", "properties": { "name": "Hout Bay Museum", "type": "museum" }, "geometry": { "type": "Point", "coordinates": [ 18.3600148, -34.040244199999989 ] } },
{ "type": "Feature", "properties": { "name": "Imizamo Yethu Township Museum", "type": "museum" }, "geometry": { "type": "Point", "coordinates": [ 18.3583261, -34.0303304 ] } },
{ "type": "Feature", "properties": { "name": "The Bronze Leopard", "type": "artwork" }, "geometry": { "type": "Point", "coordinates": [ 18.3608763, -34.0489779 ] } },
{ "type": "Feature", "properties": { "name": "Ster-Kinekor", "type": "cinema" }, "geometry": { "type": "Point", "coordinates": [ 18.4522157, -34.0638242 ] } },
{ "type": "Feature", "properties": { "name": "Radio CCFm", "type": "studio" }, "geometry": { "type": "Point", "coordinates": [ 18.4676549, -34.1086831 ] } },
{ "type": "Feature", "properties": { "name": "Malmesbury Museum", "type": "museum" }, "geometry": { "type": "Point", "coordinates": [ 18.7296698, -33.4662114 ] } },
{ "type": "Feature", "properties": { "name": "Pepper Tree Art Stable", "type": "artwork" }, "geometry": { "type": "Point", "coordinates": [ 18.5819539, -33.6666386 ] } },
{ "type": "Feature", "properties": { "name": "Toy Museum", "type": "museum" }, "geometry": { "type": "Point", "coordinates": [ 18.8570793, -33.9377679 ] } },
{ "type": "Feature", "properties": { "name": "Art on The Bay Gallery - Ground Floor, The Promenade Camps Bay", "type": "artwork" }, "geometry": { "type": "Point", "coordinates": [ 18.3773286, -33.9533076 ] } },
{ "type": "Feature", "properties": { "name": "Ster-Kinekor", "type": "cinema" }, "geometry": { "type": "Point", "coordinates": [ 18.5596501, -33.8913181 ] } },
{ "type": "Feature", "properties": { "name": "Sterkinekor", "type": "cinema" }, "geometry": { "type": "Point", "coordinates": [ 18.4892236, -33.8234821 ] } },
{ "type": "Feature", "properties": { "name": "Harbour Road Art Gallery", "type": "gallery" }, "geometry": { "type": "Point", "coordinates": [ 19.013599, -34.3442793 ] } },
{ "type": "Feature", "properties": { "name": "Vincent Da Silva Gallery", "type": "gallery" }, "geometry": { "type": "Point", "coordinates": [ 18.8602932, -33.9387038 ] } },
{ "type": "Feature", "properties": { "name": "MiniMax", "type": "cinema" }, "geometry": { "type": "Point", "coordinates": [ 18.9642318, -33.7315603 ] } },
{ "type": "Feature", "properties": { "name": "", "type": "artwork" }, "geometry": { "type": "Point", "coordinates": [ 18.9623947, -33.7367175 ] } },
{ "type": "Feature", "properties": { "name": "Heemkring Archive", "type": "museum" }, "geometry": { "type": "Point", "coordinates": [ 18.9623967, -33.740539 ] } },
{ "type": "Feature", "properties": { "name": "Deukom", "type": "studio" }, "geometry": { "type": "Point", "coordinates": [ 18.8502766, -34.0805022 ] } },
{ "type": "Feature", "properties": { "name": "Pniel Museum", "type": "museum" }, "geometry": { "type": "Point", "coordinates": [ 18.95993, -33.892217 ] } },
{ "type": "Feature", "properties": { "name": "Louis Botha", "type": "artwork" }, "geometry": { "type": "Point", "coordinates": [ 18.4193714, -33.9277573 ] } },
{ "type": "Feature", "properties": { "name": "Toy Musem", "type": "museum" }, "geometry": { "type": "Point", "coordinates": [ 18.4349565, -34.1932665 ] } },
{ "type": "Feature", "properties": { "name": "Just Nuisance Statue", "type": "artwork" }, "geometry": { "type": "Point", "coordinates": [ 18.4330875, -34.1929668 ] } },
{ "type": "Feature", "properties": { "name": "The Standby Diver", "type": "artwork" }, "geometry": { "type": "Point", "coordinates": [ 18.4327983, -34.191988 ] } },
{ "type": "Feature", "properties": { "name": "The Potters Gallery", "type": "gallery" }, "geometry": { "type": "Point", "coordinates": [ 19.0136054, -34.3437611 ] } },
{ "type": "Feature", "properties": { "name": "Non-Violence", "type": "artwork" }, "geometry": { "type": "Point", "coordinates": [ 18.4202924, -33.9048443 ] } },
{ "type": "Feature", "properties": { "name": "Creative Nestling", "type": "artwork" }, "geometry": { "type": "Point", "coordinates": [ 18.4206924, -33.9234598 ] } },
{ "type": "Feature", "properties": { "name": "Castle Military Museum", "type": "museum" }, "geometry": { "type": "Point", "coordinates": [ 18.4279654, -33.9253542 ] } },
{ "type": "Feature", "properties": { "name": "Home", "type": "artwork" }, "geometry": { "type": "Point", "coordinates": [ 18.7269769, -34.014631 ] } },
{ "type": "Feature", "properties": { "name": "fabric centre", "type": "artwork" }, "geometry": { "type": "Point", "coordinates": [ 18.8173205, -34.0769223 ] } },
{ "type": "Feature", "properties": { "name": "The Brother Sound", "type": "studio" }, "geometry": { "type": "Point", "coordinates": [ 18.6790754, -33.878395500000011 ] } },
{ "type": "Feature", "properties": { "name": "", "type": "artwork" }, "geometry": { "type": "Point", "coordinates": [ 18.4579474, -34.2616382 ] } },
{ "type": "Feature", "properties": { "name": "Cape Town Diamond Museum", "type": "museum" }, "geometry": { "type": "Point", "coordinates": [ 18.4224624, -33.9071799 ] } },
{ "type": "Feature", "properties": { "name": "Museum van de Caab", "type": "museum" }, "geometry": { "type": "Point", "coordinates": [ 18.9897116, -33.864137 ] } },
{ "type": "Feature", "properties": { "name": "", "type": "artwork" }, "geometry": { "type": "Point", "coordinates": [ 18.4451715, -33.9266895 ] } },
{ "type": "Feature", "properties": { "name": "", "type": "arts_centre" }, "geometry": { "type": "Point", "coordinates": [ 18.3457871, -34.0544717 ] } },
{ "type": "Feature", "properties": { "name": "Robyn's Weir", "type": "artwork" }, "geometry": { "type": "Point", "coordinates": [ 18.4668808, -34.0823174 ] } },
{ "type": "Feature", "properties": { "name": "Red Rock Tribal", "type": "artwork" }, "geometry": { "type": "Point", "coordinates": [ 18.4070122, -34.20584920000001 ] } },
{ "type": "Feature", "properties": { "name": "Red Rock Tribal", "type": "artwork" }, "geometry": { "type": "Point", "coordinates": [ 18.4072388, -34.205828399999987 ] } },
{ "type": "Feature", "properties": { "name": "Chavonnes Battery Museum", "type": "museum" }, "geometry": { "type": "Point", "coordinates": [ 18.421602, -33.9071143 ] } },
{ "type": "Feature", "properties": { "name": "South African Maritime Museum", "type": "museum" }, "geometry": { "type": "Point", "coordinates": [ 18.4200986, -33.9056357 ] } },
{ "type": "Feature", "properties": { "name": "Robben Island Jetty Museum", "type": "museum" }, "geometry": { "type": "Point", "coordinates": [ 18.422448, -33.9067545 ] } },
{ "type": "Feature", "properties": { "name": "Cape Medical Museum", "type": "museum" }, "geometry": { "type": "Point", "coordinates": [ 18.4147656, -33.9071848 ] } },
{ "type": "Feature", "properties": { "name": "Spes Bona Mural", "type": "artwork" }, "geometry": { "type": "Point", "coordinates": [ 18.5988779, -34.0639449 ] } },
{ "type": "Feature", "properties": { "name": "Perceiving Freedom", "type": "artwork" }, "geometry": { "type": "Point", "coordinates": [ 18.3956512, -33.9066699 ] } },
{ "type": "Feature", "properties": { "name": "An Arch for Arch", "type": "artwork" }, "geometry": { "type": "Point", "coordinates": [ 18.4198687, -33.9250274 ] } },
{ "type": "Feature", "properties": { "name": "Rock suspended over water", "type": "artwork" }, "geometry": { "type": "Point", "coordinates": [ 18.9864505, -33.8587756 ] } },
{ "type": "Feature", "properties": { "name": "The Bell Tower", "type": "artwork" }, "geometry": { "type": "Point", "coordinates": [ 18.9860115, -33.8589984 ] } },
{ "type": "Feature", "properties": { "name": "18 Gangster Museum", "type": "museum" }, "geometry": { "type": "Point", "coordinates": [ 18.6906218, -34.0489561 ] } },
{ "type": "Feature", "properties": { "name": "", "type": "artwork" }, "geometry": { "type": "Point", "coordinates": [ 18.5624974, -34.073945 ] } },
{ "type": "Feature", "properties": { "name": "imax", "type": "cinema" }, "geometry": { "type": "Point", "coordinates": [ 18.6971584, -33.85283290000001 ] } },
{ "type": "Feature", "properties": { "name": "Queen Victoria", "type": "artwork" }, "geometry": { "type": "Point", "coordinates": [ 18.4201857, -33.9253779 ] } },
{ "type": "Feature", "properties": { "name": "J.C. Smuts", "type": "artwork" }, "geometry": { "type": "Point", "coordinates": [ 18.4201334, -33.9250551 ] } },
{ "type": "Feature", "properties": { "name": "Art it is", "type": "artwork" }, "geometry": { "type": "Point", "coordinates": [ 18.4472261, -33.9266504 ] } },
{ "type": "Feature", "properties": { "name": "Heart of Cape Town Museum", "type": "museum" }, "geometry": { "type": "Point", "coordinates": [ 18.461395, -33.9411108 ] } },
{ "type": "Feature", "properties": { "name": "SWELL", "type": "bench" }, "geometry": { "type": "Point", "coordinates": [ 18.3787642, -33.9496794 ] } },
{ "type": "Feature", "properties": { "name": "Table Mountain Viewing Frame", "type": "artwork" }, "geometry": { "type": "Point", "coordinates": [ 18.4210222, -33.9060945 ] } },
{ "type": "Feature", "properties": { "name": "Cape Town Creative Academy", "type": "gallery" }, "geometry": { "type": "Point", "coordinates": [ 18.4233761, -33.9080499 ] } },
{ "type": "Feature", "properties": { "name": "Spotty Dog", "type": "artwork" }, "geometry": { "type": "Point", "coordinates": [ 18.4579157, -34.07150020000001 ] } },
{ "type": "Feature", "properties": { "name": "Buried Dragon Skull", "type": "artwork" }, "geometry": { "type": "Point", "coordinates": [ 18.341645, -34.04351650000001 ] } },
{ "type": "Feature", "properties": { "name": "Dragon Skeleton", "type": "artwork" }, "geometry": { "type": "Point", "coordinates": [ 18.3420825, -34.0424266 ] } },
{ "type": "Feature", "properties": { "name": "Rhinos", "type": "artwork" }, "geometry": { "type": "Point", "coordinates": [ 18.4182883, -34.0595525 ] } },
{ "type": "Feature", "properties": { "name": "J. H. Marais", "type": "artwork" }, "geometry": { "type": "Point", "coordinates": [ 18.8639925, -33.9330244 ] } },
{ "type": "Feature", "properties": { "name": "Neelsie Cinema", "type": "cinema" }, "geometry": { "type": "Point", "coordinates": [ 18.8655439, -33.932766 ] } },
{ "type": "Feature", "properties": { "name": "Drostdy Theatre", "type": "theatre" }, "geometry": { "type": "Point", "coordinates": [ 18.8588073, -33.93582510000001 ] } },
{ "type": "Feature", "properties": { "name": "Strandfontein Snake Park Statue", "type": "artwork" }, "geometry": { "type": "Point", "coordinates": [ 18.5713363, -34.0720168 ] } },
{ "type": "Feature", "properties": { "name": "Robben Island photo point", "type": "artwork" }, "geometry": { "type": "Point", "coordinates": [ 18.3788866, -33.8174934 ] } },
{ "type": "Feature", "properties": { "name": "Galloway Theatre", "type": "theatre" }, "geometry": { "type": "Point", "coordinates": [ 18.421861, -33.9143339 ] } },
{ "type": "Feature", "properties": { "name": "Peter", "type": "artwork" }, "geometry": { "type": "Point", "coordinates": [ 18.4878149, -33.954439199999989 ] } },
{ "type": "Feature", "properties": { "name": "", "type": "gallery" }, "geometry": { "type": "Point", "coordinates": [ 18.4086387, -33.9302112 ] } },
{ "type": "Feature", "properties": { "name": "", "type": "artwork" }, "geometry": { "type": "Point", "coordinates": [ 18.440185, -33.6774219 ] } },
{ "type": "Feature", "properties": { "name": "Norval Foundation", "type": "gallery" }, "geometry": { "type": "Point", "coordinates": [ 18.4289061, -34.0764763 ] } },
{ "type": "Feature", "properties": { "name": "Lesley Charnock Gallery and Studio", "type": "gallery" }, "geometry": { "type": "Point", "coordinates": [ 18.4574687, -33.969894099999983 ] } },
{ "type": "Feature", "properties": { "name": "Bush Radio", "type": "studio" }, "geometry": { "type": "Point", "coordinates": [ 18.4567373, -33.9324606 ] } },
{ "type": "Feature", "properties": { "name": "Voice of the Cape", "type": "studio" }, "geometry": { "type": "Point", "coordinates": [ 18.4572492, -33.932822299999984 ] } },
{ "type": "Feature", "properties": { "name": "Victoria Art Gallery", "type": "gallery" }, "geometry": { "type": "Point", "coordinates": [ 18.4478679, -33.9289754 ] } },
{ "type": "Feature", "properties": { "name": "Artists Admin", "type": "gallery" }, "geometry": { "type": "Point", "coordinates": [ 18.4220593, -33.9294562 ] } },
{ "type": "Feature", "properties": { "name": "", "type": "artwork" }, "geometry": { "type": "Point", "coordinates": [ 18.5365972, -33.8251728 ] } },
{ "type": "Feature", "properties": { "name": "Energy", "type": "artwork" }, "geometry": { "type": "Point", "coordinates": [ 18.8739337, -33.932643 ] } },
{ "type": "Feature", "properties": { "name": "The Way", "type": "artwork" }, "geometry": { "type": "Point", "coordinates": [ 18.8733295, -33.9334734 ] } },
{ "type": "Feature", "properties": { "name": "Two-in-one", "type": "artwork" }, "geometry": { "type": "Point", "coordinates": [ 18.873548, -33.9336358 ] } },
{ "type": "Feature", "properties": { "name": "Flight", "type": "artwork" }, "geometry": { "type": "Point", "coordinates": [ 18.8736465, -33.9337105 ] } },
{ "type": "Feature", "properties": { "name": "Spirit of '63", "type": "artwork" }, "geometry": { "type": "Point", "coordinates": [ 18.8737288, -33.9337737 ] } },
{ "type": "Feature", "properties": { "name": "Growth", "type": "artwork" }, "geometry": { "type": "Point", "coordinates": [ 18.8738155, -33.9338388 ] } },
{ "type": "Feature", "properties": { "name": "Karools", "type": "artwork" }, "geometry": { "type": "Point", "coordinates": [ 18.8733463, -33.9342965 ] } },
{ "type": "Feature", "properties": { "name": "Bridge House Theatre", "type": "theatre" }, "geometry": { "type": "Point", "coordinates": [ 19.0294681, -33.8812083 ] } },
{ "type": "Feature", "properties": { "name": "Avalon Auditorium", "type": "theatre" }, "geometry": { "type": "Point", "coordinates": [ 18.4246548, -33.9269738 ] } },
{ "type": "Feature", "properties": { "name": "Star Theatre", "type": "theatre" }, "geometry": { "type": "Point", "coordinates": [ 18.4248761, -33.9271365 ] } },
{ "type": "Feature", "properties": { "name": "", "type": "artwork" }, "geometry": { "type": "Point", "coordinates": [ 18.422958, -33.909776100000016 ] } },
{ "type": "Feature", "properties": { "name": "", "type": "artwork" }, "geometry": { "type": "Point", "coordinates": [ 18.4267944, -33.9186847 ] } },
{ "type": "Feature", "properties": { "name": "", "type": "artwork" }, "geometry": { "type": "Point", "coordinates": [ 18.4267656, -33.9186587 ] } },
{ "type": "Feature", "properties": { "name": "", "type": "artwork" }, "geometry": { "type": "Point", "coordinates": [ 18.4268292, -33.9187075 ] } },
{ "type": "Feature", "properties": { "name": "", "type": "artwork" }, "geometry": { "type": "Point", "coordinates": [ 18.4317834, -33.9866743 ] } },
{ "type": "Feature", "properties": { "name": "", "type": "artwork" }, "geometry": { "type": "Point", "coordinates": [ 18.4319151, -33.9872796 ] } },
{ "type": "Feature", "properties": { "name": "", "type": "artwork" }, "geometry": { "type": "Point", "coordinates": [ 19.0064677, -33.640958 ] } },
{ "type": "Feature", "properties": { "name": "", "type": "artwork" }, "geometry": { "type": "Point", "coordinates": [ 18.8638949, -33.9386589 ] } },
{ "type": "Feature", "properties": { "name": "Dylan Lewis Studio and Sculpture Garden", "type": "gallery" }, "geometry": { "type": "Point", "coordinates": [ 18.8730446, -33.9715342 ] } },
{ "type": "Feature", "properties": { "name": "", "type": "artwork" }, "geometry": { "type": "Point", "coordinates": [ 18.8643783, -33.938548 ] } },
{ "type": "Feature", "properties": { "name": "", "type": "artwork" }, "geometry": { "type": "Point", "coordinates": [ 18.8098168, -33.7597492 ] } },
{ "type": "Feature", "properties": { "name": "", "type": "artwork" }, "geometry": { "type": "Point", "coordinates": [ 18.8095888, -33.7597827 ] } },
{ "type": "Feature", "properties": { "name": "", "type": "artwork" }, "geometry": { "type": "Point", "coordinates": [ 18.6532783, -33.9181082 ] } },
{ "type": "Feature", "properties": { "name": "", "type": "artwork" }, "geometry": { "type": "Point", "coordinates": [ 18.8583239, -33.9376757 ] } },
{ "type": "Feature", "properties": { "name": "PJ Olivier Art Centre", "type": "arts_centre" }, "geometry": { "type": "Point", "coordinates": [ 18.8581543, -33.9377046 ] } },
{ "type": "Feature", "properties": { "name": "GUS Gallery", "type": "gallery" }, "geometry": { "type": "Point", "coordinates": [ 18.8600335, -33.9386712 ] } },
{ "type": "Feature", "properties": { "name": "", "type": "artwork" }, "geometry": { "type": "Point", "coordinates": [ 18.3998651, -33.904182499999983 ] } },
{ "type": "Feature", "properties": { "name": "Anchor-Alexander Place", "type": "artwork" }, "geometry": { "type": "Point", "coordinates": [ 18.4002751, -33.901756399999989 ] } },
{ "type": "Feature", "properties": { "name": "", "type": "artwork" }, "geometry": { "type": "Point", "coordinates": [ 18.4171913, -33.9044877 ] } },
{ "type": "Feature", "properties": { "name": "", "type": "artwork" }, "geometry": { "type": "Point", "coordinates": [ 18.3852669, -33.9180288 ] } },
{ "type": "Feature", "properties": { "name": "", "type": "artwork" }, "geometry": { "type": "Point", "coordinates": [ 18.4277827, -34.076765499999986 ] } },
{ "type": "Feature", "properties": { "name": "", "type": "artwork" }, "geometry": { "type": "Point", "coordinates": [ 18.428113, -34.076511 ] } },
{ "type": "Feature", "properties": { "name": "", "type": "artwork" }, "geometry": { "type": "Point", "coordinates": [ 18.4280751, -34.07729 ] } },
{ "type": "Feature", "properties": { "name": "", "type": "artwork" }, "geometry": { "type": "Point", "coordinates": [ 18.4279176, -34.0761141 ] } },
{ "type": "Feature", "properties": { "name": "", "type": "artwork" }, "geometry": { "type": "Point", "coordinates": [ 18.4282931, -34.075668 ] } },
{ "type": "Feature", "properties": { "name": "", "type": "artwork" }, "geometry": { "type": "Point", "coordinates": [ 18.4286978, -34.0772888 ] } },
{ "type": "Feature", "properties": { "name": "", "type": "artwork" }, "geometry": { "type": "Point", "coordinates": [ 18.4283315, -34.075778 ] } },
{ "type": "Feature", "properties": { "name": "", "type": "artwork" }, "geometry": { "type": "Point", "coordinates": [ 18.4278767, -34.0774464 ] } },
{ "type": "Feature", "properties": { "name": "", "type": "artwork" }, "geometry": { "type": "Point", "coordinates": [ 18.4276149, -34.0778183 ] } },
{ "type": "Feature", "properties": { "name": "", "type": "artwork" }, "geometry": { "type": "Point", "coordinates": [ 18.4326943, -33.9193786 ] } },
{ "type": "Feature", "properties": { "name": "", "type": "artwork" }, "geometry": { "type": "Point", "coordinates": [ 18.4594562, -33.952399299999989 ] } },
{ "type": "Feature", "properties": { "name": "", "type": "artwork" }, "geometry": { "type": "Point", "coordinates": [ 18.4591536, -33.952314 ] } },
{ "type": "Feature", "properties": { "name": "", "type": "artwork" }, "geometry": { "type": "Point", "coordinates": [ 18.4592516, -33.9523219 ] } },
{ "type": "Feature", "properties": { "name": "", "type": "artwork" }, "geometry": { "type": "Point", "coordinates": [ 18.4591397, -33.9524311 ] } },
{ "type": "Feature", "properties": { "name": "", "type": "artwork" }, "geometry": { "type": "Point", "coordinates": [ 18.4592362, -33.9524395 ] } },
{ "type": "Feature", "properties": { "name": "", "type": "artwork" }, "geometry": { "type": "Point", "coordinates": [ 18.4593321, -33.952446600000016 ] } },
{ "type": "Feature", "properties": { "name": "", "type": "artwork" }, "geometry": { "type": "Point", "coordinates": [ 18.459444, -33.9524563 ] } },
{ "type": "Feature", "properties": { "name": "", "type": "artwork" }, "geometry": { "type": "Point", "coordinates": [ 18.4594578, -33.9523405 ] } },
{ "type": "Feature", "properties": { "name": "", "type": "artwork" }, "geometry": { "type": "Point", "coordinates": [ 18.4593444, -33.9523222 ] } },
{ "type": "Feature", "properties": { "name": "Airplane", "type": "artwork" }, "geometry": { "type": "Point", "coordinates": [ 18.7389609, -33.8340002 ] } },
{ "type": "Feature", "properties": { "name": "", "type": "museum" }, "geometry": { "type": "Point", "coordinates": [ 18.7391594, -33.834018 ] } },
{ "type": "Feature", "properties": { "name": "Penguin", "type": "artwork" }, "geometry": { "type": "Point", "coordinates": [ 18.4219265, -33.906035699999983 ] } },
{ "type": "Feature", "properties": { "name": "W", "type": "artwork" }, "geometry": { "type": "Point", "coordinates": [ 18.4199765, -33.906046 ] } },
{ "type": "Feature", "properties": { "name": "O", "type": "artwork" }, "geometry": { "type": "Point", "coordinates": [ 18.4199789, -33.9060243 ] } },
{ "type": "Feature", "properties": { "name": "T", "type": "artwork" }, "geometry": { "type": "Point", "coordinates": [ 18.4199772, -33.9060037 ] } },
{ "type": "Feature", "properties": { "name": "E", "type": "artwork" }, "geometry": { "type": "Point", "coordinates": [ 18.4199732, -33.9059801 ] } },
{ "type": "Feature", "properties": { "name": "P", "type": "artwork" }, "geometry": { "type": "Point", "coordinates": [ 18.4199648, -33.9059606 ] } },
{ "type": "Feature", "properties": { "name": "A", "type": "artwork" }, "geometry": { "type": "Point", "coordinates": [ 18.4199537, -33.9059422 ] } },
{ "type": "Feature", "properties": { "name": "C", "type": "artwork" }, "geometry": { "type": "Point", "coordinates": [ 18.41994, -33.9059249 ] } },
{ "type": "Feature", "properties": { "name": "N", "type": "artwork" }, "geometry": { "type": "Point", "coordinates": [ 18.4199685, -33.906069699999989 ] } },
{ "type": "Feature", "properties": { "name": "", "type": "artwork" }, "geometry": { "type": "Point", "coordinates": [ 18.4288337, -33.9896367 ] } },
{ "type": "Feature", "properties": { "name": "Ilse Schermers Art Gallery", "type": "gallery" }, "geometry": { "type": "Point", "coordinates": [ 18.8598622, -33.9387594 ] } },
{ "type": "Feature", "properties": { "name": "Rhodes Cottage", "type": "museum" }, "geometry": { "type": "Point", "coordinates": [ 18.4641982, -34.1143518 ] } },
{ "type": "Feature", "properties": { "name": "Theatre Arts", "type": "theatre" }, "geometry": { "type": "Point", "coordinates": [ 18.4659317, -33.937257499999987 ] } },
{ "type": "Feature", "properties": { "name": "", "type": "artwork" }, "geometry": { "type": "Point", "coordinates": [ 18.4221705, -33.9073095 ] } },
{ "type": "Feature", "properties": { "name": "", "type": "artwork" }, "geometry": { "type": "Point", "coordinates": [ 18.3872376, -33.9186547 ] } },
{ "type": "Feature", "properties": { "name": "Ster-Kinekor", "type": "cinema" }, "geometry": { "type": "Point", "coordinates": [ 18.6341764, -33.873 ] } },
{ "type": "Feature", "properties": { "name": "Embodiment Rope Space", "type": "studio" }, "geometry": { "type": "Point", "coordinates": [ 18.4699883, -33.926078 ] } },
{ "type": "Feature", "properties": { "name": "Soetmelksvlei – A family experience by Babylonstoren", "type": "museum" }, "geometry": { "type": "Point", "coordinates": [ 18.9346201, -33.8423752 ] } },
{ "type": "Feature", "properties": { "name": "Zone Radio", "type": "studio" }, "geometry": { "type": "Point", "coordinates": [ 18.3868784, -34.1235071 ] } },
{ "type": "Feature", "properties": { "name": "Museum of Illusions", "type": "museum" }, "geometry": { "type": "Point", "coordinates": [ 18.4129647, -33.9275532 ] } },
{ "type": "Feature", "properties": { "name": "Laude Classic Cars", "type": "museum" }, "geometry": { "type": "Point", "coordinates": [ 18.4162349, -33.9213345 ] } },
{ "type": "Feature", "properties": { "name": "Museo Della Passione", "type": "museum" }, "geometry": { "type": "Point", "coordinates": [ 18.8921545, -34.0680548 ] } },
{ "type": "Feature", "properties": { "name": "Ster Kinekor", "type": "cinema" }, "geometry": { "type": "Point", "coordinates": [ 18.4195546, -33.9041865 ] } },
{ "type": "Feature", "properties": { "name": "Voorgelegen", "type": "museum" }, "geometry": { "type": "Point", "coordinates": [ 18.8581131, -33.939008 ] } },
{ "type": "Feature", "properties": { "name": "Side Street Studios", "type": "arts_centre" }, "geometry": { "type": "Point", "coordinates": [ 18.4452343, -33.926543 ] } },
{ "type": "Feature", "properties": { "name": "Museum of Dogs", "type": "museum" }, "geometry": { "type": "Point", "coordinates": [ 18.4158803, -33.9265139 ] } },
{ "type": "Feature", "properties": { "name": "Giant Strawberry", "type": "artwork" }, "geometry": { "type": "Point", "coordinates": [ 18.8258117, -33.9991807 ] } },
{ "type": "Feature", "properties": { "name": "A Beginner's Mind", "type": "artwork" }, "geometry": { "type": "Point", "coordinates": [ 18.863606, -33.9376293 ] } },
{ "type": "Feature", "properties": { "name": "INK BOX ART Gallery", "type": "gallery" }, "geometry": { "type": "Point", "coordinates": [ 18.4501888, -34.1254138 ] } },
{ "type": "Feature", "properties": { "name": "", "type": "artwork" }, "geometry": { "type": "Point", "coordinates": [ 18.8602393, -33.938053600000011 ] } },
{ "type": "Feature", "properties": { "name": "", "type": "artwork" }, "geometry": { "type": "Point", "coordinates": [ 18.8659015, -33.9339535 ] } },
{ "type": "Feature", "properties": { "name": "", "type": "artwork" }, "geometry": { "type": "Point", "coordinates": [ 18.8640726, -33.9330241 ] } },
{ "type": "Feature", "properties": { "name": "Dourpskaarte: Bou Brue", "type": "artwork" }, "geometry": { "type": "Point", "coordinates": [ 18.8643445, -33.9333819 ] } },
{ "type": "Feature", "properties": { "name": "The Rain Taster", "type": "artwork" }, "geometry": { "type": "Point", "coordinates": [ 18.863512, -33.9370654 ] } },
{ "type": "Feature", "properties": { "name": "South African National Gallery", "type": "gallery" }, "geometry": { "type": "Point", "coordinates": [ 18.417412236327333, -33.929169258309138 ] } },
{ "type": "Feature", "properties": { "name": "Peter Clarke Art Centre", "type": "arts_centre" }, "geometry": { "type": "Point", "coordinates": [ 18.473378620196758, -33.974117376116929 ] } },
{ "type": "Feature", "properties": { "name": "Zolani Centre", "type": "theatre" }, "geometry": { "type": "Point", "coordinates": [ 18.584495801930853, -33.991650683718568 ] } },
{ "type": "Feature", "properties": { "name": "South African Broadcasting Corporation (SABC)", "type": "studio" }, "geometry": { "type": "Point", "coordinates": [ 18.393181171080951, -33.909699118763506 ] } },
{ "type": "Feature", "properties": { "name": "Baxter Theatre Center", "type": "theatre" }, "geometry": { "type": "Point", "coordinates": [ 18.470561913260241, -33.957024394516637 ] } },
{ "type": "Feature", "properties": { "name": "Little Theatre", "type": "theatre" }, "geometry": { "type": "Point", "coordinates": [ 18.414542832447378, -33.929834430957548 ] } },
{ "type": "Feature", "properties": { "name": "Iziko South African Museum", "type": "museum" }, "geometry": { "type": "Point", "coordinates": [ 18.414959511734185, -33.92888415841675 ] } },
{ "type": "Feature", "properties": { "name": "Waterworks Museum", "type": "museum" }, "geometry": { "type": "Point", "coordinates": [ 18.407556999988923, -33.974884200010628 ] } },
{ "type": "Feature", "properties": { "name": "Zeitz Museum of Contemporary Art Africa (MOCAA)", "type": "museum" }, "geometry": { "type": "Point", "coordinates": [ 18.4229939965171, -33.90840450503368 ] } },
{ "type": "Feature", "properties": { "name": "Iziko Slave Lodge", "type": "museum" }, "geometry": { "type": "Point", "coordinates": [ 18.420567857872641, -33.9251523540457 ] } },
{ "type": "Feature", "properties": { "name": "Ster Kinekor", "type": "cinema" }, "geometry": { "type": "Point", "coordinates": [ 18.826701980376964, -34.083725677268248 ] } },
{ "type": "Feature", "properties": { "name": "Rupert Museum", "type": "museum" }, "geometry": { "type": "Point", "coordinates": [ 18.849814577448875, -33.941834201102289 ] } },
{ "type": "Feature", "properties": { "name": "Groote Schuur", "type": "museum" }, "geometry": { "type": "Point", "coordinates": [ 18.463990973314047, -33.963727008561669 ] } },
{ "type": "Feature", "properties": { "name": "Lwandle Migrant Workers Museum", "type": "museum" }, "geometry": { "type": "Point", "coordinates": [ 18.865051549984134, -34.118923200038566 ] } },
{ "type": "Feature", "properties": { "name": "Stage 2", "type": "studio" }, "geometry": { "type": "Point", "coordinates": [ 18.719505483127964, -34.028995668429943 ] } },
{ "type": "Feature", "properties": { "name": "Stage 3", "type": "studio" }, "geometry": { "type": "Point", "coordinates": [ 18.71826351695227, -34.029524556259751 ] } },
{ "type": "Feature", "properties": { "name": "Stage 1", "type": "studio" }, "geometry": { "type": "Point", "coordinates": [ 18.718957550588318, -34.029924435502394 ] } },
{ "type": "Feature", "properties": { "name": "Stage 4", "type": "studio" }, "geometry": { "type": "Point", "coordinates": [ 18.718757785851967, -34.028685903386389 ] } },
{ "type": "Feature", "properties": { "name": "The Labia Theater", "type": "cinema" }, "geometry": { "type": "Point", "coordinates": [ 18.412311202410105, -33.930023148436916 ] } },
{ "type": "Feature", "properties": { "name": "Cape Town Holocaust Centre", "type": "museum" }, "geometry": { "type": "Point", "coordinates": [ 18.416599876357274, -33.930254757098119 ] } },
{ "type": "Feature", "properties": { "name": "South African Jewish Museum", "type": "museum" }, "geometry": { "type": "Point", "coordinates": [ 18.416985281736299, -33.929897285945508 ] } },
{ "type": "Feature", "properties": { "name": "Rosebank Theatre", "type": "theatre" }, "geometry": { "type": "Point", "coordinates": [ 18.474307701484456, -33.953986980629935 ] } },
{ "type": "Feature", "properties": { "name": "Paarl Museum", "type": "museum" }, "geometry": { "type": "Point", "coordinates": [ 18.964234136225244, -33.732386251500387 ] } },
{ "type": "Feature", "properties": { "name": "Afrikaanse Taalmuseum", "type": "museum" }, "geometry": { "type": "Point", "coordinates": [ 18.963432950090262, -33.734266149969912 ] } },
{ "type": "Feature", "properties": { "name": "Historium Conference Centre", "type": "museum" }, "geometry": { "type": "Point", "coordinates": [ 18.963889469679543, -33.734029782568562 ] } },
{ "type": "Feature", "properties": { "name": "De Oude Woning", "type": "museum" }, "geometry": { "type": "Point", "coordinates": [ 18.962407410527934, -33.740494305221489 ] } },
{ "type": "Feature", "properties": { "name": "Wellington Museum", "type": "museum" }, "geometry": { "type": "Point", "coordinates": [ 19.011935831038226, -33.63771195528232 ] } },
{ "type": "Feature", "properties": { "name": "Ouma Granny's House", "type": "museum" }, "geometry": { "type": "Point", "coordinates": [ 19.007745581611164, -33.641571279523085 ] } },
{ "type": "Feature", "properties": { "name": "eTV", "type": "studio" }, "geometry": { "type": "Point", "coordinates": [ 18.426141960542793, -33.932376711930232 ] } },
{ "type": "Feature", "properties": { "name": "District Six Museum", "type": "museum" }, "geometry": { "type": "Point", "coordinates": [ 18.423745400716395, -33.927811001759451 ] } },
{ "type": "Feature", "properties": { "name": "Adam Small", "type": "theatre" }, "geometry": { "type": "Point", "coordinates": [ 18.860978740511545, -33.933909473552063 ] } },
{ "type": "Feature", "properties": { "name": "Stellenbosch University Museum", "type": "museum" }, "geometry": { "type": "Point", "coordinates": [ 18.863013923013298, -33.935259941934177 ] } },
{ "type": "Feature", "properties": { "name": "Simonstown Museum", "type": "museum" }, "geometry": { "type": "Point", "coordinates": [ 18.427570495420785, -34.191360616712316 ] } },
{ "type": "Feature", "properties": { "name": "South African Naval Museum", "type": "museum" }, "geometry": { "type": "Point", "coordinates": [ 18.427755188069412, -34.191706674374196 ] } },
{ "type": "Feature", "properties": { "name": "Amlay House Heritage Museum", "type": "museum" }, "geometry": { "type": "Point", "coordinates": [ 18.435241986481952, -34.192988481027527 ] } },
{ "type": "Feature", "properties": { "name": "Star Dust Theatrical Diner", "type": "theatre" }, "geometry": { "type": "Point", "coordinates": [ 18.434557713638156, -33.927664669408493 ] } },
{ "type": "Feature", "properties": { "name": "Vergelegen Library", "type": "museum" }, "geometry": { "type": "Point", "coordinates": [ 18.890514289048809, -34.077236479409272 ] } },
{ "type": "Feature", "properties": { "name": "", "type": "gallery" }, "geometry": { "type": "Point", "coordinates": [ 18.350286722429949, -34.039189296694076 ] } },
{ "type": "Feature", "properties": { "name": "", "type": "theatre" }, "geometry": { "type": "Point", "coordinates": [ 18.360715718840591, -34.047411739466796 ] } },
{ "type": "Feature", "properties": { "name": "Milnerton Playhouse Theatre", "type": "theatre" }, "geometry": { "type": "Point", "coordinates": [ 18.496903289443772, -33.868039021126478 ] } },
{ "type": "Feature", "properties": { "name": "Cape Town Film Studios", "type": "studio" }, "geometry": { "type": "Point", "coordinates": [ 18.720017668016983, -34.031539065759247 ] } },
{ "type": "Feature", "properties": { "name": "Amphitheatre", "type": "theatre" }, "geometry": { "type": "Point", "coordinates": [ 18.420069877080294, -33.904842298832904 ] } },
{ "type": "Feature", "properties": { "name": "The Knot", "type": "artwork" }, "geometry": { "type": "Point", "coordinates": [ 18.427829100021782, -33.920624300005514 ] } },
{ "type": "Feature", "properties": { "name": "Artscape Theatre Centre", "type": "theatre" }, "geometry": { "type": "Point", "coordinates": [ 18.430432773319598, -33.919739396902592 ] } },
{ "type": "Feature", "properties": { "name": "Bo-Kaap Museum", "type": "museum" }, "geometry": { "type": "Point", "coordinates": [ 18.414885301932003, -33.921423629862105 ] } },
{ "type": "Feature", "properties": { "name": "Robben Island Prison", "type": "museum" }, "geometry": { "type": "Point", "coordinates": [ 18.371242020841379, -33.800129288252876 ] } },
{ "type": "Feature", "properties": { "name": "Fish Hoek Valley Museum", "type": "museum" }, "geometry": { "type": "Point", "coordinates": [ 18.42728917993837, -34.137344727993735 ] } },
{ "type": "Feature", "properties": { "name": "Taalmonumenr Amfiteater", "type": "theatre" }, "geometry": { "type": "Point", "coordinates": [ 18.945319806160182, -33.764695362061424 ] } },
{ "type": "Feature", "properties": { "name": "The Playhouse Theatre Somerset West", "type": "theatre" }, "geometry": { "type": "Point", "coordinates": [ 18.866235090144386, -34.078674131281218 ] } },
{ "type": "Feature", "properties": { "name": "Old Town House Museum", "type": "museum" }, "geometry": { "type": "Point", "coordinates": [ 18.41988228675438, -33.923125789012396 ] } },
{ "type": "Feature", "properties": { "name": "", "type": "theatre" }, "geometry": { "type": "Point", "coordinates": [ 18.782138525255544, -33.975103960532941 ] } },
{ "type": "Feature", "properties": { "name": "Groot Constantia Manor House", "type": "museum" }, "geometry": { "type": "Point", "coordinates": [ 18.418753140048867, -34.031171953463463 ] } },
{ "type": "Feature", "properties": { "name": "", "type": "theatre" }, "geometry": { "type": "Point", "coordinates": [ 18.430196308178164, -33.930762950498931 ] } },
{ "type": "Feature", "properties": { "name": "", "type": "theatre" }, "geometry": { "type": "Point", "coordinates": [ 18.4013971723762, -33.905107033479688 ] } },
{ "type": "Feature", "properties": { "name": "Statue of Edward Vll", "type": "artwork" }, "geometry": { "type": "Point", "coordinates": [ 18.424332902315438, -33.924848033150681 ] } },
{ "type": "Feature", "properties": { "name": "Museum (Old Pass Court)", "type": "museum" }, "geometry": { "type": "Point", "coordinates": [ 18.525987648328833, -33.944166522836611 ] } },
{ "type": "Feature", "properties": { "name": "Magnet Theatre", "type": "theatre" }, "geometry": { "type": "Point", "coordinates": [ 18.467993601341167, -33.935661097986049 ] } },
{ "type": "Feature", "properties": { "name": "Little Ben", "type": "artwork" }, "geometry": { "type": "Point", "coordinates": [ 18.962347800005691, -33.808045850004063 ] } },
{ "type": "Feature", "properties": { "name": "Oude Libertas Amphitheatre", "type": "theatre" }, "geometry": { "type": "Point", "coordinates": [ 18.839489139927011, -33.940277075767618 ] } },
{ "type": "Feature", "properties": { "name": "", "type": "gallery" }, "geometry": { "type": "Point", "coordinates": [ 18.408583348750966, -33.93028106609983 ] } },
{ "type": "Feature", "properties": { "name": "Masque Theatre", "type": "theatre" }, "geometry": { "type": "Point", "coordinates": [ 18.468487321866718, -34.102719625758567 ] } },
{ "type": "Feature", "properties": { "name": "Village Museum", "type": "museum" }, "geometry": { "type": "Point", "coordinates": [ 18.863159940732103, -33.937370090746015 ] } },
{ "type": "Feature", "properties": { "name": "Bushmen Art Gallery", "type": "arts_centre" }, "geometry": { "type": "Point", "coordinates": [ 18.414675514180939, -33.928203309191744 ] } },
{ "type": "Feature", "properties": { "name": "", "type": "arts_centre" }, "geometry": { "type": "Point", "coordinates": [ 18.611716491039282, -33.893438011419583 ] } },
{ "type": "Feature", "properties": { "name": "", "type": "museum" }, "geometry": { "type": "Point", "coordinates": [ 18.477373958171, -33.9354220301135 ] } },
{ "type": "Feature", "properties": { "name": "South African Sendinggestig Museum", "type": "place_of_worship" }, "geometry": { "type": "Point", "coordinates": [ 18.420279350381261, -33.92111074868793 ] } },
{ "type": "Feature", "properties": { "name": "Koopmans-de Wet House", "type": "museum" }, "geometry": { "type": "Point", "coordinates": [ 18.421277324846049, -33.920950503224844 ] } },
{ "type": "Feature", "properties": { "name": "Malmesbury Museum", "type": "museum" }, "geometry": { "type": "Point", "coordinates": [ 18.729745567097769, -33.466259568130965 ] } },
{ "type": "Feature", "properties": { "name": "Go DriveIn", "type": "cinema" }, "geometry": { "type": "Point", "coordinates": [ 18.458731335131585, -33.934000621302964 ] } },
{ "type": "Feature", "properties": { "name": "Greatmore Studios", "type": "studio" }, "geometry": { "type": "Point", "coordinates": [ 18.454066388914217, -33.930242074349209 ] } },
{ "type": "Feature", "properties": { "name": "G Studios", "type": "studio" }, "geometry": { "type": "Point", "coordinates": [ 18.465677721178185, -33.931930131590413 ] } },
{ "type": "Feature", "properties": { "name": "Rust en Vreugd", "type": "museum" }, "geometry": { "type": "Point", "coordinates": [ 18.420315644832943, -33.930242969804659 ] } },
{ "type": "Feature", "properties": { "name": "Joseph Stone Theatre", "type": "theatre" }, "geometry": { "type": "Point", "coordinates": [ 18.511243491584342, -33.961346091244259 ] } },
{ "type": "Feature", "properties": { "name": "", "type": "theatre" }, "geometry": { "type": "Point", "coordinates": [ 18.854269387953053, -33.901455021177739 ] } },
{ "type": "Feature", "properties": { "name": "Irma Stern Museum", "type": "museum" }, "geometry": { "type": "Point", "coordinates": [ 18.469414406004528, -33.952814460549455 ] } },
{ "type": "Feature", "properties": { "name": "Luister-fluister trompet", "type": "artwork" }, "geometry": { "type": "Point", "coordinates": [ 18.875133900015431, -33.933813250002295 ] } },
{ "type": "Feature", "properties": { "name": "iMadiba Project", "type": "artwork" }, "geometry": { "type": "Point", "coordinates": [ 18.873505716963113, -33.933692751628151 ] } },
{ "type": "Feature", "properties": { "name": "Stage 5", "type": "studio" }, "geometry": { "type": "Point", "coordinates": [ 18.717549521133076, -34.029210412838864 ] } },
{ "type": "Feature", "properties": { "name": "Franschhoek Motor Museum", "type": "museum" }, "geometry": { "type": "Point", "coordinates": [ 19.003005808763625, -33.879830110079105 ] } },
{ "type": "Feature", "properties": { "name": "", "type": "museum" }, "geometry": { "type": "Point", "coordinates": [ 19.002541316448514, -33.879519266841186 ] } },
{ "type": "Feature", "properties": { "name": "", "type": "museum" }, "geometry": { "type": "Point", "coordinates": [ 19.003091566448749, -33.87933436684645 ] } },
{ "type": "Feature", "properties": { "name": "", "type": "museum" }, "geometry": { "type": "Point", "coordinates": [ 19.002284214255504, -33.878969598011977 ] } },
{ "type": "Feature", "properties": { "name": "", "type": "museum" }, "geometry": { "type": "Point", "coordinates": [ 19.002835614255503, -33.878788198011996 ] } },
{ "type": "Feature", "properties": { "name": "South African Police Service Museum", "type": "museum" }, "geometry": { "type": "Point", "coordinates": [ 18.466703931905034, -34.110640798360009 ] } },
{ "type": "Feature", "properties": { "name": "Save Our Seas Foundation Shark Education Centre", "type": "museum" }, "geometry": { "type": "Point", "coordinates": [ 18.452138484188815, -34.123919342464923 ] } },
{ "type": "Feature", "properties": { "name": "Kalk Bay Theatre", "type": "theatre" }, "geometry": { "type": "Point", "coordinates": [ 18.450610126813661, -34.126186726418872 ] } },
{ "type": "Feature", "properties": { "name": "Classic Car Collection", "type": "museum" }, "geometry": { "type": "Point", "coordinates": [ 18.719204456345427, -33.900335829680728 ] } },
{ "type": "Feature", "properties": { "name": "Marvol Collection", "type": "arts_centre" }, "geometry": { "type": "Point", "coordinates": [ 18.719602830201637, -33.90042860957228 ] } },
{ "type": "Feature", "properties": { "name": "Rust-en-Vrede Gallery and Clay Museum", "type": "museum" }, "geometry": { "type": "Point", "coordinates": [ 18.648781676321768, -33.831654426633001 ] } },
{ "type": "Feature", "properties": { "name": "", "type": "theatre" }, "geometry": { "type": "Point", "coordinates": [ 18.398703637156753, -33.929807284354091 ] } },
{ "type": "Feature", "properties": { "name": "Tropical Island Set", "type": "studio" }, "geometry": { "type": "Point", "coordinates": [ 18.718732315782578, -34.032521641435423 ] } },
{ "type": "Feature", "properties": { "name": "MOP", "type": "studio" }, "geometry": { "type": "Point", "coordinates": [ 18.719858034744817, -34.029418475941554 ] } },
{ "type": "Feature", "properties": { "name": "Ship Pad", "type": "studio" }, "geometry": { "type": "Point", "coordinates": [ 18.722953113048419, -34.03323003136785 ] } },
{ "type": "Feature", "properties": { "name": "CTFS - Administration", "type": "studio" }, "geometry": { "type": "Point", "coordinates": [ 18.720414617313597, -34.029366612248843 ] } }
]
}
