{
"type": "FeatureCollection",
"name": "catalytic_sports",
"crs": { "type": "name", "properties": { "name": "urn:ogc:def:crs:OGC:1.3:CRS84" } },
"features": [
{ "type": "Feature", "properties": { "name": "Virgin Active", "type": "fitness_centre" }, "geometry": { "type": "Point", "coordinates": [ 18.4225394, -33.9328529 ] } },
{ "type": "Feature", "properties": { "name": "The Zone", "type": "sports_centre" }, "geometry": { "type": "Point", "coordinates": [ 18.4312824, -34.138262599999983 ] } },
{ "type": "Feature", "properties": { "name": "Virgin Active", "type": "fitness_centre" }, "geometry": { "type": "Point", "coordinates": [ 18.3892348, -34.1218032 ] } },
{ "type": "Feature", "properties": { "name": "Body Solid", "type": "sports_centre" }, "geometry": { "type": "Point", "coordinates": [ 18.35037, -34.042453 ] } },
{ "type": "Feature", "properties": { "name": "Cricket field", "type": "sports_centre" }, "geometry": { "type": "Point", "coordinates": [ 18.536404, -33.8820668 ] } },
{ "type": "Feature", "properties": { "name": "Virgin Active", "type": "fitness_centre" }, "geometry": { "type": "Point", "coordinates": [ 18.4859789, -33.9887421 ] } },
{ "type": "Feature", "properties": { "name": "Curves", "type": "fitness_centre" }, "geometry": { "type": "Point", "coordinates": [ 18.4637274, -33.9816711 ] } },
{ "type": "Feature", "properties": { "name": "Zone Fitness", "type": "sports_centre" }, "geometry": { "type": "Point", "coordinates": [ 18.6776903, -33.8440265 ] } },
{ "type": "Feature", "properties": { "name": "Virgin Active", "type": "fitness_centre" }, "geometry": { "type": "Point", "coordinates": [ 18.4650671, -33.9775817 ] } },
{ "type": "Feature", "properties": { "name": "The Fitness Zone", "type": "sports_centre" }, "geometry": { "type": "Point", "coordinates": [ 18.5093679, -33.8822988 ] } },
{ "type": "Feature", "properties": { "name": "Zone Fitness", "type": "sports_centre" }, "geometry": { "type": "Point", "coordinates": [ 18.6475526, -33.8334459 ] } },
{ "type": "Feature", "properties": { "name": "Virgin Active", "type": "fitness_centre" }, "geometry": { "type": "Point", "coordinates": [ 18.5545005, -33.8920952 ] } },
{ "type": "Feature", "properties": { "name": "Trenox Ignite Fitness", "type": "fitness_centre" }, "geometry": { "type": "Point", "coordinates": [ 18.466591, -33.979567 ] } },
{ "type": "Feature", "properties": { "name": "The Zone Fitness Gym for Women", "type": "sports_centre" }, "geometry": { "type": "Point", "coordinates": [ 18.4109663, -33.9295524 ] } },
{ "type": "Feature", "properties": { "name": "Planet Fitness", "type": "sports_centre" }, "geometry": { "type": "Point", "coordinates": [ 18.4980413, -33.8173157 ] } },
{ "type": "Feature", "properties": { "name": "Virgin Active", "type": "fitness_centre" }, "geometry": { "type": "Point", "coordinates": [ 18.6471189, -33.8317214 ] } },
{ "type": "Feature", "properties": { "name": "West Workout Gym", "type": "sports_centre" }, "geometry": { "type": "Point", "coordinates": [ 18.8506935, -34.0824613 ] } },
{ "type": "Feature", "properties": { "name": "Virgin Active", "type": "fitness_centre" }, "geometry": { "type": "Point", "coordinates": [ 18.8237282, -34.0692403 ] } },
{ "type": "Feature", "properties": { "name": "Bodytec", "type": "fitness_centre" }, "geometry": { "type": "Point", "coordinates": [ 18.42336, -33.916309 ] } },
{ "type": "Feature", "properties": { "name": "CityROCK", "type": "sports_centre" }, "geometry": { "type": "Point", "coordinates": [ 18.4815242, -33.8988511 ] } },
{ "type": "Feature", "properties": { "name": "Mandela Park Stadium", "type": "stadium" }, "geometry": { "type": "Point", "coordinates": [ 18.6892822, -34.0521317 ] } },
{ "type": "Feature", "properties": { "name": "Zone Fitness", "type": "sports_centre" }, "geometry": { "type": "Point", "coordinates": [ 18.6148546, -34.0382531 ] } },
{ "type": "Feature", "properties": { "name": "Erinvale Golf Club", "type": "sports_centre" }, "geometry": { "type": "Point", "coordinates": [ 18.8835664, -34.0657993 ] } },
{ "type": "Feature", "properties": { "name": "FTL Boulder", "type": "sports_centre" }, "geometry": { "type": "Point", "coordinates": [ 18.9982348, -34.3337291 ] } },
{ "type": "Feature", "properties": { "name": "Kleinmond Crag", "type": "sports_centre" }, "geometry": { "type": "Point", "coordinates": [ 18.9968792, -34.3328517 ] } },
{ "type": "Feature", "properties": { "name": "Talon Boulder", "type": "sports_centre" }, "geometry": { "type": "Point", "coordinates": [ 18.9975313, -34.3332371 ] } },
{ "type": "Feature", "properties": { "name": "Bastion Boulder", "type": "sports_centre" }, "geometry": { "type": "Point", "coordinates": [ 18.9978904, -34.332893799999987 ] } },
{ "type": "Feature", "properties": { "name": "Pienk Boulder", "type": "sports_centre" }, "geometry": { "type": "Point", "coordinates": [ 18.9983119, -34.3334756 ] } },
{ "type": "Feature", "properties": { "name": "Curves", "type": "fitness_centre" }, "geometry": { "type": "Point", "coordinates": [ 18.8523932, -34.0839804 ] } },
{ "type": "Feature", "properties": { "name": "Fives Century City", "type": "sports_centre" }, "geometry": { "type": "Point", "coordinates": [ 18.5138591, -33.8947287 ] } },
{ "type": "Feature", "properties": { "name": "Zone 7", "type": "track" }, "geometry": { "type": "Point", "coordinates": [ 18.5529889, -33.7631399 ] } },
{ "type": "Feature", "properties": { "name": "Mind Over Body", "type": "fitness_centre" }, "geometry": { "type": "Point", "coordinates": [ 18.5603346, -33.8935212 ] } },
{ "type": "Feature", "properties": { "name": "Virgin Active", "type": "fitness_centre" }, "geometry": { "type": "Point", "coordinates": [ 18.6958209, -33.839683 ] } },
{ "type": "Feature", "properties": { "name": "Zone Fitness", "type": "fitness_centre" }, "geometry": { "type": "Point", "coordinates": [ 18.4818687, -34.0877441 ] } },
{ "type": "Feature", "properties": { "name": "Paarl Rocks | Boulder Guide", "type": "sports_centre" }, "geometry": { "type": "Point", "coordinates": [ 18.93792, -33.746015 ] } },
{ "type": "Feature", "properties": { "name": "", "type": "sports_centre" }, "geometry": { "type": "Point", "coordinates": [ 18.4818652, -33.9735813 ] } },
{ "type": "Feature", "properties": { "name": "", "type": "sports_centre" }, "geometry": { "type": "Point", "coordinates": [ 18.4823822, -33.9732093 ] } },
{ "type": "Feature", "properties": { "name": "Tygerberg Swimming Pool", "type": "sports_centre" }, "geometry": { "type": "Point", "coordinates": [ 18.6098645, -33.90899060000001 ] } },
{ "type": "Feature", "properties": { "name": "Zone Fitness", "type": "fitness_centre" }, "geometry": { "type": "Point", "coordinates": [ 18.5871364, -34.0408098 ] } },
{ "type": "Feature", "properties": { "name": "Mantra Yoga", "type": "fitness_centre" }, "geometry": { "type": "Point", "coordinates": [ 18.4678963, -34.0215691 ] } },
{ "type": "Feature", "properties": { "name": "", "type": "sports_centre" }, "geometry": { "type": "Point", "coordinates": [ 18.8420838, -34.1021765 ] } },
{ "type": "Feature", "properties": { "name": "PPC Newlands", "type": "stadium" }, "geometry": { "type": "Point", "coordinates": [ 18.4688829, -33.9736377 ] } },
{ "type": "Feature", "properties": { "name": "Mustang Sports Gym", "type": "fitness_centre" }, "geometry": { "type": "Point", "coordinates": [ 18.5806075, -33.9069756 ] } },
{ "type": "Feature", "properties": { "name": "Bloc 11", "type": "sports_centre" }, "geometry": { "type": "Point", "coordinates": [ 18.4726229, -33.9103499 ] } },
{ "type": "Feature", "properties": { "name": "Curves", "type": "fitness_centre" }, "geometry": { "type": "Point", "coordinates": [ 18.4558322, -34.0397329 ] } },
{ "type": "Feature", "properties": { "name": "Ballistix CrossFit Somerset West", "type": "fitness_centre" }, "geometry": { "type": "Point", "coordinates": [ 18.84239, -34.0954126 ] } },
{ "type": "Feature", "properties": { "name": "Leading Edge Fitness Centre", "type": "fitness_centre" }, "geometry": { "type": "Point", "coordinates": [ 18.5520552, -33.9111227 ] } },
{ "type": "Feature", "properties": { "name": "Bodytec Somerset West", "type": "fitness_centre" }, "geometry": { "type": "Point", "coordinates": [ 18.8510351, -34.0824561 ] } },
{ "type": "Feature", "properties": { "name": "YMCA Rotary Camp", "type": "sports_centre" }, "geometry": { "type": "Point", "coordinates": [ 18.5662431, -34.0773791 ] } },
{ "type": "Feature", "properties": { "name": "Charles Morkel Stadium", "type": "fitness_centre" }, "geometry": { "type": "Point", "coordinates": [ 18.8387433, -34.1039157 ] } },
{ "type": "Feature", "properties": { "name": "Maties Gymnasium (Tygerberg)", "type": "fitness_centre" }, "geometry": { "type": "Point", "coordinates": [ 18.6100594, -33.908089799999985 ] } },
{ "type": "Feature", "properties": { "name": "Crossfit Impi", "type": "fitness_centre" }, "geometry": { "type": "Point", "coordinates": [ 18.485627, -33.985375 ] } },
{ "type": "Feature", "properties": { "name": "Bootcamp", "type": "fitness_centre" }, "geometry": { "type": "Point", "coordinates": [ 18.4603571, -33.9335822 ] } },
{ "type": "Feature", "properties": { "name": "The Armoury Boxing Club", "type": "fitness_centre" }, "geometry": { "type": "Point", "coordinates": [ 18.4366726, -33.9280877 ] } },
{ "type": "Feature", "properties": { "name": "Yoni Shakti Yoga", "type": "fitness_centre" }, "geometry": { "type": "Point", "coordinates": [ 18.4658661, -33.9314006 ] } },
{ "type": "Feature", "properties": { "name": "Virgin Active", "type": "fitness_centre" }, "geometry": { "type": "Point", "coordinates": [ 18.4305273, -33.917725599999983 ] } },
{ "type": "Feature", "properties": { "name": "Paarl Trails", "type": "track" }, "geometry": { "type": "Point", "coordinates": [ 18.9546282, -33.7758682 ] } },
{ "type": "Feature", "properties": { "name": "Paarl  Trails - Spice route S", "type": "track" }, "geometry": { "type": "Point", "coordinates": [ 18.9206932, -33.7646612 ] } },
{ "type": "Feature", "properties": { "name": "Paarl Trails - Fairview", "type": "track" }, "geometry": { "type": "Point", "coordinates": [ 18.9233296, -33.7722719 ] } },
{ "type": "Feature", "properties": { "name": "Paarl Trails - Laborie", "type": "track" }, "geometry": { "type": "Point", "coordinates": [ 18.9583385, -33.7650563 ] } },
{ "type": "Feature", "properties": { "name": "Paarl Trails - Ridgeback", "type": "track" }, "geometry": { "type": "Point", "coordinates": [ 18.914479, -33.6733711 ] } },
{ "type": "Feature", "properties": { "name": "Paarl Trails - Spice Route N", "type": "track" }, "geometry": { "type": "Point", "coordinates": [ 18.9183866, -33.7633769 ] } },
{ "type": "Feature", "properties": { "name": "Paarl Trails - Rhebokskloof", "type": "track" }, "geometry": { "type": "Point", "coordinates": [ 18.9329098, -33.6846233 ] } },
{ "type": "Feature", "properties": { "name": "Grand Arena at GrandWest", "type": "music_venue" }, "geometry": { "type": "Point", "coordinates": [ 18.5473311, -33.9164184 ] } },
{ "type": "Feature", "properties": { "name": "", "type": "fitness_centre" }, "geometry": { "type": "Point", "coordinates": [ 18.4576229, -33.9789977 ] } },
{ "type": "Feature", "properties": { "name": "Gymnasium", "type": "sports_hall" }, "geometry": { "type": "Point", "coordinates": [ 19.0277691, -33.8810617 ] } },
{ "type": "Feature", "properties": { "name": "", "type": "fitness_centre" }, "geometry": { "type": "Point", "coordinates": [ 18.8177253, -34.0925253 ] } },
{ "type": "Feature", "properties": { "name": "Virgin Active", "type": "fitness_centre" }, "geometry": { "type": "Point", "coordinates": [ 18.4234999, -33.908988 ] } },
{ "type": "Feature", "properties": { "name": "Aspire Fitness", "type": "fitness_centre" }, "geometry": { "type": "Point", "coordinates": [ 18.8533444, -33.9396734 ] } },
{ "type": "Feature", "properties": { "name": "Science Flexion", "type": "fitness_centre" }, "geometry": { "type": "Point", "coordinates": [ 18.8597549, -33.9399749 ] } },
{ "type": "Feature", "properties": { "name": "Virgin Active", "type": "fitness_centre" }, "geometry": { "type": "Point", "coordinates": [ 18.8604422, -33.9363093 ] } },
{ "type": "Feature", "properties": { "name": "Maties Gymnasium", "type": "fitness_centre" }, "geometry": { "type": "Point", "coordinates": [ 18.8707486, -33.9411976 ] } },
{ "type": "Feature", "properties": { "name": "Trail Running", "type": "track" }, "geometry": { "type": "Point", "coordinates": [ 18.9327747, -33.6846284 ] } },
{ "type": "Feature", "properties": { "name": "Evolution Fitness SA", "type": "fitness_centre" }, "geometry": { "type": "Point", "coordinates": [ 18.8677226, -34.153871 ] } },
{ "type": "Feature", "properties": { "name": "Dive Team Cape Town", "type": "sports_centre" }, "geometry": { "type": "Point", "coordinates": [ 18.4292878, -34.1932053 ] } },
{ "type": "Feature", "properties": { "name": "Origin Yoga", "type": "fitness_centre" }, "geometry": { "type": "Point", "coordinates": [ 18.3778218, -34.0970005 ] } },
{ "type": "Feature", "properties": { "name": "Naude's Gym", "type": "fitness_centre" }, "geometry": { "type": "Point", "coordinates": [ 18.8602203, -33.9377767 ] } },
{ "type": "Feature", "properties": { "name": "Glen Country Club", "type": "sports_centre" }, "geometry": { "type": "Point", "coordinates": [ 18.3747565, -33.9430681 ] } },
{ "type": "Feature", "properties": { "name": "Glen Country Club", "type": "sports_centre" }, "geometry": { "type": "Point", "coordinates": [ 18.3747154, -33.9431333 ] } },
{ "type": "Feature", "properties": { "name": "Noordhoek FC", "type": "sports_centre" }, "geometry": { "type": "Point", "coordinates": [ 18.378939, -34.10964160000001 ] } },
{ "type": "Feature", "properties": { "name": "Planet Fitness Groot Phesantekraal", "type": "fitness_centre" }, "geometry": { "type": "Point", "coordinates": [ 18.6877817, -33.799809099999983 ] } },
{ "type": "Feature", "properties": { "name": "Soul Aerial Studio", "type": "fitness_centre" }, "geometry": { "type": "Point", "coordinates": [ 18.5005102, -33.9198022 ] } },
{ "type": "Feature", "properties": { "name": "Studio Root Pilates", "type": "fitness_centre" }, "geometry": { "type": "Point", "coordinates": [ 18.8465596, -34.0811676 ] } },
{ "type": "Feature", "properties": { "name": "Alive", "type": "fitness_centre" }, "geometry": { "type": "Point", "coordinates": [ 18.850119, -34.0815852 ] } },
{ "type": "Feature", "properties": { "name": "Kenilworth Racecourse", "type": "sports_centre" }, "geometry": { "type": "Point", "coordinates": [ 18.484704033257866, -33.997188814818635 ] } },
{ "type": "Feature", "properties": { "name": "Rygersdal Sports Ground", "type": "sports_centre" }, "geometry": { "type": "Point", "coordinates": [ 18.475714348745239, -33.956968785694208 ] } },
{ "type": "Feature", "properties": { "name": "Llandudno Sports Club", "type": "sports_centre" }, "geometry": { "type": "Point", "coordinates": [ 18.345515961812378, -34.008663910676624 ] } },
{ "type": "Feature", "properties": { "name": "Milnerton Aquatic Club", "type": "sports_centre" }, "geometry": { "type": "Point", "coordinates": [ 18.494109351525864, -33.836921997153205 ] } },
{ "type": "Feature", "properties": { "name": "", "type": "sports_centre" }, "geometry": { "type": "Point", "coordinates": [ 18.512529592521986, -33.833356117733175 ] } },
{ "type": "Feature", "properties": { "name": "", "type": "track" }, "geometry": { "type": "Point", "coordinates": [ 18.689359899476194, -34.052133733573562 ] } },
{ "type": "Feature", "properties": { "name": "WPCC Bowling Club", "type": "sports_centre" }, "geometry": { "type": "Point", "coordinates": [ 18.483189534315162, -33.973378004851313 ] } },
{ "type": "Feature", "properties": { "name": "Newlands Cricket Ground", "type": "stadium" }, "geometry": { "type": "Point", "coordinates": [ 18.469101965138186, -33.973416606426312 ] } },
{ "type": "Feature", "properties": { "name": "Sport Science Institute of South Africa", "type": "fitness_centre" }, "geometry": { "type": "Point", "coordinates": [ 18.468041050196909, -33.971876450226993 ] } },
{ "type": "Feature", "properties": { "name": "DHL Newlands (Closed)", "type": "stadium" }, "geometry": { "type": "Point", "coordinates": [ 18.468521057677631, -33.970557405338553 ] } },
{ "type": "Feature", "properties": { "name": "Boland Park", "type": "stadium" }, "geometry": { "type": "Point", "coordinates": [ 18.997506911495485, -33.740805053052974 ] } },
{ "type": "Feature", "properties": { "name": "", "type": "stadium" }, "geometry": { "type": "Point", "coordinates": [ 18.41114624381138, -33.903447609329689 ] } },
{ "type": "Feature", "properties": { "name": "", "type": "track" }, "geometry": { "type": "Point", "coordinates": [ 18.408704432712046, -33.905373032318899 ] } },
{ "type": "Feature", "properties": { "name": "", "type": "track" }, "geometry": { "type": "Point", "coordinates": [ 18.634128799465152, -33.935078135993123 ] } },
{ "type": "Feature", "properties": { "name": "", "type": "track" }, "geometry": { "type": "Point", "coordinates": [ 18.645021871173626, -33.931572657070326 ] } },
{ "type": "Feature", "properties": { "name": "", "type": "stadium" }, "geometry": { "type": "Point", "coordinates": [ 18.873428787462217, -33.940274911086043 ] } },
{ "type": "Feature", "properties": { "name": "", "type": "track" }, "geometry": { "type": "Point", "coordinates": [ 18.869810389014109, -33.939783163382032 ] } },
{ "type": "Feature", "properties": { "name": "", "type": "sports_centre" }, "geometry": { "type": "Point", "coordinates": [ 18.46012360815698, -34.053506447205784 ] } },
{ "type": "Feature", "properties": { "name": "Constantia Sports Centre", "type": "sports_centre" }, "geometry": { "type": "Point", "coordinates": [ 18.450213047107191, -34.018137639441889 ] } },
{ "type": "Feature", "properties": { "name": "", "type": "track" }, "geometry": { "type": "Point", "coordinates": [ 18.727282527014665, -33.866897543537249 ] } },
{ "type": "Feature", "properties": { "name": "", "type": "track" }, "geometry": { "type": "Point", "coordinates": [ 18.523782555708806, -33.969549644625232 ] } },
{ "type": "Feature", "properties": { "name": "", "type": "stadium" }, "geometry": { "type": "Point", "coordinates": [ 18.517389416527887, -33.961873318351309 ] } },
{ "type": "Feature", "properties": { "name": "", "type": "track" }, "geometry": { "type": "Point", "coordinates": [ 18.490074940055752, -33.557893475386514 ] } },
{ "type": "Feature", "properties": { "name": "", "type": "track" }, "geometry": { "type": "Point", "coordinates": [ 18.987513568010961, -33.70529525255948 ] } },
{ "type": "Feature", "properties": { "name": "", "type": "track" }, "geometry": { "type": "Point", "coordinates": [ 18.484257732289414, -33.996161848168484 ] } },
{ "type": "Feature", "properties": { "name": "", "type": "track" }, "geometry": { "type": "Point", "coordinates": [ 18.633201640766327, -33.881151245088645 ] } },
{ "type": "Feature", "properties": { "name": "", "type": "track" }, "geometry": { "type": "Point", "coordinates": [ 18.494620060871799, -34.059095145105367 ] } },
{ "type": "Feature", "properties": { "name": "", "type": "track" }, "geometry": { "type": "Point", "coordinates": [ 18.642278017154986, -33.8311846357511 ] } },
{ "type": "Feature", "properties": { "name": "", "type": "track" }, "geometry": { "type": "Point", "coordinates": [ 18.691377937093566, -33.805212892744102 ] } },
{ "type": "Feature", "properties": { "name": "Parow North Athletics Track", "type": "track" }, "geometry": { "type": "Point", "coordinates": [ 18.583831915378898, -33.894324715146332 ] } },
{ "type": "Feature", "properties": { "name": "", "type": "track" }, "geometry": { "type": "Point", "coordinates": [ 18.663208338148362, -33.863322342138183 ] } },
{ "type": "Feature", "properties": { "name": "", "type": "track" }, "geometry": { "type": "Point", "coordinates": [ 18.880948931003811, -33.930832987008799 ] } },
{ "type": "Feature", "properties": { "name": "", "type": "track" }, "geometry": { "type": "Point", "coordinates": [ 18.640146237052203, -33.837044487013081 ] } },
{ "type": "Feature", "properties": { "name": "", "type": "track" }, "geometry": { "type": "Point", "coordinates": [ 18.855292823285417, -33.94262918975754 ] } },
{ "type": "Feature", "properties": { "name": "", "type": "track" }, "geometry": { "type": "Point", "coordinates": [ 18.855630923663323, -33.943875245816862 ] } },
{ "type": "Feature", "properties": { "name": "UCT Tennis Club", "type": "sports_centre" }, "geometry": { "type": "Point", "coordinates": [ 18.458617642914167, -33.956851328920145 ] } },
{ "type": "Feature", "properties": { "name": "", "type": "track" }, "geometry": { "type": "Point", "coordinates": [ 18.400403957687367, -33.9338574564851 ] } },
{ "type": "Feature", "properties": { "name": "UCT Sports Centre", "type": "sports_centre" }, "geometry": { "type": "Point", "coordinates": [ 18.463149676926822, -33.955604073850544 ] } },
{ "type": "Feature", "properties": { "name": "Pinelands Bowling Club", "type": "sports_centre" }, "geometry": { "type": "Point", "coordinates": [ 18.498803459426348, -33.940271692746094 ] } },
{ "type": "Feature", "properties": { "name": "WPCC BC Green A", "type": "sports_centre" }, "geometry": { "type": "Point", "coordinates": [ 18.483456999967139, -33.973180900112553 ] } },
{ "type": "Feature", "properties": { "name": "Hartleyvale Hockey Stadium", "type": "stadium" }, "geometry": { "type": "Point", "coordinates": [ 18.475695719715159, -33.938907780520474 ] } },
{ "type": "Feature", "properties": { "name": "Coetzenburg Athletics Stadium", "type": "stadium" }, "geometry": { "type": "Point", "coordinates": [ 18.869813398028064, -33.939783160994757 ] } },
{ "type": "Feature", "properties": { "name": "Bellville Velodrome", "type": "stadium" }, "geometry": { "type": "Point", "coordinates": [ 18.633504257132106, -33.879857858525234 ] } },
{ "type": "Feature", "properties": { "name": "CLoetesville Community Sport Grounds", "type": "sports_centre" }, "geometry": { "type": "Point", "coordinates": [ 18.848646909919999, -33.906618256725565 ] } },
{ "type": "Feature", "properties": { "name": "Royal Road Sports Ground", "type": "sports_centre" }, "geometry": { "type": "Point", "coordinates": [ 18.491887679900419, -33.918377037389611 ] } },
{ "type": "Feature", "properties": { "name": "St Frusquin Sports Ground", "type": "sports_centre" }, "geometry": { "type": "Point", "coordinates": [ 18.513553148897852, -33.969170252345563 ] } },
{ "type": "Feature", "properties": { "name": "SAPS Sports & Recreation Club", "type": "sports_centre" }, "geometry": { "type": "Point", "coordinates": [ 18.506344165560147, -33.926272373428652 ] } },
{ "type": "Feature", "properties": { "name": "Turfhall Park", "type": "sports_centre" }, "geometry": { "type": "Point", "coordinates": [ 18.513646045045924, -33.987164414398087 ] } },
{ "type": "Feature", "properties": { "name": "William Herbert Sports Ground", "type": "sports_centre" }, "geometry": { "type": "Point", "coordinates": [ 18.48200754141704, -34.01108297558536 ] } },
{ "type": "Feature", "properties": { "name": "Athlone Stadium", "type": "stadium" }, "geometry": { "type": "Point", "coordinates": [ 18.517377755607392, -33.961875104554146 ] } },
{ "type": "Feature", "properties": { "name": "Vygekraal Stadium", "type": "sports_centre" }, "geometry": { "type": "Point", "coordinates": [ 18.523705624647242, -33.969557042836428 ] } },
{ "type": "Feature", "properties": { "name": "Elm Street Sports Ground", "type": "sports_centre" }, "geometry": { "type": "Point", "coordinates": [ 18.505566956104353, -34.019490814196466 ] } },
{ "type": "Feature", "properties": { "name": "Durbanville Tennis Club", "type": "sports_centre" }, "geometry": { "type": "Point", "coordinates": [ 18.64767183843022, -33.828437186522805 ] } },
{ "type": "Feature", "properties": { "name": "", "type": "sports_centre" }, "geometry": { "type": "Point", "coordinates": [ 18.657834222386739, -33.853042964640814 ] } },
{ "type": "Feature", "properties": { "name": "", "type": "sports_centre" }, "geometry": { "type": "Point", "coordinates": [ 18.462619718286124, -33.985365003517721 ] } },
{ "type": "Feature", "properties": { "name": "", "type": "sports_centre" }, "geometry": { "type": "Point", "coordinates": [ 18.474145200549493, -34.06729222728142 ] } },
{ "type": "Feature", "properties": { "name": "", "type": "sports_centre" }, "geometry": { "type": "Point", "coordinates": [ 18.478734505446031, -33.947127016341945 ] } },
{ "type": "Feature", "properties": { "name": "Pinelands Tennis Club", "type": "sports_centre" }, "geometry": { "type": "Point", "coordinates": [ 18.499434410563939, -33.941085872994989 ] } },
{ "type": "Feature", "properties": { "name": "Clyde Pinelands Sports Ground", "type": "sports_centre" }, "geometry": { "type": "Point", "coordinates": [ 18.505619993803776, -33.947179513287061 ] } },
{ "type": "Feature", "properties": { "name": "Eversdal Squash and Tennis Club", "type": "sports_centre" }, "geometry": { "type": "Point", "coordinates": [ 18.649967372524312, -33.869051814414178 ] } },
{ "type": "Feature", "properties": { "name": "Oakdale Sport Club", "type": "sports_centre" }, "geometry": { "type": "Point", "coordinates": [ 18.645046414037633, -33.881826898883709 ] } },
{ "type": "Feature", "properties": { "name": "Brackenfell Rugby Club", "type": "sports_centre" }, "geometry": { "type": "Point", "coordinates": [ 18.685815023814982, -33.865148547210509 ] } },
{ "type": "Feature", "properties": { "name": "", "type": "sports_centre" }, "geometry": { "type": "Point", "coordinates": [ 18.685440685458914, -33.865785395688476 ] } },
{ "type": "Feature", "properties": { "name": "Gardens Lawn Tennis Club", "type": "sports_centre" }, "geometry": { "type": "Point", "coordinates": [ 18.411067788334798, -33.936909241566006 ] } },
{ "type": "Feature", "properties": { "name": "Long Street Baths", "type": "sports_centre" }, "geometry": { "type": "Point", "coordinates": [ 18.414283698521469, -33.927456094139224 ] } },
{ "type": "Feature", "properties": { "name": "Andrew Norman Sports Centre", "type": "sports_centre" }, "geometry": { "type": "Point", "coordinates": [ 18.855364942094994, -34.146899190909238 ] } },
{ "type": "Feature", "properties": { "name": "SARU Sports Ground", "type": "sports_centre" }, "geometry": { "type": "Point", "coordinates": [ 18.842608710487131, -34.127003994548332 ] } },
{ "type": "Feature", "properties": { "name": "Yeoville Sports Ground", "type": "sports_centre" }, "geometry": { "type": "Point", "coordinates": [ 18.419586233949126, -33.938992043096349 ] } },
{ "type": "Feature", "properties": { "name": "Virgin Active", "type": "fitness_centre" }, "geometry": { "type": "Point", "coordinates": [ 18.403105114770476, -33.906256540981772 ] } },
{ "type": "Feature", "properties": { "name": "Milnerton Tennis Club", "type": "sports_centre" }, "geometry": { "type": "Point", "coordinates": [ 18.492519191049265, -33.884794514076113 ] } },
{ "type": "Feature", "properties": { "name": "The Italian Club", "type": "sports_centre" }, "geometry": { "type": "Point", "coordinates": [ 18.486755106867587, -33.894345438941485 ] } },
{ "type": "Feature", "properties": { "name": "Old Mutual Sport Centre", "type": "sports_centre" }, "geometry": { "type": "Point", "coordinates": [ 18.871583162035947, -33.932085005660596 ] } },
{ "type": "Feature", "properties": { "name": "Van der Stel Sports Club", "type": "sports_centre" }, "geometry": { "type": "Point", "coordinates": [ 18.85497132447744, -33.933897868759445 ] } },
{ "type": "Feature", "properties": { "name": "", "type": "sports_centre" }, "geometry": { "type": "Point", "coordinates": [ 18.415173005497675, -33.936264766855956 ] } },
{ "type": "Feature", "properties": { "name": "Radloff Park Squash Club", "type": "sports_centre" }, "geometry": { "type": "Point", "coordinates": [ 18.873482421453215, -34.079393076716499 ] } },
{ "type": "Feature", "properties": { "name": "Virgin Active", "type": "fitness_centre" }, "geometry": { "type": "Point", "coordinates": [ 18.506001930525937, -33.894770097118389 ] } },
{ "type": "Feature", "properties": { "name": "", "type": "track" }, "geometry": { "type": "Point", "coordinates": [ 18.85036293514349, -33.922165014021552 ] } },
{ "type": "Feature", "properties": { "name": "Edgemead Tennis Club", "type": "sports_centre" }, "geometry": { "type": "Point", "coordinates": [ 18.540849871241548, -33.880428349507326 ] } },
{ "type": "Feature", "properties": { "name": "Morningstar Rugby Club", "type": "sports_centre" }, "geometry": { "type": "Point", "coordinates": [ 18.655381257295524, -33.829829119321822 ] } },
{ "type": "Feature", "properties": { "name": "", "type": "sports_centre" }, "geometry": { "type": "Point", "coordinates": [ 18.431796177396805, -33.931218114342691 ] } },
{ "type": "Feature", "properties": { "name": "Fish Hoek Beach Sailing club", "type": "sports_centre" }, "geometry": { "type": "Point", "coordinates": [ 18.43335497409327, -34.136994175937062 ] } },
{ "type": "Feature", "properties": { "name": "Wynberg Swimming Pool", "type": "sports_centre" }, "geometry": { "type": "Point", "coordinates": [ 18.480445381307586, -34.008394410366741 ] } },
{ "type": "Feature", "properties": { "name": "", "type": "track" }, "geometry": { "type": "Point", "coordinates": [ 18.713469003734012, -33.464811518805156 ] } },
{ "type": "Feature", "properties": { "name": "Virgin Active", "type": "fitness_centre" }, "geometry": { "type": "Point", "coordinates": [ 18.441103129114918, -34.079665254810102 ] } },
{ "type": "Feature", "properties": { "name": "Sea Point Pavilion", "type": "sports_centre" }, "geometry": { "type": "Point", "coordinates": [ 18.384415671203204, -33.918422635709881 ] } },
{ "type": "Feature", "properties": { "name": "Sunningdale Sports Complex", "type": "sports_centre" }, "geometry": { "type": "Point", "coordinates": [ 18.485302419163759, -33.802109381993695 ] } },
{ "type": "Feature", "properties": { "name": "Neue Sporthalle", "type": "sports_hall" }, "geometry": { "type": "Point", "coordinates": [ 18.398997593018208, -33.930269986403907 ] } },
{ "type": "Feature", "properties": { "name": "Pniel Sport Grounds", "type": "sports_centre" }, "geometry": { "type": "Point", "coordinates": [ 18.963553025404895, -33.887072964798193 ] } },
{ "type": "Feature", "properties": { "name": "Virgin Active", "type": "fitness_centre" }, "geometry": { "type": "Point", "coordinates": [ 18.488171569206358, -33.828062709890972 ] } },
{ "type": "Feature", "properties": { "name": "Virgin Active", "type": "fitness_centre" }, "geometry": { "type": "Point", "coordinates": [ 18.964511513219019, -33.731858918662141 ] } },
{ "type": "Feature", "properties": { "name": "Dal Josaphat Stadium", "type": "sports_centre" }, "geometry": { "type": "Point", "coordinates": [ 18.987443568709072, -33.705322765867145 ] } },
{ "type": "Feature", "properties": { "name": "Virgin Active", "type": "fitness_centre" }, "geometry": { "type": "Point", "coordinates": [ 18.495411427177, -33.80146180475441 ] } },
{ "type": "Feature", "properties": { "name": "Pentz Swimming Pool", "type": "sports_centre" }, "geometry": { "type": "Point", "coordinates": [ 19.007046590168599, -33.636988150036785 ] } },
{ "type": "Feature", "properties": { "name": "Red River Road Sports Fields (\"The Greens\")", "type": "sports_centre" }, "geometry": { "type": "Point", "coordinates": [ 18.550213298988965, -33.987514330741419 ] } },
{ "type": "Feature", "properties": { "name": "", "type": "stadium" }, "geometry": { "type": "Point", "coordinates": [ 18.851349352417191, -33.920668659613554 ] } },
{ "type": "Feature", "properties": { "name": "Atlantic Green Point Bowling Club", "type": "sports_centre" }, "geometry": { "type": "Point", "coordinates": [ 18.399230306890825, -33.907530835999808 ] } },
{ "type": "Feature", "properties": { "name": "P.P. Smit Sports Ground", "type": "sports_centre" }, "geometry": { "type": "Point", "coordinates": [ 18.639024619605568, -33.878914535861419 ] } },
{ "type": "Feature", "properties": { "name": "", "type": "sports_centre" }, "geometry": { "type": "Point", "coordinates": [ 18.67429516614564, -34.047813006703521 ] } },
{ "type": "Feature", "properties": { "name": "Camps Bay Cricket Club", "type": "sports_centre" }, "geometry": { "type": "Point", "coordinates": [ 18.378825835442626, -33.951902187167441 ] } },
{ "type": "Feature", "properties": { "name": "", "type": "sports_centre" }, "geometry": { "type": "Point", "coordinates": [ 18.687054403982113, -33.988047228325314 ] } },
{ "type": "Feature", "properties": { "name": "Playing field", "type": "sports_centre" }, "geometry": { "type": "Point", "coordinates": [ 18.643586670045991, -34.013996876927713 ] } },
{ "type": "Feature", "properties": { "name": "Monwabisi Sport and Recreation Centre", "type": "sports_centre" }, "geometry": { "type": "Point", "coordinates": [ 18.526924864096188, -33.941353017312025 ] } },
{ "type": "Feature", "properties": { "name": "", "type": "sports_centre" }, "geometry": { "type": "Point", "coordinates": [ 18.577768348046128, -33.872974287873113 ] } },
{ "type": "Feature", "properties": { "name": "Green Point Track", "type": "sports_centre" }, "geometry": { "type": "Point", "coordinates": [ 18.413238501640752, -33.906915800426418 ] } },
{ "type": "Feature", "properties": { "name": "Sandown Motors' Jeep Track", "type": "track" }, "geometry": { "type": "Point", "coordinates": [ 18.513868395662168, -33.895950563687272 ] } },
{ "type": "Feature", "properties": { "name": "Faure Street Stadium", "type": "stadium" }, "geometry": { "type": "Point", "coordinates": [ 18.966559072380818, -33.736421702593603 ] } },
{ "type": "Feature", "properties": { "name": "", "type": "sports_centre" }, "geometry": { "type": "Point", "coordinates": [ 18.655831990214146, -33.828552632187083 ] } },
{ "type": "Feature", "properties": { "name": "", "type": "sports_centre" }, "geometry": { "type": "Point", "coordinates": [ 18.633667779765823, -33.859463365799272 ] } },
{ "type": "Feature", "properties": { "name": "", "type": "sports_centre" }, "geometry": { "type": "Point", "coordinates": [ 18.56976081768331, -33.902903296216564 ] } },
{ "type": "Feature", "properties": { "name": "", "type": "sports_centre" }, "geometry": { "type": "Point", "coordinates": [ 18.685723051746312, -33.843547480552417 ] } },
{ "type": "Feature", "properties": { "name": "", "type": "sports_centre" }, "geometry": { "type": "Point", "coordinates": [ 18.685967257424178, -33.84421233484035 ] } },
{ "type": "Feature", "properties": { "name": "Harfield Harriers", "type": "sports_centre" }, "geometry": { "type": "Point", "coordinates": [ 18.458645127359087, -33.979684904732075 ] } },
{ "type": "Feature", "properties": { "name": "eta College", "type": "fitness_centre" }, "geometry": { "type": "Point", "coordinates": [ 18.483224888025177, -33.974079113162944 ] } },
{ "type": "Feature", "properties": { "name": "Tygerhof Sports Complex", "type": "sports_centre" }, "geometry": { "type": "Point", "coordinates": [ 18.500779237223423, -33.886785833784032 ] } },
{ "type": "Feature", "properties": { "name": "", "type": "sports_centre" }, "geometry": { "type": "Point", "coordinates": [ 18.852106921274093, -33.911823859616618 ] } },
{ "type": "Feature", "properties": { "name": "Idas Valley Sports Ground", "type": "sports_centre" }, "geometry": { "type": "Point", "coordinates": [ 18.887481368286458, -33.919264766382298 ] } },
{ "type": "Feature", "properties": { "name": "Chukker Sports Ground", "type": "sports_centre" }, "geometry": { "type": "Point", "coordinates": [ 18.492873966619534, -33.998548049608736 ] } },
{ "type": "Feature", "properties": { "name": "", "type": "track" }, "geometry": { "type": "Point", "coordinates": [ 18.479449267139419, -33.945117048459224 ] } },
{ "type": "Feature", "properties": { "name": "", "type": "sports_centre" }, "geometry": { "type": "Point", "coordinates": [ 18.450374367320979, -34.042419837567024 ] } },
{ "type": "Feature", "properties": { "name": "Stephen Reagan Sports Ground", "type": "sports_centre" }, "geometry": { "type": "Point", "coordinates": [ 18.596429187921494, -34.045493933982925 ] } },
{ "type": "Feature", "properties": { "name": "Virgin Active", "type": "fitness_centre" }, "geometry": { "type": "Point", "coordinates": [ 18.588355820042977, -34.044147092192652 ] } },
{ "type": "Feature", "properties": { "name": "", "type": "sports_centre" }, "geometry": { "type": "Point", "coordinates": [ 18.45775391716629, -33.971470565468941 ] } },
{ "type": "Feature", "properties": { "name": "", "type": "sports_centre" }, "geometry": { "type": "Point", "coordinates": [ 18.460560995985954, -33.97258372602132 ] } },
{ "type": "Feature", "properties": { "name": "", "type": "sports_centre" }, "geometry": { "type": "Point", "coordinates": [ 18.472517048296748, -33.968951745991951 ] } },
{ "type": "Feature", "properties": { "name": "", "type": "sports_centre" }, "geometry": { "type": "Point", "coordinates": [ 18.474342607635148, -33.963547331189893 ] } },
{ "type": "Feature", "properties": { "name": "", "type": "sports_centre" }, "geometry": { "type": "Point", "coordinates": [ 18.478353274998078, -33.968965816668202 ] } },
{ "type": "Feature", "properties": { "name": "", "type": "track" }, "geometry": { "type": "Point", "coordinates": [ 18.383185428458507, -33.918774650552137 ] } },
{ "type": "Feature", "properties": { "name": "", "type": "sports_centre" }, "geometry": { "type": "Point", "coordinates": [ 18.964299593108233, -33.735848782312438 ] } },
{ "type": "Feature", "properties": { "name": "", "type": "sports_centre" }, "geometry": { "type": "Point", "coordinates": [ 18.793389077917787, -34.031056626388256 ] } },
{ "type": "Feature", "properties": { "name": "Groenheuwel Urban Park", "type": "sports_centre" }, "geometry": { "type": "Point", "coordinates": [ 18.998623718059488, -33.701086165962934 ] } },
{ "type": "Feature", "properties": { "name": "Danie Craven Stadium", "type": "stadium" }, "geometry": { "type": "Point", "coordinates": [ 18.873467930543921, -33.940138023432482 ] } },
{ "type": "Feature", "properties": { "name": "DHL Stadium", "type": "stadium" }, "geometry": { "type": "Point", "coordinates": [ 18.41114704860469, -33.903447318859058 ] } },
{ "type": "Feature", "properties": { "name": "WPCC BC Green D", "type": "sports_centre" }, "geometry": { "type": "Point", "coordinates": [ 18.483831249988601, -33.972910500117443 ] } },
{ "type": "Feature", "properties": { "name": "WPCC BC Green B", "type": "sports_centre" }, "geometry": { "type": "Point", "coordinates": [ 18.483780249970017, -33.973483550116036 ] } },
{ "type": "Feature", "properties": { "name": "WPCC BC Green C", "type": "sports_centre" }, "geometry": { "type": "Point", "coordinates": [ 18.484139599999249, -33.973202050123746 ] } },
{ "type": "Feature", "properties": { "name": "Strand BC Green", "type": "sports_centre" }, "geometry": { "type": "Point", "coordinates": [ 18.834005249971423, -34.114692950103908 ] } },
{ "type": "Feature", "properties": { "name": "Strand BC Green", "type": "sports_centre" }, "geometry": { "type": "Point", "coordinates": [ 18.833584999969791, -34.114907050101905 ] } },
{ "type": "Feature", "properties": { "name": "Strand BC Green", "type": "sports_centre" }, "geometry": { "type": "Point", "coordinates": [ 18.834270395555141, -34.115045632454319 ] } },
{ "type": "Feature", "properties": { "name": "Strand Bowling Club", "type": "sports_centre" }, "geometry": { "type": "Point", "coordinates": [ 18.833790140131661, -34.11527303528009 ] } },
{ "type": "Feature", "properties": { "name": "Strandfontein Sports Ground", "type": "sports_centre" }, "geometry": { "type": "Point", "coordinates": [ 18.551027787890238, -34.0800348404142 ] } },
{ "type": "Feature", "properties": { "name": "", "type": "stadium" }, "geometry": { "type": "Point", "coordinates": [ 18.869218352673574, -33.939977146151719 ] } },
{ "type": "Feature", "properties": { "name": "Green Point Athletics Stadium", "type": "stadium" }, "geometry": { "type": "Point", "coordinates": [ 18.408613831480366, -33.905380022867909 ] } },
{ "type": "Feature", "properties": { "name": "UWC Stadium", "type": "stadium" }, "geometry": { "type": "Point", "coordinates": [ 18.633230019537589, -33.934833161085834 ] } },
{ "type": "Feature", "properties": { "name": "", "type": "sports_centre" }, "geometry": { "type": "Point", "coordinates": [ 18.421975244247026, -34.129704694064237 ] } },
{ "type": "Feature", "properties": { "name": "ONE10SPORT", "type": "sports_centre" }, "geometry": { "type": "Point", "coordinates": [ 18.473348830394318, -33.978416124956304 ] } },
{ "type": "Feature", "properties": { "name": "Wynberg Sports Club", "type": "sports_centre" }, "geometry": { "type": "Point", "coordinates": [ 18.480383435036448, -34.003408643781484 ] } },
{ "type": "Feature", "properties": { "name": "Retreat Swimming Pool", "type": "sports_centre" }, "geometry": { "type": "Point", "coordinates": [ 18.475541889608529, -34.062630435540036 ] } },
{ "type": "Feature", "properties": { "name": "", "type": "sports_centre" }, "geometry": { "type": "Point", "coordinates": [ 18.610478707537428, -33.912590364832909 ] } },
{ "type": "Feature", "properties": { "name": "", "type": "sports_centre" }, "geometry": { "type": "Point", "coordinates": [ 18.61625690898957, -33.911765974597607 ] } },
{ "type": "Feature", "properties": { "name": "Elsies River Public Swimming Pool", "type": "sports_centre" }, "geometry": { "type": "Point", "coordinates": [ 18.571891616232634, -33.928337363211604 ] } },
{ "type": "Feature", "properties": { "name": "Junior Gym", "type": "fitness_centre" }, "geometry": { "type": "Point", "coordinates": [ 18.961709370239515, -33.739963594890334 ] } },
{ "type": "Feature", "properties": { "name": "Seniour Gym", "type": "fitness_centre" }, "geometry": { "type": "Point", "coordinates": [ 18.961744899999871, -33.738748499998088 ] } },
{ "type": "Feature", "properties": { "name": "Black River Crossfit", "type": "fitness_centre" }, "geometry": { "type": "Point", "coordinates": [ 18.46456617725795, -33.937130674109618 ] } },
{ "type": "Feature", "properties": { "name": "Goodwood Sports Club", "type": "sports_centre" }, "geometry": { "type": "Point", "coordinates": [ 18.549122431180475, -33.905246848019289 ] } },
{ "type": "Feature", "properties": { "name": "Markötter Sports Complex", "type": "sports_centre" }, "geometry": { "type": "Point", "coordinates": [ 18.854685609168445, -33.942666073008681 ] } },
{ "type": "Feature", "properties": { "name": "Indoor Tennis Stadium", "type": "stadium" }, "geometry": { "type": "Point", "coordinates": [ 18.869078504982078, -33.940477665989029 ] } },
{ "type": "Feature", "properties": { "name": "YMCA", "type": "sports_centre" }, "geometry": { "type": "Point", "coordinates": [ 18.473794860900007, -33.938097533696677 ] } },
{ "type": "Feature", "properties": { "name": "Boland Stadion", "type": "stadium" }, "geometry": { "type": "Point", "coordinates": [ 19.010417154698096, -33.644082934478455 ] } },
{ "type": "Feature", "properties": { "name": "Bellville Athletics Stadium", "type": "sports_centre" }, "geometry": { "type": "Point", "coordinates": [ 18.633296973630511, -33.880640411652116 ] } },
{ "type": "Feature", "properties": { "name": "BlackHill MTB TRACK", "type": "track" }, "geometry": { "type": "Point", "coordinates": [ 18.394238846261644, -34.134088655410061 ] } },
{ "type": "Feature", "properties": { "name": "", "type": "sports_centre" }, "geometry": { "type": "Point", "coordinates": [ 18.967848528752917, -33.808932754129941 ] } },
{ "type": "Feature", "properties": { "name": "", "type": "fitness_centre" }, "geometry": { "type": "Point", "coordinates": [ 18.968247388034193, -33.809539634063213 ] } },
{ "type": "Feature", "properties": { "name": "", "type": "sports_hall" }, "geometry": { "type": "Point", "coordinates": [ 18.640885771208197, -33.931766365580046 ] } },
{ "type": "Feature", "properties": { "name": "The Koeberg Club", "type": "sports_centre" }, "geometry": { "type": "Point", "coordinates": [ 18.445295471709912, -33.693198395528903 ] } },
{ "type": "Feature", "properties": { "name": "", "type": "sports_hall" }, "geometry": { "type": "Point", "coordinates": [ 18.424383071164222, -33.930539422864079 ] } },
{ "type": "Feature", "properties": { "name": "UWC Pool", "type": "sports_centre" }, "geometry": { "type": "Point", "coordinates": [ 18.63014380627078, -33.930073694609504 ] } },
{ "type": "Feature", "properties": { "name": "Trafalgar Swimming Baths", "type": "sports_centre" }, "geometry": { "type": "Point", "coordinates": [ 18.441600348464764, -33.930382023530655 ] } },
{ "type": "Feature", "properties": { "name": "Mamre Sports Ground", "type": "sports_centre" }, "geometry": { "type": "Point", "coordinates": [ 18.475933985174898, -33.51707161886889 ] } },
{ "type": "Feature", "properties": { "name": "", "type": "stadium" }, "geometry": { "type": "Point", "coordinates": [ 19.009318466131866, -33.633234301301577 ] } },
{ "type": "Feature", "properties": { "name": "", "type": "fitness_centre" }, "geometry": { "type": "Point", "coordinates": [ 18.731014960914074, -33.458490336014734 ] } },
{ "type": "Feature", "properties": { "name": "", "type": "sports_hall" }, "geometry": { "type": "Point", "coordinates": [ 18.641425178545607, -33.931686410872707 ] } },
{ "type": "Feature", "properties": { "name": "Coetzenburg", "type": "sports_centre" }, "geometry": { "type": "Point", "coordinates": [ 18.872574122050697, -33.939939146320675 ] } },
{ "type": "Feature", "properties": { "name": "The Shred", "type": "sports_centre" }, "geometry": { "type": "Point", "coordinates": [ 18.478084662583587, -33.904208460521673 ] } },
{ "type": "Feature", "properties": { "name": "Iron Tiger Gym", "type": "fitness_centre" }, "geometry": { "type": "Point", "coordinates": [ 18.412375006617168, -33.927343759456207 ] } },
{ "type": "Feature", "properties": { "name": "Westridge Swimming Pool", "type": "sports_centre" }, "geometry": { "type": "Point", "coordinates": [ 18.600012354064404, -34.046585644052456 ] } },
{ "type": "Feature", "properties": { "name": "Ananda Sanctuary", "type": "fitness_centre" }, "geometry": { "type": "Point", "coordinates": [ 18.449123290520944, -33.928290033305785 ] } },
{ "type": "Feature", "properties": { "name": "Kings Boxing Gym", "type": "fitness_centre" }, "geometry": { "type": "Point", "coordinates": [ 18.454248313810044, -33.930296295605245 ] } },
{ "type": "Feature", "properties": { "name": "Old Mutual Sports Club", "type": "sports_centre" }, "geometry": { "type": "Point", "coordinates": [ 18.508941236094127, -33.923708208067936 ] } },
{ "type": "Feature", "properties": { "name": "", "type": "sports_centre" }, "geometry": { "type": "Point", "coordinates": [ 18.479309162709828, -33.945453669055091 ] } },
{ "type": "Feature", "properties": { "name": "Observatory Swimming Pool", "type": "sports_centre" }, "geometry": { "type": "Point", "coordinates": [ 18.476387940977006, -33.941869903122701 ] } },
{ "type": "Feature", "properties": { "name": "Sports and Recreation", "type": "sports_centre" }, "geometry": { "type": "Point", "coordinates": [ 18.475609343566358, -33.941181959898373 ] } },
{ "type": "Feature", "properties": { "name": "", "type": "sports_centre" }, "geometry": { "type": "Point", "coordinates": [ 18.474249468778229, -33.943377191247365 ] } },
{ "type": "Feature", "properties": { "name": "Yoga", "type": "fitness_centre" }, "geometry": { "type": "Point", "coordinates": [ 18.440926873060651, -33.933661097496739 ] } },
{ "type": "Feature", "properties": { "name": "YogaWednesdays", "type": "fitness_centre" }, "geometry": { "type": "Point", "coordinates": [ 18.451962001564429, -33.932544757015528 ] } },
{ "type": "Feature", "properties": { "name": "Newlands Swimming Pool", "type": "sports_centre" }, "geometry": { "type": "Point", "coordinates": [ 18.463791103198918, -33.973307880150166 ] } },
{ "type": "Feature", "properties": { "name": "", "type": "track" }, "geometry": { "type": "Point", "coordinates": [ 18.413244082906889, -33.935337498662925 ] } },
{ "type": "Feature", "properties": { "name": "Athlone Swimming Pool", "type": "sports_centre" }, "geometry": { "type": "Point", "coordinates": [ 18.51884053116769, -33.961842174134716 ] } },
{ "type": "Feature", "properties": { "name": "", "type": "sports_hall" }, "geometry": { "type": "Point", "coordinates": [ 18.471540852030401, -33.945421913520349 ] } },
{ "type": "Feature", "properties": { "name": "Gordons Gymnastics Club", "type": "sports_hall" }, "geometry": { "type": "Point", "coordinates": [ 18.477863792636157, -33.949039455689615 ] } },
{ "type": "Feature", "properties": { "name": "Chinese Martial Arts & Health Centre", "type": "fitness_centre" }, "geometry": { "type": "Point", "coordinates": [ 18.470579598535426, -33.93788592412114 ] } },
{ "type": "Feature", "properties": { "name": "", "type": "sports_hall" }, "geometry": { "type": "Point", "coordinates": [ 18.49593328799951, -33.58460309285779 ] } },
{ "type": "Feature", "properties": { "name": "Atlantis Multipurpose Sports Centre", "type": "sports_centre" }, "geometry": { "type": "Point", "coordinates": [ 18.496481230521592, -33.584535784803727 ] } },
{ "type": "Feature", "properties": { "name": "Vangate Sports Complex", "type": "sports_centre" }, "geometry": { "type": "Point", "coordinates": [ 18.537793993587531, -33.964227903398289 ] } },
{ "type": "Feature", "properties": { "name": "Wesfleur Swimming Pool", "type": "sports_centre" }, "geometry": { "type": "Point", "coordinates": [ 18.488685948206484, -33.559123568866035 ] } },
{ "type": "Feature", "properties": { "name": "Wesfleur Sports Ground", "type": "sports_centre" }, "geometry": { "type": "Point", "coordinates": [ 18.491298522148753, -33.559523241868 ] } },
{ "type": "Feature", "properties": { "name": "Saxon-Sea Stadium", "type": "stadium" }, "geometry": { "type": "Point", "coordinates": [ 18.489989544589175, -33.55785476858162 ] } },
{ "type": "Feature", "properties": { "name": "Avondale Sports Ground", "type": "sports_centre" }, "geometry": { "type": "Point", "coordinates": [ 18.485908513437142, -33.574514726498791 ] } },
{ "type": "Feature", "properties": { "name": "", "type": "track" }, "geometry": { "type": "Point", "coordinates": [ 18.523951517482548, -33.968887104175828 ] } },
{ "type": "Feature", "properties": { "name": "", "type": "track" }, "geometry": { "type": "Point", "coordinates": [ 18.524107991267648, -33.968929617367479 ] } },
{ "type": "Feature", "properties": { "name": "", "type": "track" }, "geometry": { "type": "Point", "coordinates": [ 18.523286200275717, -33.969389050049273 ] } },
{ "type": "Feature", "properties": { "name": "", "type": "track" }, "geometry": { "type": "Point", "coordinates": [ 18.523260000278874, -33.969402400050015 ] } },
{ "type": "Feature", "properties": { "name": "", "type": "track" }, "geometry": { "type": "Point", "coordinates": [ 18.524031225894664, -33.968904326269552 ] } },
{ "type": "Feature", "properties": { "name": "", "type": "track" }, "geometry": { "type": "Point", "coordinates": [ 18.644490499881059, -33.931577200007865 ] } },
{ "type": "Feature", "properties": { "name": "CPUT Athletics Stadium", "type": "sports_centre" }, "geometry": { "type": "Point", "coordinates": [ 18.644922136543677, -33.931587383351115 ] } },
{ "type": "Feature", "properties": { "name": "", "type": "track" }, "geometry": { "type": "Point", "coordinates": [ 18.644774876159726, -33.930944377426378 ] } },
{ "type": "Feature", "properties": { "name": "", "type": "track" }, "geometry": { "type": "Point", "coordinates": [ 18.645007127028112, -33.930913524000978 ] } },
{ "type": "Feature", "properties": { "name": "", "type": "track" }, "geometry": { "type": "Point", "coordinates": [ 18.644862860122682, -33.930928475582611 ] } },
{ "type": "Feature", "properties": { "name": "", "type": "track" }, "geometry": { "type": "Point", "coordinates": [ 18.489566250182005, -33.557808600024693 ] } },
{ "type": "Feature", "properties": { "name": "", "type": "track" }, "geometry": { "type": "Point", "coordinates": [ 18.48953325017764, -33.557803750023773 ] } },
{ "type": "Feature", "properties": { "name": "Langa Indoor Sports Centre", "type": "sports_centre" }, "geometry": { "type": "Point", "coordinates": [ 18.522519228934829, -33.948932620337288 ] } },
{ "type": "Feature", "properties": { "name": "Langa Indoor Multipurpose Sports Centre", "type": "sports_hall" }, "geometry": { "type": "Point", "coordinates": [ 18.52253280748932, -33.948565469327498 ] } },
{ "type": "Feature", "properties": { "name": "Bishop Lavis Sports Ground", "type": "sports_centre" }, "geometry": { "type": "Point", "coordinates": [ 18.582739262824134, -33.947583713878018 ] } },
{ "type": "Feature", "properties": { "name": "", "type": "sports_centre" }, "geometry": { "type": "Point", "coordinates": [ 18.571124921772913, -33.947968480395552 ] } },
{ "type": "Feature", "properties": { "name": "", "type": "sports_centre" }, "geometry": { "type": "Point", "coordinates": [ 19.005091094057629, -34.335480252274508 ] } },
{ "type": "Feature", "properties": { "name": "", "type": "track" }, "geometry": { "type": "Point", "coordinates": [ 18.851717351411921, -34.128423350830438 ] } },
{ "type": "Feature", "properties": { "name": "DF MALAN High Performance Center", "type": "fitness_centre" }, "geometry": { "type": "Point", "coordinates": [ 18.62712105625867, -33.893218179467567 ] } },
{ "type": "Feature", "properties": { "name": "Bellville Sports Ground", "type": "sports_centre" }, "geometry": { "type": "Point", "coordinates": [ 18.617882823513487, -33.902675987222352 ] } },
{ "type": "Feature", "properties": { "name": "Parklands Soccer Academy", "type": "sports_centre" }, "geometry": { "type": "Point", "coordinates": [ 18.500743930345138, -33.790696927457269 ] } },
{ "type": "Feature", "properties": { "name": "Blue Ridge Sports Complex", "type": "sports_centre" }, "geometry": { "type": "Point", "coordinates": [ 18.73750260477799, -33.854311262906876 ] } },
{ "type": "Feature", "properties": { "name": "Bellville Swimming Pool", "type": "sports_centre" }, "geometry": { "type": "Point", "coordinates": [ 18.617969338576042, -33.902846758432389 ] } },
{ "type": "Feature", "properties": { "name": "Florida Park", "type": "sports_centre" }, "geometry": { "type": "Point", "coordinates": [ 18.606015733596745, -33.923026160145298 ] } },
{ "type": "Feature", "properties": { "name": "", "type": "track" }, "geometry": { "type": "Point", "coordinates": [ 18.819523434978702, -34.053447114755556 ] } },
{ "type": "Feature", "properties": { "name": "", "type": "track" }, "geometry": { "type": "Point", "coordinates": [ 18.818968432756165, -34.053594298156668 ] } },
{ "type": "Feature", "properties": { "name": "", "type": "track" }, "geometry": { "type": "Point", "coordinates": [ 18.819244948471734, -34.053619834363055 ] } },
{ "type": "Feature", "properties": { "name": "Abe Sher Sports Complex", "type": "sports_centre" }, "geometry": { "type": "Point", "coordinates": [ 18.5410554902858, -33.86780709683741 ] } },
{ "type": "Feature", "properties": { "name": "Charles Morkel Sports Ground", "type": "sports_centre" }, "geometry": { "type": "Point", "coordinates": [ 18.838366254207752, -34.104922809805728 ] } },
{ "type": "Feature", "properties": { "name": "Charles Morkel Hall", "type": "sports_hall" }, "geometry": { "type": "Point", "coordinates": [ 18.837969802717009, -34.104867372630977 ] } },
{ "type": "Feature", "properties": { "name": "Vredenhof sports fields", "type": "sports_centre" }, "geometry": { "type": "Point", "coordinates": [ 18.474293041274233, -33.973200208057818 ] } },
{ "type": "Feature", "properties": { "name": "Eerste River Sports Ground", "type": "sports_centre" }, "geometry": { "type": "Point", "coordinates": [ 18.729287324566162, -34.020184567814759 ] } },
{ "type": "Feature", "properties": { "name": "", "type": "stadium" }, "geometry": { "type": "Point", "coordinates": [ 18.962528350146219, -33.887811299974068 ] } },
{ "type": "Feature", "properties": { "name": "Kleinvlei Sports Ground", "type": "sports_centre" }, "geometry": { "type": "Point", "coordinates": [ 18.713914283859214, -33.992240133945387 ] } },
{ "type": "Feature", "properties": { "name": "Durbanville Racecourse", "type": "sports_centre" }, "geometry": { "type": "Point", "coordinates": [ 18.640045866493313, -33.837908075729736 ] } },
{ "type": "Feature", "properties": { "name": "Goodwood Sports Ground", "type": "sports_centre" }, "geometry": { "type": "Point", "coordinates": [ 18.552301365856021, -33.901118378147935 ] } },
{ "type": "Feature", "properties": { "name": "Killarney Raceway", "type": "sports_centre" }, "geometry": { "type": "Point", "coordinates": [ 18.527869728826651, -33.823878946859516 ] } },
{ "type": "Feature", "properties": { "name": "Eikendal Sports Complex", "type": "sports_centre" }, "geometry": { "type": "Point", "coordinates": [ 18.718910367628247, -33.852731913951594 ] } },
{ "type": "Feature", "properties": { "name": "14th Avenue Sports Ground", "type": "sports_centre" }, "geometry": { "type": "Point", "coordinates": [ 18.515948336973096, -33.911709522780377 ] } },
{ "type": "Feature", "properties": { "name": "Kensington Swimming Pool", "type": "sports_centre" }, "geometry": { "type": "Point", "coordinates": [ 18.516114295598857, -33.914862482103956 ] } },
{ "type": "Feature", "properties": { "name": "Rooikrans Sports Ground", "type": "sports_centre" }, "geometry": { "type": "Point", "coordinates": [ 18.4956831218696, -34.05844355701025 ] } },
{ "type": "Feature", "properties": { "name": "Mannenberg Swimming Pool", "type": "sports_centre" }, "geometry": { "type": "Point", "coordinates": [ 18.550954532889964, -33.983784383380055 ] } },
{ "type": "Feature", "properties": { "name": "Nyanga Rugby Sports Ground", "type": "sports_centre" }, "geometry": { "type": "Point", "coordinates": [ 18.581532360135078, -33.997810417538624 ] } },
{ "type": "Feature", "properties": { "name": "Saxonsea Sports Ground", "type": "sports_centre" }, "geometry": { "type": "Point", "coordinates": [ 18.48884550257981, -33.548382019776945 ] } },
{ "type": "Feature", "properties": { "name": "Symphony Sports Ground", "type": "sports_centre" }, "geometry": { "type": "Point", "coordinates": [ 18.625606060321413, -33.950540474311751 ] } },
{ "type": "Feature", "properties": { "name": "Swim Hub", "type": "sports_hall" }, "geometry": { "type": "Point", "coordinates": [ 18.685632336861016, -33.831174204412228 ] } },
{ "type": "Feature", "properties": { "name": "NNK Stadium", "type": "stadium" }, "geometry": { "type": "Point", "coordinates": [ 18.582488496940673, -33.893604686133145 ] } },
{ "type": "Feature", "properties": { "name": "", "type": "track" }, "geometry": { "type": "Point", "coordinates": [ 18.584311181841827, -33.894520423595274 ] } },
{ "type": "Feature", "properties": { "name": "Jan Burger Sports Ground", "type": "sports_centre" }, "geometry": { "type": "Point", "coordinates": [ 18.584333874920262, -33.893314266318214 ] } },
{ "type": "Feature", "properties": { "name": "Parow North Swimming Pool", "type": "sports_centre" }, "geometry": { "type": "Point", "coordinates": [ 18.58482323353347, -33.892133194415678 ] } },
{ "type": "Feature", "properties": { "name": "Bell Park Sports Fields", "type": "sports_centre" }, "geometry": { "type": "Point", "coordinates": [ 18.648144710317464, -33.885716346395832 ] } },
{ "type": "Feature", "properties": { "name": "Boston Primary School Sports Ground", "type": "sports_centre" }, "geometry": { "type": "Point", "coordinates": [ 18.616850060889178, -33.887590156295865 ] } },
{ "type": "Feature", "properties": { "name": "Ruyterwacht Swimming Pool", "type": "sports_centre" }, "geometry": { "type": "Point", "coordinates": [ 18.557543834168417, -33.91886084330136 ] } },
{ "type": "Feature", "properties": { "name": "", "type": "sports_centre" }, "geometry": { "type": "Point", "coordinates": [ 18.481270489301355, -34.034425607321431 ] } },
{ "type": "Feature", "properties": { "name": "Bellville South Sports Ground", "type": "sports_centre" }, "geometry": { "type": "Point", "coordinates": [ 18.650143871302458, -33.922434615160434 ] } },
{ "type": "Feature", "properties": { "name": "Bellville United Tennis Club", "type": "sports_centre" }, "geometry": { "type": "Point", "coordinates": [ 18.656977400206554, -33.91724935013238 ] } },
{ "type": "Feature", "properties": { "name": "Sarepta Sports Complex", "type": "sports_centre" }, "geometry": { "type": "Point", "coordinates": [ 18.665021893729115, -33.928648671938035 ] } },
{ "type": "Feature", "properties": { "name": "Stellenbosch Bowling Club", "type": "sports_centre" }, "geometry": { "type": "Point", "coordinates": [ 18.857462839631182, -33.933245107998111 ] } },
{ "type": "Feature", "properties": { "name": "Stellenbosch Academy of Sports", "type": "sports_centre" }, "geometry": { "type": "Point", "coordinates": [ 18.855707612501742, -33.941120754234255 ] } },
{ "type": "Feature", "properties": { "name": "Parow Valley Swimming Pool", "type": "sports_centre" }, "geometry": { "type": "Point", "coordinates": [ 18.596653510004412, -33.909469194848114 ] } },
{ "type": "Feature", "properties": { "name": "Avonwood Sports Ground", "type": "sports_centre" }, "geometry": { "type": "Point", "coordinates": [ 18.582409076383993, -33.923373382230309 ] } },
{ "type": "Feature", "properties": { "name": "Salberau Sports Ground", "type": "sports_centre" }, "geometry": { "type": "Point", "coordinates": [ 18.568249798123645, -33.930472688280119 ] } },
{ "type": "Feature", "properties": { "name": "Matroosfontein Sports Ground", "type": "sports_centre" }, "geometry": { "type": "Point", "coordinates": [ 18.573523440872432, -33.9378038562662 ] } },
{ "type": "Feature", "properties": { "name": "Bonteheuwel Sports Ground", "type": "sports_centre" }, "geometry": { "type": "Point", "coordinates": [ 18.556443914131123, -33.95323698410246 ] } },
{ "type": "Feature", "properties": { "name": "Ravensmead Swimming Pool", "type": "sports_centre" }, "geometry": { "type": "Point", "coordinates": [ 18.596797982391415, -33.924851709021446 ] } },
{ "type": "Feature", "properties": { "name": "Cravenby Sports Field", "type": "sports_centre" }, "geometry": { "type": "Point", "coordinates": [ 18.586186270304072, -33.924003371881568 ] } },
{ "type": "Feature", "properties": { "name": "St Andrew's Sports Ground", "type": "sports_centre" }, "geometry": { "type": "Point", "coordinates": [ 18.592412765983688, -33.932392498986474 ] } },
{ "type": "Feature", "properties": { "name": "Montague Action Arena & Bounce World", "type": "sports_centre" }, "geometry": { "type": "Point", "coordinates": [ 18.520626504451613, -33.859183969786088 ] } },
{ "type": "Feature", "properties": { "name": "Atlantis Shooting Range", "type": "sports_centre" }, "geometry": { "type": "Point", "coordinates": [ 18.4746278861044, -33.624025531955574 ] } },
{ "type": "Feature", "properties": { "name": "Heideveld Sports Ground", "type": "sports_centre" }, "geometry": { "type": "Point", "coordinates": [ 18.550417953479798, -33.964524237519235 ] } },
{ "type": "Feature", "properties": { "name": "", "type": "sports_centre" }, "geometry": { "type": "Point", "coordinates": [ 18.459844015169299, -33.982181400247811 ] } },
{ "type": "Feature", "properties": { "name": "Distell Cricket Ground", "type": "sports_centre" }, "geometry": { "type": "Point", "coordinates": [ 18.839006858575054, -33.947048079432939 ] } },
{ "type": "Feature", "properties": { "name": "Accordion Sports Field", "type": "sports_centre" }, "geometry": { "type": "Point", "coordinates": [ 18.627291106224867, -33.948180868810674 ] } },
{ "type": "Feature", "properties": { "name": "Lentelus", "type": "sports_centre" }, "geometry": { "type": "Point", "coordinates": [ 18.868394251778749, -33.924166135678249 ] } },
{ "type": "Feature", "properties": { "name": "Voorbrug Sports Field", "type": "sports_centre" }, "geometry": { "type": "Point", "coordinates": [ 18.64416334607105, -33.97159495834395 ] } },
{ "type": "Feature", "properties": { "name": "Delft Swimming Pool", "type": "sports_centre" }, "geometry": { "type": "Point", "coordinates": [ 18.644646460428351, -33.973696453492785 ] } },
{ "type": "Feature", "properties": { "name": "Delft Central Sports Complex", "type": "sports_centre" }, "geometry": { "type": "Point", "coordinates": [ 18.641123006030679, -33.971027694300695 ] } },
{ "type": "Feature", "properties": { "name": "", "type": "sports_centre" }, "geometry": { "type": "Point", "coordinates": [ 18.629175810845542, -33.963027007804826 ] } },
{ "type": "Feature", "properties": { "name": "Delft South Sports Ground", "type": "sports_centre" }, "geometry": { "type": "Point", "coordinates": [ 18.634050937663108, -33.990595946249421 ] } },
{ "type": "Feature", "properties": { "name": "Mandalay Sports Ground", "type": "sports_centre" }, "geometry": { "type": "Point", "coordinates": [ 18.627358028728295, -34.017545997937006 ] } },
{ "type": "Feature", "properties": { "name": "Portland Sports Ground", "type": "sports_centre" }, "geometry": { "type": "Point", "coordinates": [ 18.61255091741991, -34.053564910113714 ] } },
{ "type": "Feature", "properties": { "name": "", "type": "track" }, "geometry": { "type": "Point", "coordinates": [ 18.746713974624967, -33.962409675155499 ] } },
{ "type": "Feature", "properties": { "name": "The Portuguese Club Cape Town", "type": "sports_centre" }, "geometry": { "type": "Point", "coordinates": [ 18.486095864041175, -33.89617594243051 ] } },
{ "type": "Feature", "properties": { "name": "", "type": "sports_centre" }, "geometry": { "type": "Point", "coordinates": [ 18.968529809748865, -33.72155847662404 ] } },
{ "type": "Feature", "properties": { "name": "", "type": "sports_centre" }, "geometry": { "type": "Point", "coordinates": [ 18.380909080038244, -33.924966982926016 ] } },
{ "type": "Feature", "properties": { "name": "Equilibrium Fitness Center Wellington", "type": "fitness_centre" }, "geometry": { "type": "Point", "coordinates": [ 19.008958165608774, -33.639767640202116 ] } },
{ "type": "Feature", "properties": { "name": "Robinvale Sports Ground", "type": "sports_centre" }, "geometry": { "type": "Point", "coordinates": [ 18.505203831508428, -33.570141616758157 ] } },
{ "type": "Feature", "properties": { "name": "Plumstead Sports Ground", "type": "sports_centre" }, "geometry": { "type": "Point", "coordinates": [ 18.474049838276212, -34.026098060966895 ] } },
{ "type": "Feature", "properties": { "name": "", "type": "track" }, "geometry": { "type": "Point", "coordinates": [ 18.855901489180358, -33.943717834425804 ] } },
{ "type": "Feature", "properties": { "name": "Durbanville Sports Ground", "type": "sports_centre" }, "geometry": { "type": "Point", "coordinates": [ 18.659559497712745, -33.832169743247654 ] } },
{ "type": "Feature", "properties": { "name": "", "type": "sports_centre" }, "geometry": { "type": "Point", "coordinates": [ 18.43477949999858, -34.195962900006755 ] } },
{ "type": "Feature", "properties": { "name": "", "type": "sports_centre" }, "geometry": { "type": "Point", "coordinates": [ 18.434303656851501, -34.195957495094696 ] } },
{ "type": "Feature", "properties": { "name": "", "type": "track" }, "geometry": { "type": "Point", "coordinates": [ 19.011478712527694, -33.865646094756222 ] } },
{ "type": "Feature", "properties": { "name": "", "type": "sports_centre" }, "geometry": { "type": "Point", "coordinates": [ 18.961366956109405, -33.798609492092154 ] } },
{ "type": "Feature", "properties": { "name": "", "type": "sports_centre" }, "geometry": { "type": "Point", "coordinates": [ 18.636303992267592, -34.047941982102863 ] } }
]
}
