{
"type": "FeatureCollection",
"name": "community_centres",
"crs": { "type": "name", "properties": { "name": "urn:ogc:def:crs:OGC:1.3:CRS84" } },
"features": [
{ "type": "Feature", "properties": { "name": "Adriaanse Community Hall" }, "geometry": { "type": "Point", "coordinates": [ 18.584358644272605, -33.937921102947875 ] } },
{ "type": "Feature", "properties": { "name": "Dulcie September Civic Centre" }, "geometry": { "type": "Point", "coordinates": [ 18.509806874040279, -33.960720015481222 ] } },
{ "type": "Feature", "properties": { "name": "Avondale Community Hall" }, "geometry": { "type": "Point", "coordinates": [ 18.485965032139237, -33.570656438359194 ] } },
{ "type": "Feature", "properties": { "name": "Blomvlei Community Centre" }, "geometry": { "type": "Point", "coordinates": [ 18.522619620396171, -33.991860964712053 ] } },
{ "type": "Feature", "properties": { "name": "Blouberg Community Hall" }, "geometry": { "type": "Point", "coordinates": [ 18.46017156884238, -33.800989728353798 ] } },
{ "type": "Feature", "properties": { "name": "Belhar Civic Centre" }, "geometry": { "type": "Point", "coordinates": [ 18.614833148564944, -33.944500942400396 ] } },
{ "type": "Feature", "properties": { "name": "Bluegum Community Centre" }, "geometry": { "type": "Point", "coordinates": [ 18.547346708890593, -33.953666181190314 ] } },
{ "type": "Feature", "properties": { "name": "Bonteheuwel Civic Centre" }, "geometry": { "type": "Point", "coordinates": [ 18.552776505556874, -33.951773869984535 ] } },
{ "type": "Feature", "properties": { "name": "Bonteheuwel Community Centre" }, "geometry": { "type": "Point", "coordinates": [ 18.551070907564565, -33.944389818347716 ] } },
{ "type": "Feature", "properties": { "name": "Brackenfell Civic Centre" }, "geometry": { "type": "Point", "coordinates": [ 18.688558961910982, -33.877536872775501 ] } },
{ "type": "Feature", "properties": { "name": "Bridgetown Community Centre" }, "geometry": { "type": "Point", "coordinates": [ 18.529739847001171, -33.955536074907862 ] } },
{ "type": "Feature", "properties": { "name": "Browns Farm Community Hall" }, "geometry": { "type": "Point", "coordinates": [ 18.585008987707411, -34.005885274589446 ] } },
{ "type": "Feature", "properties": { "name": "Cathkin Community Centre" }, "geometry": { "type": "Point", "coordinates": [ 18.553739280352517, -33.964454788512263 ] } },
{ "type": "Feature", "properties": { "name": "Claremont Civic Centre" }, "geometry": { "type": "Point", "coordinates": [ 18.466658408611885, -33.985460025829681 ] } },
{ "type": "Feature", "properties": { "name": "Clifton Community Hall" }, "geometry": { "type": "Point", "coordinates": [ 18.374558511038359, -33.942064231354827 ] } },
{ "type": "Feature", "properties": { "name": "Coniston Park Recreation Centre" }, "geometry": { "type": "Point", "coordinates": [ 18.472022059628852, -34.075739720138813 ] } },
{ "type": "Feature", "properties": { "name": "Cravenby Community Hall" }, "geometry": { "type": "Point", "coordinates": [ 18.588528192630172, -33.923229552210401 ] } },
{ "type": "Feature", "properties": { "name": "De Wet Road Community Hall" }, "geometry": { "type": "Point", "coordinates": [ 18.506563723200959, -34.018532970317722 ] } },
{ "type": "Feature", "properties": { "name": "Delft Civic Centre" }, "geometry": { "type": "Point", "coordinates": [ 18.643408228969413, -33.973824708555199 ] } },
{ "type": "Feature", "properties": { "name": "Delft South Community Hall" }, "geometry": { "type": "Point", "coordinates": [ 18.63960130174598, -33.986144177464276 ] } },
{ "type": "Feature", "properties": { "name": "Driftsands Community Hall" }, "geometry": { "type": "Point", "coordinates": [ 18.651285728172386, -34.005624503937 ] } },
{ "type": "Feature", "properties": { "name": "Druiwevlei Community Centre" }, "geometry": { "type": "Point", "coordinates": [ 18.55007547182182, -33.98132430226957 ] } },
{ "type": "Feature", "properties": { "name": "Duinefontein Community Centre" }, "geometry": { "type": "Point", "coordinates": [ 18.551954101507508, -33.975348949310913 ] } },
{ "type": "Feature", "properties": { "name": "Eastridge Community Centre" }, "geometry": { "type": "Point", "coordinates": [ 18.633333064305887, -34.046773512027386 ] } },
{ "type": "Feature", "properties": { "name": "Edgemead Community Hall" }, "geometry": { "type": "Point", "coordinates": [ 18.541921986807385, -33.880498160823585 ] } },
{ "type": "Feature", "properties": { "name": "Elukhanyisweni Recreation Centre" }, "geometry": { "type": "Point", "coordinates": [ 18.565777555864305, -33.999227571272534 ] } },
{ "type": "Feature", "properties": { "name": "Endlovini Recreation Centre" }, "geometry": { "type": "Point", "coordinates": [ 18.576577490282162, -33.996898313337645 ] } },
{ "type": "Feature", "properties": { "name": "Fish Hoek Civic Centre" }, "geometry": { "type": "Point", "coordinates": [ 18.42668488314667, -34.136392611988875 ] } },
{ "type": "Feature", "properties": { "name": "Grassy Park Civic Centre" }, "geometry": { "type": "Point", "coordinates": [ 18.496174782398608, -34.049672377900635 ] } },
{ "type": "Feature", "properties": { "name": "Gugulethu Community Hall" }, "geometry": { "type": "Point", "coordinates": [ 18.566204158606208, -33.99758843968408 ] } },
{ "type": "Feature", "properties": { "name": "Hanover Park Civic Centre" }, "geometry": { "type": "Point", "coordinates": [ 18.527199456293427, -33.995198341245271 ] } },
{ "type": "Feature", "properties": { "name": "Heideveld Community Centre" }, "geometry": { "type": "Point", "coordinates": [ 18.559944616858083, -33.969330162730991 ] } },
{ "type": "Feature", "properties": { "name": "Ikwezi  Recreation Centre" }, "geometry": { "type": "Point", "coordinates": [ 18.568247751317386, -33.986382983258473 ] } },
{ "type": "Feature", "properties": { "name": "Joe Slovo  Recreation Centre" }, "geometry": { "type": "Point", "coordinates": [ 18.510027509257217, -33.872142167379295 ] } },
{ "type": "Feature", "properties": { "name": "Langa Community Hall" }, "geometry": { "type": "Point", "coordinates": [ 18.524506778687172, -33.943506278783552 ] } },
{ "type": "Feature", "properties": { "name": "Kalksteenfontein Community Centre" }, "geometry": { "type": "Point", "coordinates": [ 18.564834155034358, -33.946319855926774 ] } },
{ "type": "Feature", "properties": { "name": "Kensington Civic Centre" }, "geometry": { "type": "Point", "coordinates": [ 18.51152251519747, -33.908937772960613 ] } },
{ "type": "Feature", "properties": { "name": "KTC Community Hall" }, "geometry": { "type": "Point", "coordinates": [ 18.579609369943086, -33.988461102978832 ] } },
{ "type": "Feature", "properties": { "name": "Lansdowne Civic Centre" }, "geometry": { "type": "Point", "coordinates": [ 18.505144128133882, -33.992038414400589 ] } },
{ "type": "Feature", "properties": { "name": "Lansport Community Centre" }, "geometry": { "type": "Point", "coordinates": [ 18.535139670479666, -33.993519117869852 ] } },
{ "type": "Feature", "properties": { "name": "Lavender Hill Community Centre" }, "geometry": { "type": "Point", "coordinates": [ 18.4863446359238, -34.068023417163332 ] } },
{ "type": "Feature", "properties": { "name": "Leonsdale Community Centre" }, "geometry": { "type": "Point", "coordinates": [ 18.575683326112994, -33.919428528831453 ] } },
{ "type": "Feature", "properties": { "name": "Lotus River Recreation Centre" }, "geometry": { "type": "Point", "coordinates": [ 18.520417228000625, -34.040962859064472 ] } },
{ "type": "Feature", "properties": { "name": "Lwandle Community Hall" }, "geometry": { "type": "Point", "coordinates": [ 18.866438883557176, -34.118071933664808 ] } },
{ "type": "Feature", "properties": { "name": "Macassar New Community Hall" }, "geometry": { "type": "Point", "coordinates": [ 18.761513439533253, -34.0607439718028 ] } },
{ "type": "Feature", "properties": { "name": "Macassar Old Community Hall" }, "geometry": { "type": "Point", "coordinates": [ 18.763356279439719, -34.062068926870204 ] } },
{ "type": "Feature", "properties": { "name": "Maitland Civic Centre" }, "geometry": { "type": "Point", "coordinates": [ 18.486976454300766, -33.923566138235479 ] } },
{ "type": "Feature", "properties": { "name": "Mamre Community Hall" }, "geometry": { "type": "Point", "coordinates": [ 18.476344029632234, -33.513169088987375 ] } },
{ "type": "Feature", "properties": { "name": "Manenberg Community Centre" }, "geometry": { "type": "Point", "coordinates": [ 18.555405883376622, -33.988341055819937 ] } },
{ "type": "Feature", "properties": { "name": "Masiphumelele Community Hall" }, "geometry": { "type": "Point", "coordinates": [ 18.378246176128044, -34.128530122873308 ] } },
{ "type": "Feature", "properties": { "name": "Matroosfontein Civic Centre" }, "geometry": { "type": "Point", "coordinates": [ 18.572027282619608, -33.938870867299613 ] } },
{ "type": "Feature", "properties": { "name": "Nelson Mandela Youth and Family Recreation Centre" }, "geometry": { "type": "Point", "coordinates": [ 18.637774183255281, -34.061450408360493 ] } },
{ "type": "Feature", "properties": { "name": "Monwabisi Recreation Centre" }, "geometry": { "type": "Point", "coordinates": [ 18.526973505744962, -33.941279067744496 ] } },
{ "type": "Feature", "properties": { "name": "Mowbray Civic Centre" }, "geometry": { "type": "Point", "coordinates": [ 18.471068441360888, -33.949293987913961 ] } },
{ "type": "Feature", "properties": { "name": "Muizenberg Civic Centre" }, "geometry": { "type": "Point", "coordinates": [ 18.472204933264504, -34.107115420699664 ] } },
{ "type": "Feature", "properties": { "name": "Netreg Community Centre" }, "geometry": { "type": "Point", "coordinates": [ 18.561558547165511, -33.952465559404921 ] } },
{ "type": "Feature", "properties": { "name": "Nomzamo Community Hall" }, "geometry": { "type": "Point", "coordinates": [ 18.859282255420229, -34.115575379471309 ] } },
{ "type": "Feature", "properties": { "name": "Nooitgedacht Community Hall" }, "geometry": { "type": "Point", "coordinates": [ 18.581446756177471, -33.955737376616462 ] } },
{ "type": "Feature", "properties": { "name": "Parow Civic Centre" }, "geometry": { "type": "Point", "coordinates": [ 18.580951930881302, -33.905584034602157 ] } },
{ "type": "Feature", "properties": { "name": "Pelican Park Community Hall" }, "geometry": { "type": "Point", "coordinates": [ 18.526547952235301, -34.064793537046221 ] } },
{ "type": "Feature", "properties": { "name": "Rebecca Van Amsterdam Community Hall" }, "geometry": { "type": "Point", "coordinates": [ 18.498140251324479, -33.576456717935073 ] } },
{ "type": "Feature", "properties": { "name": "Retreat Civic Centre" }, "geometry": { "type": "Point", "coordinates": [ 18.477048015065886, -34.063813876610141 ] } },
{ "type": "Feature", "properties": { "name": "Retreat Community Centre" }, "geometry": { "type": "Point", "coordinates": [ 18.4837009344668, -34.055813714863433 ] } },
{ "type": "Feature", "properties": { "name": "Robinvale Community Hall" }, "geometry": { "type": "Point", "coordinates": [ 18.502026748620846, -33.572509680585355 ] } },
{ "type": "Feature", "properties": { "name": "Salt River Community Hall" }, "geometry": { "type": "Point", "coordinates": [ 18.460731086313725, -33.927623900098617 ] } },
{ "type": "Feature", "properties": { "name": "Sarepta Community Hall" }, "geometry": { "type": "Point", "coordinates": [ 18.672093526370993, -33.931848505650748 ] } },
{ "type": "Feature", "properties": { "name": "Scarborough Community Hall" }, "geometry": { "type": "Point", "coordinates": [ 18.374928323186293, -34.195691608794625 ] } },
{ "type": "Feature", "properties": { "name": "Northdene Community Hall" }, "geometry": { "type": "Point", "coordinates": [ 18.719313626485931, -33.865465476320523 ] } },
{ "type": "Feature", "properties": { "name": "Zolani Recreation Centre" }, "geometry": { "type": "Point", "coordinates": [ 18.584630513105168, -33.991705899915395 ] } },
{ "type": "Feature", "properties": { "name": "FF Erasmus Community Hall" }, "geometry": { "type": "Point", "coordinates": [ 18.708601903933985, -33.855818591761903 ] } },
{ "type": "Feature", "properties": { "name": "Sea Point Civic Centre" }, "geometry": { "type": "Point", "coordinates": [ 18.398296425945869, -33.907620814017697 ] } },
{ "type": "Feature", "properties": { "name": "Sir Lowry's Pass Community Hall" }, "geometry": { "type": "Point", "coordinates": [ 18.911301206986892, -34.118619249996804 ] } },
{ "type": "Feature", "properties": { "name": "MC Fick Community Hall" }, "geometry": { "type": "Point", "coordinates": [ 18.593497985395636, -33.91530000566393 ] } },
{ "type": "Feature", "properties": { "name": "Steenberg Community Centre" }, "geometry": { "type": "Point", "coordinates": [ 18.477200632544431, -34.070793654083623 ] } },
{ "type": "Feature", "properties": { "name": "Strand Civic Centre" }, "geometry": { "type": "Point", "coordinates": [ 18.830211311267142, -34.114977881261375 ] } },
{ "type": "Feature", "properties": { "name": "Summer Greens Community Hall" }, "geometry": { "type": "Point", "coordinates": [ 18.528761431638095, -33.880633556167311 ] } },
{ "type": "Feature", "properties": { "name": "Leibrandt Van Niekerk Community Hall" }, "geometry": { "type": "Point", "coordinates": [ 18.51362708375353, -33.832937170194079 ] } },
{ "type": "Feature", "properties": { "name": "The Downs Community Centre" }, "geometry": { "type": "Point", "coordinates": [ 18.553317114389813, -33.99422710933424 ] } },
{ "type": "Feature", "properties": { "name": "The Hague Recreation Centre" }, "geometry": { "type": "Point", "coordinates": [ 18.645806086685926, -33.964475235624036 ] } },
{ "type": "Feature", "properties": { "name": "Uitsig Community Hall" }, "geometry": { "type": "Point", "coordinates": [ 18.599366424025256, -33.93606707938519 ] } },
{ "type": "Feature", "properties": { "name": "Van Riebeeck Community Hall" }, "geometry": { "type": "Point", "coordinates": [ 18.680792604969898, -33.925352016781495 ] } },
{ "type": "Feature", "properties": { "name": "Wallacedene Community Hall" }, "geometry": { "type": "Point", "coordinates": [ 18.730325281239868, -33.861264278374627 ] } },
{ "type": "Feature", "properties": { "name": "Woodstock Community Hall" }, "geometry": { "type": "Point", "coordinates": [ 18.449929426232174, -33.92864114366963 ] } },
{ "type": "Feature", "properties": { "name": "Kleinvlei Community Hall" }, "geometry": { "type": "Point", "coordinates": [ 18.717199377684349, -33.986895174084594 ] } },
{ "type": "Feature", "properties": { "name": "Blackheath Community Hall" }, "geometry": { "type": "Point", "coordinates": [ 18.698516694308982, -33.977664241946314 ] } },
{ "type": "Feature", "properties": { "name": "Valhalla Park Community Centre" }, "geometry": { "type": "Point", "coordinates": [ 18.570965832381592, -33.953622077648888 ] } },
{ "type": "Feature", "properties": { "name": "Bishop Lavis Civic Centre" }, "geometry": { "type": "Point", "coordinates": [ 18.582624708924687, -33.949440316821722 ] } },
{ "type": "Feature", "properties": { "name": "Ocean View Civic Centre" }, "geometry": { "type": "Point", "coordinates": [ 18.350879406137533, -34.148778752151657 ] } },
{ "type": "Feature", "properties": { "name": "Somerset West Civic Centre" }, "geometry": { "type": "Point", "coordinates": [ 18.850989103938669, -34.084380534811807 ] } },
{ "type": "Feature", "properties": { "name": "Belthorn Recreation Centre" }, "geometry": { "type": "Point", "coordinates": [ 18.5152337996909, -33.98604169156566 ] } },
{ "type": "Feature", "properties": { "name": "Factreton Community Centre" }, "geometry": { "type": "Point", "coordinates": [ 18.518722091788113, -33.905292962981157 ] } },
{ "type": "Feature", "properties": { "name": "Garden Village Community Hall" }, "geometry": { "type": "Point", "coordinates": [ 18.837575319978992, -34.086270604889975 ] } },
{ "type": "Feature", "properties": { "name": "Hout Bay Civic Centre" }, "geometry": { "type": "Point", "coordinates": [ 18.34198228584939, -34.053339297175924 ] } },
{ "type": "Feature", "properties": { "name": "Luyolo Recreation Centre" }, "geometry": { "type": "Point", "coordinates": [ 18.567180624625077, -33.971689664286252 ] } },
{ "type": "Feature", "properties": { "name": "Maitland Garden Village Community Centre" }, "geometry": { "type": "Point", "coordinates": [ 18.487577596109116, -33.933048257032993 ] } },
{ "type": "Feature", "properties": { "name": "Range Road Community Hall" }, "geometry": { "type": "Point", "coordinates": [ 18.503075395171134, -33.990997680383913 ] } },
{ "type": "Feature", "properties": { "name": "Richwood Recreation Centre" }, "geometry": { "type": "Point", "coordinates": [ 18.543605558108894, -33.832137009427314 ] } },
{ "type": "Feature", "properties": { "name": "Rooikrans Community Hall" }, "geometry": { "type": "Point", "coordinates": [ 18.493795359908329, -34.059055927344851 ] } },
{ "type": "Feature", "properties": { "name": "Saxonsea Community Hall" }, "geometry": { "type": "Point", "coordinates": [ 18.487372481085362, -33.549877535714991 ] } },
{ "type": "Feature", "properties": { "name": "Hillcrest Community Hall" }, "geometry": { "type": "Point", "coordinates": [ 18.703182900525864, -34.008768080543298 ] } },
{ "type": "Feature", "properties": { "name": "Seawinds Community Centre" }, "geometry": { "type": "Point", "coordinates": [ 18.487705280846988, -34.075678357206854 ] } },
{ "type": "Feature", "properties": { "name": "Sharedon Park Community Hall" }, "geometry": { "type": "Point", "coordinates": [ 18.465786511881969, -34.077939658545937 ] } },
{ "type": "Feature", "properties": { "name": "Wynberg Civic Centre" }, "geometry": { "type": "Point", "coordinates": [ 18.470532709481628, -34.004622761863637 ] } },
{ "type": "Feature", "properties": { "name": "Tambo Square Community Centre" }, "geometry": { "type": "Point", "coordinates": [ 18.558410180266769, -33.974234296872943 ] } },
{ "type": "Feature", "properties": { "name": "Millers Camp Community Hall" }, "geometry": { "type": "Point", "coordinates": [ 18.589535859833831, -33.986554198032586 ] } },
{ "type": "Feature", "properties": { "name": "Beacon Valley Community Centre" }, "geometry": { "type": "Point", "coordinates": [ 18.627178900330478, -34.039742567943279 ] } },
{ "type": "Feature", "properties": { "name": "Rocklands Civic Centre" }, "geometry": { "type": "Point", "coordinates": [ 18.611034793964279, -34.065009060643639 ] } },
{ "type": "Feature", "properties": { "name": "Westridge Civic Centre" }, "geometry": { "type": "Point", "coordinates": [ 18.603436402218382, -34.051619103266219 ] } },
{ "type": "Feature", "properties": { "name": "Dagbreek Community Hall" }, "geometry": { "type": "Point", "coordinates": [ 18.59294144583944, -34.043817088990359 ] } },
{ "type": "Feature", "properties": { "name": "Desmond Tutu Recreation Centre" }, "geometry": { "type": "Point", "coordinates": [ 18.704527330858173, -34.046944569317276 ] } },
{ "type": "Feature", "properties": { "name": "Heinz Park Community Hall" }, "geometry": { "type": "Point", "coordinates": [ 18.595776268364709, -34.014537510588667 ] } },
{ "type": "Feature", "properties": { "name": "Lobelia Community Hall" }, "geometry": { "type": "Point", "coordinates": [ 18.617023928438812, -34.031605443322505 ] } },
{ "type": "Feature", "properties": { "name": "Portlands Community Hall" }, "geometry": { "type": "Point", "coordinates": [ 18.611446141516037, -34.042659168931891 ] } },
{ "type": "Feature", "properties": { "name": "The Farm Recreation Centre" }, "geometry": { "type": "Point", "coordinates": [ 18.630150264083969, -34.027597192851402 ] } },
{ "type": "Feature", "properties": { "name": "Woodlands Community Centre" }, "geometry": { "type": "Point", "coordinates": [ 18.599911404060336, -34.038055904528839 ] } },
{ "type": "Feature", "properties": { "name": "Site B Community Hall" }, "geometry": { "type": "Point", "coordinates": [ 18.665801063164345, -34.026432217562423 ] } },
{ "type": "Feature", "properties": { "name": "Site C Old Community Hall" }, "geometry": { "type": "Point", "coordinates": [ 18.640832128432489, -34.013035984519085 ] } },
{ "type": "Feature", "properties": { "name": "Site C New Community Hall" }, "geometry": { "type": "Point", "coordinates": [ 18.649872128461503, -34.014291532159731 ] } },
{ "type": "Feature", "properties": { "name": "Solomon Mahlangu Recreation Centre" }, "geometry": { "type": "Point", "coordinates": [ 18.694745328692676, -34.053211701808571 ] } },
{ "type": "Feature", "properties": { "name": "Happy Valley Community Hall" }, "geometry": { "type": "Point", "coordinates": [ 18.684395196008929, -33.973309406193579 ] } },
{ "type": "Feature", "properties": { "name": "Mandela Peace Park Recreation Centre" }, "geometry": { "type": "Point", "coordinates": [ 18.636593875125378, -33.958870228896728 ] } },
{ "type": "Feature", "properties": { "name": "Mandalay Community Hall" }, "geometry": { "type": "Point", "coordinates": [ 18.629294099549622, -34.015787625025467 ] } },
{ "type": "Feature", "properties": { "name": "Northwood Community Hall" }, "geometry": { "type": "Point", "coordinates": [ 18.599242829316868, -34.023776839039812 ] } },
{ "type": "Feature", "properties": { "name": "Crossroads Community Hall" }, "geometry": { "type": "Point", "coordinates": [ 18.596903186024026, -33.997901214492046 ] } },
{ "type": "Feature", "properties": { "name": "Tafelsig Community Hall" }, "geometry": { "type": "Point", "coordinates": [ 18.628701243801466, -34.065467162464401 ] } },
{ "type": "Feature", "properties": { "name": "Weltevreden Valley Community Centre" }, "geometry": { "type": "Point", "coordinates": [ 18.579425007799014, -34.018274630088108 ] } },
{ "type": "Feature", "properties": { "name": "Tafelsig Community Centre" }, "geometry": { "type": "Point", "coordinates": [ 18.637248969749702, -34.056290921996258 ] } },
{ "type": "Feature", "properties": { "name": "Northpine Community Hall" }, "geometry": { "type": "Point", "coordinates": [ 18.710663999245082, -33.870986550781801 ] } },
{ "type": "Feature", "properties": { "name": "Andile Msizi Recreation Centre" }, "geometry": { "type": "Point", "coordinates": [ 18.655518752386229, -34.021611741616091 ] } },
{ "type": "Feature", "properties": { "name": "Bellville South Community Centre" }, "geometry": { "type": "Point", "coordinates": [ 18.643149652508136, -33.91537558079056 ] } },
{ "type": "Feature", "properties": { "name": "Belhar Community Hall" }, "geometry": { "type": "Point", "coordinates": [ 18.64070628434267, -33.946021514591081 ] } },
{ "type": "Feature", "properties": { "name": "Hout Bay Recreation Centre" }, "geometry": { "type": "Point", "coordinates": [ 18.341923956441391, -34.05387793942694 ] } },
{ "type": "Feature", "properties": { "name": "Charles Morkel Community Hall" }, "geometry": { "type": "Point", "coordinates": [ 18.837936470570977, -34.104719073119085 ] } },
{ "type": "Feature", "properties": { "name": "Ravensmead Recreation Centre" }, "geometry": { "type": "Point", "coordinates": [ 18.597587709457027, -33.924886846086977 ] } },
{ "type": "Feature", "properties": { "name": "Reygersdal Community Hall" }, "geometry": { "type": "Point", "coordinates": [ 18.49122415878297, -33.919444695247549 ] } },
{ "type": "Feature", "properties": { "name": "Rylands Community Hall" }, "geometry": { "type": "Point", "coordinates": [ 18.533966581211367, -33.970913982118709 ] } },
{ "type": "Feature", "properties": { "name": "Hanover Park Community Centre" }, "geometry": { "type": "Point", "coordinates": [ 18.527509234030937, -33.9963785213682 ] } },
{ "type": "Feature", "properties": { "name": "Khayelitsha Resource Community Centre" }, "geometry": { "type": "Point", "coordinates": [ 18.659892889354783, -34.042291036757099 ] } },
{ "type": "Feature", "properties": { "name": "Mfuleni Training Centre" }, "geometry": { "type": "Point", "coordinates": [ 18.670342382895484, -33.989853765590126 ] } },
{ "type": "Feature", "properties": { "name": "Mfuleni Community Hall" }, "geometry": { "type": "Point", "coordinates": [ 18.68174084412594, -34.007210050116399 ] } },
{ "type": "Feature", "properties": { "name": "Milnerton Community Centre" }, "geometry": { "type": "Point", "coordinates": [ 18.493495103414485, -33.885167032763796 ] } },
{ "type": "Feature", "properties": { "name": "Observatory Recreation Centre" }, "geometry": { "type": "Point", "coordinates": [ 18.468589693047974, -33.937148972729638 ] } },
{ "type": "Feature", "properties": { "name": "Weltevreden Recreation Centre" }, "geometry": { "type": "Point", "coordinates": [ 18.593994973834985, -34.060180451855885 ] } },
{ "type": "Feature", "properties": { "name": "Silvertown Community Centre" }, "geometry": { "type": "Point", "coordinates": [ 18.532312153054288, -33.964950878431679 ] } },
{ "type": "Feature", "properties": { "name": "FSD Community Hall" }, "geometry": { "type": "Point", "coordinates": [ 18.568178731059167, -33.944237529384992 ] } },
{ "type": "Feature", "properties": { "name": "Bothasig Community Hall" }, "geometry": { "type": "Point", "coordinates": [ 18.532462028874626, -33.871663010085051 ] } },
{ "type": "Feature", "properties": { "name": "Town 2 Community Hall" }, "geometry": { "type": "Point", "coordinates": [ 18.680893329469448, -34.041202700973422 ] } },
{ "type": "Feature", "properties": { "name": "Vangate Community Hall" }, "geometry": { "type": "Point", "coordinates": [ 18.537645541625974, -33.964625347105624 ] } },
{ "type": "Feature", "properties": { "name": "Vanguard Community Hall" }, "geometry": { "type": "Point", "coordinates": [ 18.542472123172203, -33.966565666840019 ] } },
{ "type": "Feature", "properties": { "name": "O.R. Tambo Indoor Sports Centre" }, "geometry": { "type": "Point", "coordinates": [ 18.660565132817862, -34.01498445315989 ] } },
{ "type": "Feature", "properties": { "name": "Belhar Indoor Sports Centre" }, "geometry": { "type": "Point", "coordinates": [ 18.633841474824095, -33.937902540233161 ] } },
{ "type": "Feature", "properties": { "name": "Gugulethu Indoor Sports Centre" }, "geometry": { "type": "Point", "coordinates": [ 18.56682098140616, -33.98072664240452 ] } },
{ "type": "Feature", "properties": { "name": "Portlands Indoor Sports Centre" }, "geometry": { "type": "Point", "coordinates": [ 18.61536545426971, -34.050923851092797 ] } },
{ "type": "Feature", "properties": { "name": "Swartklip Indoor Sports Centre" }, "geometry": { "type": "Point", "coordinates": [ 18.641815291391822, -34.051644856241921 ] } },
{ "type": "Feature", "properties": { "name": "Strandfontein Community Hall" }, "geometry": { "type": "Point", "coordinates": [ 18.554064871133967, -34.074571676103815 ] } },
{ "type": "Feature", "properties": { "name": "Athlone Community Centre" }, "geometry": { "type": "Point", "coordinates": [ 18.508838500943792, -33.960534691200507 ] } },
{ "type": "Feature", "properties": { "name": "Proteaville Recreation Centre" }, "geometry": { "type": "Point", "coordinates": [ 18.6512023878702, -33.91968353622616 ] } },
{ "type": "Feature", "properties": { "name": "Colorado Community Hall" }, "geometry": { "type": "Point", "coordinates": [ 18.587750892991238, -34.02684606248264 ] } },
{ "type": "Feature", "properties": { "name": "Lentegeur Civic Centre" }, "geometry": { "type": "Point", "coordinates": [ 18.609384791806598, -34.034364712321391 ] } },
{ "type": "Feature", "properties": { "name": "Simons Town Civic Centre" }, "geometry": { "type": "Point", "coordinates": [ 18.434749982920319, -34.193257194078598 ] } },
{ "type": "Feature", "properties": { "name": "Kraaifontein Civic Centre" }, "geometry": { "type": "Point", "coordinates": [ 18.706541671728768, -33.841782693759818 ] } },
{ "type": "Feature", "properties": { "name": "The Belhar Youth Centre" }, "geometry": { "type": "Point", "coordinates": [ 18.648030236277677, -33.94700405643399 ] } },
{ "type": "Feature", "properties": { "name": "Kalkfontein Community Hall" }, "geometry": { "type": "Point", "coordinates": [ 18.664924831164871, -33.945515427534836 ] } },
{ "type": "Feature", "properties": { "name": "Gugulethu Stadium Recreation Centre" }, "geometry": { "type": "Point", "coordinates": [ 18.567500805751912, -33.988903501498804 ] } },
{ "type": "Feature", "properties": { "name": "Kuils River Human Resource Centre" }, "geometry": { "type": "Point", "coordinates": [ 18.666245314208325, -33.929220354445121 ] } },
{ "type": "Feature", "properties": { "name": "Maitland Community Hall" }, "geometry": { "type": "Point", "coordinates": [ 18.486980286513784, -33.923575489360509 ] } },
{ "type": "Feature", "properties": { "name": "San Circus Hall" }, "geometry": { "type": "Point", "coordinates": [ 18.476274332942598, -33.941397146809905 ] } },
{ "type": "Feature", "properties": { "name": "Scottsdene Recreation Centre" }, "geometry": { "type": "Point", "coordinates": [ 18.7214931513676, -33.867069743739918 ] } },
{ "type": "Feature", "properties": { "name": "Thornton Hall" }, "geometry": { "type": "Point", "coordinates": [ 18.538453726242683, -33.921675426259213 ] } },
{ "type": "Feature", "properties": { "name": "Wolwerivier Community Centre" }, "geometry": { "type": "Point", "coordinates": [ 18.513846063375386, -33.731114759221015 ] } },
{ "type": "Feature", "properties": { "name": "Dunoon Community Hall" }, "geometry": { "type": "Point", "coordinates": [ 18.543207832610118, -33.813581332481981 ] } },
{ "type": "Feature", "properties": { "name": "Goodwood Civic Centre Hall" }, "geometry": { "type": "Point", "coordinates": [ 18.55027772301646, -33.910088429190296 ] } },
{ "type": "Feature", "properties": { "name": "Huguenot Square Community Hall" }, "geometry": { "type": "Point", "coordinates": [ 18.648217230485546, -33.947008391270622 ] } },
{ "type": "Feature", "properties": { "name": "Philippi East Community Hall" }, "geometry": { "type": "Point", "coordinates": [ 18.613620167809838, -34.011265039295424 ] } },
{ "type": "Feature", "properties": { "name": "Pinelands Civic Centre" }, "geometry": { "type": "Point", "coordinates": [ 18.498868545169721, -33.940405723086279 ] } },
{ "type": "Feature", "properties": { "name": "Schotshekloof Community Hall" }, "geometry": { "type": "Point", "coordinates": [ 18.413308906582397, -33.919788080472259 ] } },
{ "type": "Feature", "properties": { "name": "Morningstar Community Hall" }, "geometry": { "type": "Point", "coordinates": [ 18.656391634568021, -33.827457651174498 ] } },
{ "type": "Feature", "properties": { "name": "Wesbank Multi-purpose Centre" }, "geometry": { "type": "Point", "coordinates": [ 18.658948314426798, -33.969359147925935 ] } },
{ "type": "Feature", "properties": { "name": "Philippi West Community Hall" }, "geometry": { "type": "Point", "coordinates": [ 18.574798398421553, -34.011076304540339 ] } },
{ "type": "Feature", "properties": { "name": "Masibambane Community Hall (LEASED)" }, "geometry": { "type": "Point", "coordinates": [ 18.671122943418915, -34.058886237809077 ] } },
{ "type": "Feature", "properties": { "name": "Khayelitsha CBD Multi-purpose Centre" }, "geometry": { "type": "Point", "coordinates": [ 18.674320867676933, -34.047783881995322 ] } },
{ "type": "Feature", "properties": { "name": "Ottery Sport & Recreation Centre" }, "geometry": { "type": "Point", "coordinates": [ 18.51687351793521, -34.028231573250629 ] } },
{ "type": "Feature", "properties": { "name": "Bonteheuwel Multi-purpose Centre\r\n" }, "geometry": { "type": "Point", "coordinates": [ 18.55072729298525, -33.946777569295406 ] } },
{ "type": "Feature", "properties": { "name": "Bardale Multi-purpose Centre" }, "geometry": { "type": "Point", "coordinates": [ 18.680443107323793, -33.99624635011277 ] } },
{ "type": "Feature", "properties": { "name": "Eerste River Multi-purpose Centre" }, "geometry": { "type": "Point", "coordinates": [ 18.724823145938721, -34.007956621146157 ] } },
{ "type": "Feature", "properties": { "name": "Eyethu Multi-purpose Centre" }, "geometry": { "type": "Point", "coordinates": [ 18.669940128091042, -34.035028709146786 ] } },
{ "type": "Feature", "properties": { "name": "Sherwood Park Multi-purpose Centre" }, "geometry": { "type": "Point", "coordinates": [ 18.557390498994497, -33.998442833985138 ] } },
{ "type": "Feature", "properties": { "name": "Fisantekraal Multi-purpose Centre" }, "geometry": { "type": "Point", "coordinates": [ 18.717709331508203, -33.782559549093222 ] } },
{ "type": "Feature", "properties": { "name": "Bruce Road Recreational Centre" }, "geometry": { "type": "Point", "coordinates": [ 18.517013305674872, -34.028072115358256 ] } },
{ "type": "Feature", "properties": { "name": "Philippi East Indoor Sports Centre" }, "geometry": { "type": "Point", "coordinates": [ 18.601137167841937, -34.008361429547868 ] } },
{ "type": "Feature", "properties": { "name": "Mamre Community Centre / Paradise Lane Community Centre / Mamre Recreation Centre" }, "geometry": { "type": "Point", "coordinates": [ 18.465910418305747, -33.514219085171256 ] } },
{ "type": "Feature", "properties": { "name": "Durbanville Civic Centre (Durbanville Town Hall)" }, "geometry": { "type": "Point", "coordinates": [ 18.648227718316459, -33.833329542930265 ] } },
{ "type": "Feature", "properties": { "name": "Sherwood Park Community Hall (Ext 12 Hall)" }, "geometry": { "type": "Point", "coordinates": [ 18.500454158782777, -33.552803410029234 ] } },
{ "type": "Feature", "properties": { "name": "Stephen Reagan Community Hall" }, "geometry": { "type": "Point", "coordinates": [ 18.597689766158137, -34.047338058203749 ] } },
{ "type": "Feature", "properties": { "name": "Atlantis Multi-purpose Centre\r\n" }, "geometry": { "type": "Point", "coordinates": [ 18.495911575122022, -33.584597836532232 ] } },
{ "type": "Feature", "properties": { "name": "Langa Indoor Sport Centre" }, "geometry": { "type": "Point", "coordinates": [ 18.522514269572905, -33.948553355616824 ] } },
{ "type": "Feature", "properties": { "name": "Crossroads Multi-purpose Centre" }, "geometry": { "type": "Point", "coordinates": [ 18.598069844253168, -33.994044244384853 ] } },
{ "type": "Feature", "properties": { "name": "Elsies River Civic Centre" }, "geometry": { "type": "Point", "coordinates": [ 18.574006084340965, -33.928914915500783 ] } },
{ "type": "Feature", "properties": { "name": "Bosasa Community Centre" }, "geometry": { "type": "Point", "coordinates": [ 18.690296394400296, -34.013325544009099 ] } },
{ "type": "Feature", "properties": { "name": "Imizamo Yethu Community Hall (Yellow Hall)" }, "geometry": { "type": "Point", "coordinates": [ 18.355561265498242, -34.030283998818241 ] } },
{ "type": "Feature", "properties": { "name": "Kuils River Resort Hall" }, "geometry": { "type": "Point", "coordinates": [ 18.690339489279452, -33.942093769868002 ] } },
{ "type": "Feature", "properties": { "name": "Pinelands Community Hall" }, "geometry": { "type": "Point", "coordinates": [ 18.4988577402335, -33.940717469656875 ] } }
]
}
