{
"type": "FeatureCollection",
"name": "ct_metro",
"crs": { "type": "name", "properties": { "name": "urn:ogc:def:crs:OGC:1.3:CRS84" } },
"features": [
{ "type": "Feature", "properties": { }, "geometry": { "type": "MultiPolygon", "coordinates": [ [ [ [ 18.4381471, -34.3382486 ], [ 18.4389972, -34.3380778 ], [ 18.4397608, -34.3379032 ], [ 18.4392667, -34.338324 ], [ 18.4381471, -34.3382486 ] ] ], [ [ [ 18.5823188, -34.138586 ], [ 18.5823373, -34.1355824 ], [ 18.5830513, -34.1386808 ], [ 18.5823188, -34.138586 ] ] ], [ [ [ 18.327169, -34.058617 ], [ 18.3266868, -34.0577022 ], [ 18.3271537, -34.0579166 ], [ 18.327169, -34.058617 ] ] ], [ [ [ 18.30754, -34.03886 ], [ 18.31745, -34.03017 ], [ 18.31076, -34.0277 ], [ 18.3304766, -34.0241106 ], [ 18.33462, -34.01093 ], [ 18.34294, -34.00414 ], [ 18.3441674, -33.9910554 ], [ 18.3708347, -33.9740982 ], [ 18.3723128, -33.9595977 ], [ 18.3771708, -33.9584289 ], [ 18.3775782, -33.9464794 ], [ 18.37158, -33.94205 ], [ 18.3766757, -33.9387428 ], [ 18.3773023, -33.9220984 ], [ 18.3977932, -33.9062793 ], [ 18.3984253, -33.9006077 ], [ 18.4191579, -33.9021335 ], [ 18.43451, -33.8976 ], [ 18.4542817, -33.9121826 ], [ 18.4662711, -33.9119814 ], [ 18.4794178, -33.8974086 ], [ 18.4879441, -33.8778706 ], [ 18.48589, -33.84277 ], [ 18.4746788, -33.8199036 ], [ 18.4573477, -33.800001 ], [ 18.4355, -33.73601 ], [ 18.44425, -33.71917 ], [ 18.43796, -33.69256 ], [ 18.4318721, -33.6796797 ], [ 18.4213657, -33.6771723 ], [ 18.42818, -33.67395 ], [ 18.42685, -33.66997 ], [ 18.39556, -33.62336 ], [ 18.37721, -33.61851 ], [ 18.3700927, -33.6019665 ], [ 18.35669, -33.5986 ], [ 18.36162, -33.59455 ], [ 18.3607678, -33.5882908 ], [ 18.3430519, -33.5708932 ], [ 18.34132, -33.55859 ], [ 18.36039, -33.54888 ], [ 18.35936, -33.54227 ], [ 18.36915, -33.52529 ], [ 18.38369, -33.51167 ], [ 18.426163, -33.511183 ], [ 18.439898, -33.497908 ], [ 18.455458, -33.471276 ], [ 18.49575, -33.48113 ], [ 18.50943, -33.48955 ], [ 18.52451, -33.50364 ], [ 18.52416, -33.52523 ], [ 18.56403, -33.5235 ], [ 18.57642, -33.53148 ], [ 18.57996, -33.55772 ], [ 18.56859, -33.56209 ], [ 18.57437, -33.5735 ], [ 18.6059, -33.58552 ], [ 18.61799, -33.58436 ], [ 18.627, -33.62459 ], [ 18.64496, -33.63574 ], [ 18.65537, -33.63406 ], [ 18.67085, -33.64742 ], [ 18.68974, -33.66523 ], [ 18.69267, -33.68127 ], [ 18.7069, -33.68134 ], [ 18.71187, -33.67587 ], [ 18.73673, -33.68703 ], [ 18.752, -33.67683 ], [ 18.75415, -33.6649 ], [ 18.7598, -33.665575 ], [ 18.76322, -33.64892 ], [ 18.7780329, -33.64911 ], [ 18.78746, -33.63762 ], [ 18.8219, -33.64179 ], [ 18.80215, -33.673725 ], [ 18.79371, -33.67943 ], [ 18.79459, -33.70683 ], [ 18.80251, -33.70514 ], [ 18.81019, -33.71368 ], [ 18.813215, -33.70645 ], [ 18.82199, -33.7083 ], [ 18.8182, -33.72231 ], [ 18.833, -33.73817 ], [ 18.80946, -33.74078 ], [ 18.81099, -33.75879 ], [ 18.787651, -33.766683 ], [ 18.80977, -33.78133 ], [ 18.79624, -33.79816 ], [ 18.7844275, -33.8037866 ], [ 18.79257, -33.81921 ], [ 18.76777, -33.82622 ], [ 18.76839, -33.83269 ], [ 18.75287, -33.83442 ], [ 18.753115, -33.849985 ], [ 18.745795, -33.86028 ], [ 18.74572, -33.87395 ], [ 18.75291, -33.884522 ], [ 18.751381, -33.893539 ], [ 18.745911, -33.88731 ], [ 18.717251, -33.898472 ], [ 18.719311, -33.903462 ], [ 18.7153, -33.903621 ], [ 18.70833, -33.922691 ], [ 18.743959, -33.932209 ], [ 18.736919, -33.940552 ], [ 18.73081, -33.96277 ], [ 18.7335, -33.96592 ], [ 18.7282672, -33.9693029 ], [ 18.74542, -33.98736 ], [ 18.73773, -33.9893 ], [ 18.75177, -34.00532 ], [ 18.74195, -34.0135 ], [ 18.74443, -34.02482 ], [ 18.76767, -34.04043 ], [ 18.76625, -34.04371 ], [ 18.789733, -34.053682 ], [ 18.80604, -34.05401 ], [ 18.80922, -34.06339 ], [ 18.8147936, -34.0520337 ], [ 18.8049633, -34.0512709 ], [ 18.8190261, -34.0397741 ], [ 18.84184, -34.04711 ], [ 18.86191, -34.03827 ], [ 18.86196, -34.03366 ], [ 18.85526, -34.03093 ], [ 18.8852, -34.03407 ], [ 18.89257, -34.02553 ], [ 18.9226, -34.01398 ], [ 18.91788, -34.00883 ], [ 18.9274, -33.99994 ], [ 18.9539, -34.00926 ], [ 18.9872837, -34.0353164 ], [ 19.0053382, -34.0742751 ], [ 18.9668366, -34.102374 ], [ 18.9439, -34.13824 ], [ 18.965205, -34.14 ], [ 18.96382, -34.15294 ], [ 18.98027, -34.15499 ], [ 18.96248, -34.17772 ], [ 18.95426, -34.17363 ], [ 18.95443, -34.18381 ], [ 18.9310049, -34.1958613 ], [ 18.92822, -34.20673 ], [ 18.90837, -34.21704 ], [ 18.89944, -34.21686 ], [ 18.90045, -34.22747 ], [ 18.89293, -34.23428 ], [ 18.87534, -34.2294 ], [ 18.88023, -34.24818 ], [ 18.86543, -34.26411 ], [ 18.85018, -34.27033 ], [ 18.8456663, -34.2695595 ], [ 18.85589, -34.2528 ], [ 18.85306, -34.23874 ], [ 18.83026, -34.21714 ], [ 18.83374, -34.2117 ], [ 18.81835, -34.19 ], [ 18.83085, -34.17616 ], [ 18.8680774, -34.15887 ], [ 18.8552231, -34.1519632 ], [ 18.8117185, -34.1003404 ], [ 18.7836814, -34.0869599 ], [ 18.71418, -34.07293 ], [ 18.63079, -34.07329 ], [ 18.518427, -34.0944501 ], [ 18.46843, -34.10953 ], [ 18.44754, -34.13236 ], [ 18.4400824, -34.1320118 ], [ 18.4336687, -34.1378629 ], [ 18.439866, -34.1502253 ], [ 18.4313843, -34.1605719 ], [ 18.43322, -34.16602 ], [ 18.4251296, -34.1841515 ], [ 18.42913, -34.19197 ], [ 18.43452, -34.19211 ], [ 18.4377899, -34.18475 ], [ 18.45409, -34.1978599 ], [ 18.4674999, -34.2252399 ], [ 18.47722, -34.23283 ], [ 18.4775699, -34.25469 ], [ 18.4665399, -34.26724 ], [ 18.47493, -34.2786 ], [ 18.4663399, -34.29277 ], [ 18.46069, -34.3105199 ], [ 18.46514, -34.3155699 ], [ 18.4606999, -34.3192 ], [ 18.47177, -34.34037 ], [ 18.4979771, -34.3569419 ], [ 18.4833223, -34.354473 ], [ 18.47236, -34.35833 ], [ 18.4569143, -34.3386474 ], [ 18.42828, -34.33124 ], [ 18.40059, -34.30844 ], [ 18.40488, -34.30341 ], [ 18.39681, -34.28843 ], [ 18.38881, -34.2766 ], [ 18.37946, -34.27298 ], [ 18.38276, -34.25628 ], [ 18.3759467, -34.2422989 ], [ 18.3776096, -34.2281603 ], [ 18.37042, -34.21036 ], [ 18.37044, -34.19594 ], [ 18.353439, -34.1776166 ], [ 18.33796, -34.17685 ], [ 18.31883, -34.14839 ], [ 18.3225826, -34.1381689 ], [ 18.3451308, -34.1266276 ], [ 18.3507755, -34.1179024 ], [ 18.3533477, -34.1030411 ], [ 18.34972, -34.09076 ], [ 18.35522, -34.08716 ], [ 18.35523, -34.07676 ], [ 18.36395, -34.07269 ], [ 18.36879, -34.06285 ], [ 18.3618721, -34.0492474 ], [ 18.3488376, -34.0471731 ], [ 18.3482, -34.05555 ], [ 18.34028, -34.06159 ], [ 18.32885, -34.05825 ], [ 18.321518, -34.0470424 ], [ 18.30754, -34.03886 ] ] ], [ [ [ 18.3573576, -33.799011 ], [ 18.3631374, -33.7901601 ], [ 18.3732367, -33.7916642 ], [ 18.3795623, -33.7982738 ], [ 18.3760953, -33.8023162 ], [ 18.3820235, -33.8089213 ], [ 18.3816497, -33.8176678 ], [ 18.3705887, -33.8209304 ], [ 18.3623377, -33.8167635 ], [ 18.3573576, -33.799011 ] ] ] ] } }
]
}
