{
"type": "FeatureCollection",
"name": "fuel",
"crs": { "type": "name", "properties": { "name": "urn:ogc:def:crs:OGC:1.3:CRS84" } },
"features": [
{ "type": "Feature", "properties": { "element": "node", "id": 25395546, "name": "Astron Energy", "brand": "Astron Energy", "operator": null }, "geometry": { "type": "Point", "coordinates": [ 18.5101063, -33.9327338 ] } },
{ "type": "Feature", "properties": { "element": "node", "id": 43149367, "name": "Shell", "brand": "Shell", "operator": null }, "geometry": { "type": "Point", "coordinates": [ 18.4315205, -34.1377221 ] } },
{ "type": "Feature", "properties": { "element": "node", "id": 43149599, "name": "BP", "brand": "BP", "operator": "BP" }, "geometry": { "type": "Point", "coordinates": [ 18.4317372, -34.136091 ] } },
{ "type": "Feature", "properties": { "element": "node", "id": 43149751, "name": "Astron Energy", "brand": "Astron Energy", "operator": null }, "geometry": { "type": "Point", "coordinates": [ 18.4328101, -34.1352172 ] } },
{ "type": "Feature", "properties": { "element": "node", "id": 43150211, "name": "Engen", "brand": "Engen", "operator": null }, "geometry": { "type": "Point", "coordinates": [ 18.4311536, -34.1385206 ] } },
{ "type": "Feature", "properties": { "element": "node", "id": 43152437, "name": "Shell", "brand": "Shell", "operator": null }, "geometry": { "type": "Point", "coordinates": [ 18.3908123, -34.1224855 ] } },
{ "type": "Feature", "properties": { "element": "node", "id": 49988453, "name": "Astron Energy", "brand": "Astron Energy", "operator": null }, "geometry": { "type": "Point", "coordinates": [ 18.4230221, -33.9115352 ] } },
{ "type": "Feature", "properties": { "element": "node", "id": 60181158, "name": "BP", "brand": "BP", "operator": null }, "geometry": { "type": "Point", "coordinates": [ 18.6336006, -33.862564 ] } },
{ "type": "Feature", "properties": { "element": "node", "id": 60238658, "name": "Shell", "brand": "Shell", "operator": null }, "geometry": { "type": "Point", "coordinates": [ 18.4166297, -33.9215889 ] } },
{ "type": "Feature", "properties": { "element": "node", "id": 288807138, "name": "Engen", "brand": "Engen", "operator": null }, "geometry": { "type": "Point", "coordinates": [ 18.4452216, -34.0209148 ] } },
{ "type": "Feature", "properties": { "element": "node", "id": 391312474, "name": "TotalEnergies", "brand": "TotalEnergies", "operator": null }, "geometry": { "type": "Point", "coordinates": [ 18.6828689, -33.8590335 ] } },
{ "type": "Feature", "properties": { "element": "node", "id": 462084938, "name": "TotalEnergies", "brand": "TotalEnergies", "operator": null }, "geometry": { "type": "Point", "coordinates": [ 18.4356, -34.0619 ] } },
{ "type": "Feature", "properties": { "element": "node", "id": 567329924, "name": "Engen", "brand": "Engen", "operator": null }, "geometry": { "type": "Point", "coordinates": [ 18.6180752, -33.874083600000013 ] } },
{ "type": "Feature", "properties": { "element": "node", "id": 567544574, "name": "Engen", "brand": "Engen", "operator": null }, "geometry": { "type": "Point", "coordinates": [ 18.6798357, -33.8841968 ] } },
{ "type": "Feature", "properties": { "element": "node", "id": 567544575, "name": "TotalEnergies", "brand": "TotalEnergies", "operator": null }, "geometry": { "type": "Point", "coordinates": [ 18.6784432, -33.8842189 ] } },
{ "type": "Feature", "properties": { "element": "node", "id": 567544738, "name": "Shell", "brand": "Shell", "operator": null }, "geometry": { "type": "Point", "coordinates": [ 18.6118522, -33.9045792 ] } },
{ "type": "Feature", "properties": { "element": "node", "id": 587620417, "name": "Astron Energy", "brand": "Astron Energy", "operator": null }, "geometry": { "type": "Point", "coordinates": [ 18.8142138, -33.8774873 ] } },
{ "type": "Feature", "properties": { "element": "node", "id": 1157948922, "name": "Fuel1", "brand": null, "operator": null }, "geometry": { "type": "Point", "coordinates": [ 18.4135304, -33.9244846 ] } },
{ "type": "Feature", "properties": { "element": "node", "id": 1181070736, "name": null, "brand": null, "operator": "ENGEN" }, "geometry": { "type": "Point", "coordinates": [ 18.502211, -34.0473346 ] } },
{ "type": "Feature", "properties": { "element": "node", "id": 1325590067, "name": null, "brand": null, "operator": null }, "geometry": { "type": "Point", "coordinates": [ 18.6807959, -33.945898 ] } },
{ "type": "Feature", "properties": { "element": "node", "id": 1466912917, "name": "Shell", "brand": "Shell", "operator": null }, "geometry": { "type": "Point", "coordinates": [ 18.483747, -34.02168360000001 ] } },
{ "type": "Feature", "properties": { "element": "node", "id": 1488473563, "name": "Shell", "brand": "Shell", "operator": null }, "geometry": { "type": "Point", "coordinates": [ 18.6859339, -33.8763974 ] } },
{ "type": "Feature", "properties": { "element": "node", "id": 1640360571, "name": "Doncaster Motors", "brand": "Caltex", "operator": null }, "geometry": { "type": "Point", "coordinates": [ 18.4864382, -33.9898042 ] } },
{ "type": "Feature", "properties": { "element": "node", "id": 1874295968, "name": "Sir Lowry Diesel Depot", "brand": "Gulfstream", "operator": null }, "geometry": { "type": "Point", "coordinates": [ 18.8764514, -34.1201979 ] } },
{ "type": "Feature", "properties": { "element": "node", "id": 2348576070, "name": "Shell", "brand": "Shell", "operator": null }, "geometry": { "type": "Point", "coordinates": [ 18.3290754, -34.140896899999987 ] } },
{ "type": "Feature", "properties": { "element": "node", "id": 2696128458, "name": "Astron Energy", "brand": null, "operator": null }, "geometry": { "type": "Point", "coordinates": [ 18.4841734, -33.9769454 ] } },
{ "type": "Feature", "properties": { "element": "node", "id": 2894953198, "name": "Shell", "brand": "Shell", "operator": null }, "geometry": { "type": "Point", "coordinates": [ 18.5774509, -33.8917898 ] } },
{ "type": "Feature", "properties": { "element": "node", "id": 2969405092, "name": "Engen", "brand": "Engen", "operator": null }, "geometry": { "type": "Point", "coordinates": [ 18.4988447, -33.9586408 ] } },
{ "type": "Feature", "properties": { "element": "node", "id": 2969418761, "name": "Shell", "brand": "Shell", "operator": null }, "geometry": { "type": "Point", "coordinates": [ 18.4323462, -33.9218073 ] } },
{ "type": "Feature", "properties": { "element": "node", "id": 2969555458, "name": "Engen", "brand": "Engen", "operator": null }, "geometry": { "type": "Point", "coordinates": [ 18.485157, -33.98701 ] } },
{ "type": "Feature", "properties": { "element": "node", "id": 2970221051, "name": "Vic White Motors", "brand": "BP", "operator": null }, "geometry": { "type": "Point", "coordinates": [ 18.4974507, -33.9866089 ] } },
{ "type": "Feature", "properties": { "element": "node", "id": 2971300643, "name": "Lansdowne Motors", "brand": "Engen", "operator": null }, "geometry": { "type": "Point", "coordinates": [ 18.4930254, -33.9848506 ] } },
{ "type": "Feature", "properties": { "element": "node", "id": 2971322312, "name": "TotalEnergies", "brand": "TotalEnergies", "operator": null }, "geometry": { "type": "Point", "coordinates": [ 18.4840115, -33.9874587 ] } },
{ "type": "Feature", "properties": { "element": "node", "id": 3194856963, "name": null, "brand": null, "operator": null }, "geometry": { "type": "Point", "coordinates": [ 18.6861235, -33.954422699999988 ] } },
{ "type": "Feature", "properties": { "element": "node", "id": 3660117380, "name": "Astron Energy", "brand": "Astron Energy", "operator": null }, "geometry": { "type": "Point", "coordinates": [ 18.6767817, -33.84355140000001 ] } },
{ "type": "Feature", "properties": { "element": "node", "id": 4325641549, "name": "Gas and Diesel Depot", "brand": null, "operator": null }, "geometry": { "type": "Point", "coordinates": [ 18.8374859, -34.1230097 ] } },
{ "type": "Feature", "properties": { "element": "node", "id": 4517138439, "name": "Engen", "brand": "Engen", "operator": null }, "geometry": { "type": "Point", "coordinates": [ 18.643932, -33.846390399999983 ] } },
{ "type": "Feature", "properties": { "element": "node", "id": 5103494122, "name": "BP", "brand": "BP", "operator": null }, "geometry": { "type": "Point", "coordinates": [ 18.7983625, -33.9529636 ] } },
{ "type": "Feature", "properties": { "element": "node", "id": 6222533309, "name": "Caltex", "brand": "Caltex", "operator": "Caltex" }, "geometry": { "type": "Point", "coordinates": [ 18.8416235, -34.1293929 ] } },
{ "type": "Feature", "properties": { "element": "node", "id": 6385244182, "name": "Sasol", "brand": "Sasol", "operator": null }, "geometry": { "type": "Point", "coordinates": [ 18.3829918, -34.132127 ] } },
{ "type": "Feature", "properties": { "element": "node", "id": 6513001105, "name": "Astron Energy", "brand": "Astron Energy", "operator": null }, "geometry": { "type": "Point", "coordinates": [ 18.4915855, -33.9549172 ] } },
{ "type": "Feature", "properties": { "element": "node", "id": 6698807687, "name": "TotalEnergies", "brand": "TotalEnergies", "operator": null }, "geometry": { "type": "Point", "coordinates": [ 18.4701229, -33.91089 ] } },
{ "type": "Feature", "properties": { "element": "node", "id": 6952243291, "name": "Engen", "brand": "Engen", "operator": null }, "geometry": { "type": "Point", "coordinates": [ 18.696251, -33.934203599999989 ] } },
{ "type": "Feature", "properties": { "element": "node", "id": 6967717195, "name": "Puma", "brand": "Puma", "operator": null }, "geometry": { "type": "Point", "coordinates": [ 18.4757841, -34.0043512 ] } },
{ "type": "Feature", "properties": { "element": "node", "id": 8829201730, "name": "Engen", "brand": "Engen", "operator": null }, "geometry": { "type": "Point", "coordinates": [ 18.5289731, -33.7995392 ] } },
{ "type": "Feature", "properties": { "element": "node", "id": 9084478162, "name": "Engen", "brand": "Engen", "operator": null }, "geometry": { "type": "Point", "coordinates": [ 18.418537, -33.937437 ] } },
{ "type": "Feature", "properties": { "element": "node", "id": 9516785501, "name": "Shell", "brand": "Shell", "operator": null }, "geometry": { "type": "Point", "coordinates": [ 18.5375042, -33.9283921 ] } },
{ "type": "Feature", "properties": { "element": "node", "id": 10024572493, "name": "Sasol", "brand": "Sasol", "operator": null }, "geometry": { "type": "Point", "coordinates": [ 18.5045922, -33.9127583 ] } },
{ "type": "Feature", "properties": { "element": "node", "id": 10052667864, "name": "Engen", "brand": "Engen", "operator": null }, "geometry": { "type": "Point", "coordinates": [ 18.6983536, -33.9086347 ] } },
{ "type": "Feature", "properties": { "element": "node", "id": 10307476288, "name": "Engen", "brand": "Engen", "operator": null }, "geometry": { "type": "Point", "coordinates": [ 18.684357, -33.909139 ] } },
{ "type": "Feature", "properties": { "element": "node", "id": 10706832104, "name": null, "brand": null, "operator": null }, "geometry": { "type": "Point", "coordinates": [ 18.6729176, -33.8334281 ] } },
{ "type": "Feature", "properties": { "element": "node", "id": 11010108686, "name": "Sunningdale TotalEnergies", "brand": "TotalEnergies", "operator": null }, "geometry": { "type": "Point", "coordinates": [ 18.4813295, -33.7873606 ] } },
{ "type": "Feature", "properties": { "element": "node", "id": 11066482632, "name": "Shell", "brand": "Shell", "operator": null }, "geometry": { "type": "Point", "coordinates": [ 18.7566533, -34.0491964 ] } },
{ "type": "Feature", "properties": { "element": "node", "id": 11278867682, "name": "Astron Energy", "brand": "Astron Energy", "operator": null }, "geometry": { "type": "Point", "coordinates": [ 18.5245186, -34.0273237 ] } },
{ "type": "Feature", "properties": { "element": "node", "id": 11278879062, "name": "Astron Energy", "brand": "Astron Energy", "operator": null }, "geometry": { "type": "Point", "coordinates": [ 18.8549785, -33.923010899999987 ] } },
{ "type": "Feature", "properties": { "element": "node", "id": 11933326888, "name": "BP", "brand": "BP", "operator": null }, "geometry": { "type": "Point", "coordinates": [ 18.3805823, -33.9223413 ] } },
{ "type": "Feature", "properties": { "element": "node", "id": 12193963342, "name": "Astron Energy", "brand": "Astron Energy", "operator": null }, "geometry": { "type": "Point", "coordinates": [ 18.6952968, -33.8169539 ] } },
{ "type": "Feature", "properties": { "element": "node", "id": 12193963360, "name": "Astron Energy", "brand": "Astron Energy", "operator": null }, "geometry": { "type": "Point", "coordinates": [ 18.5554774, -33.8970271 ] } },
{ "type": "Feature", "properties": { "element": "node", "id": 12193963361, "name": "Astron Energy", "brand": "Astron Energy", "operator": null }, "geometry": { "type": "Point", "coordinates": [ 18.7026835, -33.8692585 ] } },
{ "type": "Feature", "properties": { "element": "node", "id": 12193963362, "name": "Astron Energy", "brand": "Astron Energy", "operator": null }, "geometry": { "type": "Point", "coordinates": [ 18.5859942, -34.0696924 ] } },
{ "type": "Feature", "properties": { "element": "node", "id": 12193963365, "name": "Astron Energy", "brand": "Astron Energy", "operator": null }, "geometry": { "type": "Point", "coordinates": [ 18.4782804, -34.0754055 ] } },
{ "type": "Feature", "properties": { "element": "node", "id": 12193963382, "name": "Astron Energy", "brand": "Astron Energy", "operator": null }, "geometry": { "type": "Point", "coordinates": [ 18.5107161, -33.960035 ] } },
{ "type": "Feature", "properties": { "element": "node", "id": 12193963386, "name": "Astron Energy", "brand": "Astron Energy", "operator": "Astron Energy" }, "geometry": { "type": "Point", "coordinates": [ 18.8157258, -34.101804499999986 ] } },
{ "type": "Feature", "properties": { "element": "node", "id": 12193963387, "name": "Astron Energy", "brand": "Astron Energy", "operator": null }, "geometry": { "type": "Point", "coordinates": [ 18.4540705, -34.0482 ] } },
{ "type": "Feature", "properties": { "element": "node", "id": 12193963395, "name": "Astron Energy", "brand": "Astron Energy", "operator": null }, "geometry": { "type": "Point", "coordinates": [ 18.621583, -33.90452 ] } },
{ "type": "Feature", "properties": { "element": "node", "id": 12193963399, "name": "Astron Energy", "brand": "Astron Energy", "operator": null }, "geometry": { "type": "Point", "coordinates": [ 18.647547, -33.832023 ] } },
{ "type": "Feature", "properties": { "element": "node", "id": 12193963400, "name": "Astron Energy", "brand": "Astron Energy", "operator": null }, "geometry": { "type": "Point", "coordinates": [ 18.486561, -33.9896562 ] } },
{ "type": "Feature", "properties": { "element": "node", "id": 12193969104, "name": "Astron Energy", "brand": "Astron Energy", "operator": null }, "geometry": { "type": "Point", "coordinates": [ 18.6708625, -33.9163856 ] } },
{ "type": "Feature", "properties": { "element": "node", "id": 12193969105, "name": "Astron Energy", "brand": "Astron Energy", "operator": null }, "geometry": { "type": "Point", "coordinates": [ 18.6510586, -34.0157756 ] } },
{ "type": "Feature", "properties": { "element": "node", "id": 12193969107, "name": "Astron Energy", "brand": "Astron Energy", "operator": null }, "geometry": { "type": "Point", "coordinates": [ 18.4420563, -33.7306093 ] } },
{ "type": "Feature", "properties": { "element": "node", "id": 12193969111, "name": "Astron Energy", "brand": "Astron Energy", "operator": null }, "geometry": { "type": "Point", "coordinates": [ 18.4649035, -34.0372162 ] } },
{ "type": "Feature", "properties": { "element": "node", "id": 12193969114, "name": "Astron Energy", "brand": "Astron Energy", "operator": null }, "geometry": { "type": "Point", "coordinates": [ 18.5449704, -33.9127285 ] } },
{ "type": "Feature", "properties": { "element": "node", "id": 12193969121, "name": "Astron Energy", "brand": "Astron Energy", "operator": null }, "geometry": { "type": "Point", "coordinates": [ 18.5054364, -34.0001889 ] } },
{ "type": "Feature", "properties": { "element": "node", "id": 12193969125, "name": "Astron Energy", "brand": "Astron Energy", "operator": null }, "geometry": { "type": "Point", "coordinates": [ 18.3927371, -33.9120277 ] } },
{ "type": "Feature", "properties": { "element": "node", "id": 12193969131, "name": "Astron Energy", "brand": "Astron Energy", "operator": null }, "geometry": { "type": "Point", "coordinates": [ 18.8348774, -34.1106031 ] } },
{ "type": "Feature", "properties": { "element": "node", "id": 12193969133, "name": "Astron Energy", "brand": "Astron Energy", "operator": null }, "geometry": { "type": "Point", "coordinates": [ 18.600873, -33.921356 ] } },
{ "type": "Feature", "properties": { "element": "node", "id": 12193969143, "name": "Astron Energy", "brand": "Astron Energy", "operator": null }, "geometry": { "type": "Point", "coordinates": [ 18.5160993, -33.984979 ] } },
{ "type": "Feature", "properties": { "element": "node", "id": 12193969148, "name": "Astron Energy", "brand": "Astron Energy", "operator": null }, "geometry": { "type": "Point", "coordinates": [ 18.4817583, -33.9147156 ] } },
{ "type": "Feature", "properties": { "element": "node", "id": 12193969153, "name": "Astron Energy", "brand": "Astron Energy", "operator": null }, "geometry": { "type": "Point", "coordinates": [ 18.8228232, -34.0594493 ] } },
{ "type": "Feature", "properties": { "element": "node", "id": 12193969156, "name": "Astron Energy", "brand": "Astron Energy", "operator": null }, "geometry": { "type": "Point", "coordinates": [ 18.6043453, -33.9429912 ] } },
{ "type": "Feature", "properties": { "element": "node", "id": 12193969168, "name": "Astron Energy", "brand": "Astron Energy", "operator": null }, "geometry": { "type": "Point", "coordinates": [ 18.6358554, -33.8823863 ] } },
{ "type": "Feature", "properties": { "element": "node", "id": 12193969184, "name": "Astron Energy", "brand": "Astron Energy", "operator": null }, "geometry": { "type": "Point", "coordinates": [ 18.4920947, -34.042752299999989 ] } },
{ "type": "Feature", "properties": { "element": "node", "id": 12193969191, "name": "Astron Energy", "brand": "Astron Energy", "operator": null }, "geometry": { "type": "Point", "coordinates": [ 18.700864, -33.851612 ] } },
{ "type": "Feature", "properties": { "element": "node", "id": 12193969200, "name": "Astron Energy", "brand": "Astron Energy", "operator": null }, "geometry": { "type": "Point", "coordinates": [ 18.5892465, -33.9778676 ] } },
{ "type": "Feature", "properties": { "element": "node", "id": 12193969202, "name": "Astron Energy", "brand": "Astron Energy", "operator": null }, "geometry": { "type": "Point", "coordinates": [ 18.5828731, -33.9066832 ] } },
{ "type": "Feature", "properties": { "element": "node", "id": 12193969207, "name": "Astron Energy", "brand": "Astron Energy", "operator": null }, "geometry": { "type": "Point", "coordinates": [ 18.5088662, -33.880252 ] } },
{ "type": "Feature", "properties": { "element": "node", "id": 12193969212, "name": "Astron Energy", "brand": "Astron Energy", "operator": null }, "geometry": { "type": "Point", "coordinates": [ 18.7026422, -33.9971291 ] } },
{ "type": "Feature", "properties": { "element": "node", "id": 12193969213, "name": "Astron Energy", "brand": "Astron Energy", "operator": null }, "geometry": { "type": "Point", "coordinates": [ 18.5145194, -33.807277 ] } },
{ "type": "Feature", "properties": { "element": "node", "id": 12193969217, "name": "Astron Energy", "brand": "Astron Energy", "operator": null }, "geometry": { "type": "Point", "coordinates": [ 18.8493482, -34.1210327 ] } },
{ "type": "Feature", "properties": { "element": "node", "id": 12193969220, "name": "Astron Energy", "brand": "Astron Energy", "operator": null }, "geometry": { "type": "Point", "coordinates": [ 18.8418214, -34.129603 ] } },
{ "type": "Feature", "properties": { "element": "node", "id": 12193969225, "name": "Astron Energy", "brand": "Astron Energy", "operator": null }, "geometry": { "type": "Point", "coordinates": [ 18.3602913, -34.0448978 ] } },
{ "type": "Feature", "properties": { "element": "node", "id": 12193969228, "name": "Astron Energy", "brand": "Astron Energy", "operator": null }, "geometry": { "type": "Point", "coordinates": [ 18.534157, -33.866771 ] } },
{ "type": "Feature", "properties": { "element": "node", "id": 12193969229, "name": "Astron Energy", "brand": "Astron Energy", "operator": null }, "geometry": { "type": "Point", "coordinates": [ 18.7289243, -34.0032921 ] } },
{ "type": "Feature", "properties": { "element": "node", "id": 12193969233, "name": "Astron Energy", "brand": "Astron Energy", "operator": null }, "geometry": { "type": "Point", "coordinates": [ 18.7064274, -33.9774909 ] } },
{ "type": "Feature", "properties": { "element": "node", "id": 12193969243, "name": "Astron Energy", "brand": "Astron Energy", "operator": null }, "geometry": { "type": "Point", "coordinates": [ 18.5338404, -33.9457437 ] } },
{ "type": "Feature", "properties": { "element": "node", "id": 12193969244, "name": "Astron Energy", "brand": "Astron Energy", "operator": null }, "geometry": { "type": "Point", "coordinates": [ 18.6429327, -33.9745754 ] } },
{ "type": "Feature", "properties": { "element": "node", "id": 12193969246, "name": "Astron Energy", "brand": "Astron Energy", "operator": null }, "geometry": { "type": "Point", "coordinates": [ 18.5062125, -33.992013900000011 ] } },
{ "type": "Feature", "properties": { "element": "node", "id": 12193969247, "name": "Astron Energy", "brand": "Astron Energy", "operator": null }, "geometry": { "type": "Point", "coordinates": [ 18.4694105, -33.9940954 ] } },
{ "type": "Feature", "properties": { "element": "node", "id": 12193969252, "name": "Astron Energy", "brand": "Astron Energy", "operator": null }, "geometry": { "type": "Point", "coordinates": [ 18.4889104, -34.0537186 ] } },
{ "type": "Feature", "properties": { "element": "node", "id": 12196942718, "name": "Sasol", "brand": "Sasol", "operator": null }, "geometry": { "type": "Point", "coordinates": [ 18.6320924, -33.890665699999985 ] } },
{ "type": "Feature", "properties": { "element": "node", "id": 12196942762, "name": "Sasol", "brand": "Sasol", "operator": null }, "geometry": { "type": "Point", "coordinates": [ 18.6089445, -33.940708800000017 ] } },
{ "type": "Feature", "properties": { "element": "node", "id": 12196942775, "name": "Sasol", "brand": "Sasol", "operator": null }, "geometry": { "type": "Point", "coordinates": [ 18.4441283, -33.7320429 ] } },
{ "type": "Feature", "properties": { "element": "node", "id": 12196942789, "name": "Sasol", "brand": "Sasol", "operator": null }, "geometry": { "type": "Point", "coordinates": [ 18.496122, -33.8190564 ] } },
{ "type": "Feature", "properties": { "element": "node", "id": 12196957904, "name": "Sasol", "brand": "Sasol", "operator": null }, "geometry": { "type": "Point", "coordinates": [ 18.6916531, -33.855046499999986 ] } },
{ "type": "Feature", "properties": { "element": "node", "id": 12196957906, "name": "Sasol", "brand": "Sasol", "operator": null }, "geometry": { "type": "Point", "coordinates": [ 18.5176233, -33.8679358 ] } },
{ "type": "Feature", "properties": { "element": "node", "id": 12196957929, "name": "Sasol", "brand": "Sasol", "operator": null }, "geometry": { "type": "Point", "coordinates": [ 18.6289027, -33.9418623 ] } },
{ "type": "Feature", "properties": { "element": "node", "id": 12196957980, "name": "Sasol", "brand": "Sasol", "operator": null }, "geometry": { "type": "Point", "coordinates": [ 18.5134441, -34.0181819 ] } },
{ "type": "Feature", "properties": { "element": "node", "id": 12196957994, "name": "Sasol", "brand": "Sasol", "operator": null }, "geometry": { "type": "Point", "coordinates": [ 18.8188293, -34.0838485 ] } },
{ "type": "Feature", "properties": { "element": "node", "id": 12196958074, "name": "Sasol", "brand": "Sasol", "operator": null }, "geometry": { "type": "Point", "coordinates": [ 18.4679431, -33.9364392 ] } },
{ "type": "Feature", "properties": { "element": "node", "id": 12196958077, "name": "Sasol", "brand": "Sasol", "operator": null }, "geometry": { "type": "Point", "coordinates": [ 18.5045056, -33.9196214 ] } },
{ "type": "Feature", "properties": { "element": "node", "id": 12196958082, "name": "Sasol", "brand": "Sasol", "operator": null }, "geometry": { "type": "Point", "coordinates": [ 18.6892054, -33.9863204 ] } },
{ "type": "Feature", "properties": { "element": "node", "id": 12196958083, "name": "Sasol", "brand": "Sasol", "operator": null }, "geometry": { "type": "Point", "coordinates": [ 18.6681229, -33.90359990000001 ] } },
{ "type": "Feature", "properties": { "element": "node", "id": 12269703913, "name": "TotalEnergies", "brand": "TotalEnergies", "operator": null }, "geometry": { "type": "Point", "coordinates": [ 18.7264862, -33.8540931 ] } },
{ "type": "Feature", "properties": { "element": "node", "id": 12269703935, "name": "TotalEnergies", "brand": "TotalEnergies", "operator": null }, "geometry": { "type": "Point", "coordinates": [ 18.6161242, -34.0505117 ] } },
{ "type": "Feature", "properties": { "element": "node", "id": 12269703945, "name": "TotalEnergies", "brand": "TotalEnergies", "operator": null }, "geometry": { "type": "Point", "coordinates": [ 18.635, -34.0091 ] } },
{ "type": "Feature", "properties": { "element": "node", "id": 12269703949, "name": "TotalEnergies", "brand": "TotalEnergies", "operator": null }, "geometry": { "type": "Point", "coordinates": [ 18.8488168, -34.0804378 ] } },
{ "type": "Feature", "properties": { "element": "node", "id": 12269703950, "name": "TotalEnergies", "brand": "TotalEnergies", "operator": null }, "geometry": { "type": "Point", "coordinates": [ 18.5875779, -33.978241099999984 ] } },
{ "type": "Feature", "properties": { "element": "node", "id": 12269703958, "name": "TotalEnergies", "brand": "TotalEnergies", "operator": null }, "geometry": { "type": "Point", "coordinates": [ 18.5006839, -33.9290911 ] } },
{ "type": "Feature", "properties": { "element": "node", "id": 12269703962, "name": "TotalEnergies", "brand": "TotalEnergies", "operator": null }, "geometry": { "type": "Point", "coordinates": [ 18.7712705, -33.9821044 ] } },
{ "type": "Feature", "properties": { "element": "node", "id": 12269703963, "name": "Total Energies", "brand": "TotalEnergies", "operator": null }, "geometry": { "type": "Point", "coordinates": [ 18.6411369, -33.90071 ] } },
{ "type": "Feature", "properties": { "element": "node", "id": 12269703967, "name": "TotalEnergies", "brand": "TotalEnergies", "operator": null }, "geometry": { "type": "Point", "coordinates": [ 18.6525127, -33.8583245 ] } },
{ "type": "Feature", "properties": { "element": "node", "id": 12269703969, "name": "TotalEnergies", "brand": "TotalEnergies", "operator": null }, "geometry": { "type": "Point", "coordinates": [ 18.6195826, -34.0427461 ] } },
{ "type": "Feature", "properties": { "element": "node", "id": 12269703972, "name": "TotalEnergies", "brand": "TotalEnergies", "operator": null }, "geometry": { "type": "Point", "coordinates": [ 18.5637611, -33.9741006 ] } },
{ "type": "Feature", "properties": { "element": "node", "id": 12269704052, "name": "TotalEnergies", "brand": "TotalEnergies", "operator": null }, "geometry": { "type": "Point", "coordinates": [ 18.4496544, -33.9269989 ] } },
{ "type": "Feature", "properties": { "element": "node", "id": 12269704055, "name": "TotalEnergies", "brand": "TotalEnergies", "operator": null }, "geometry": { "type": "Point", "coordinates": [ 18.5501859, -33.9262438 ] } },
{ "type": "Feature", "properties": { "element": "node", "id": 12269704061, "name": "TotalEnergies", "brand": "TotalEnergies", "operator": null }, "geometry": { "type": "Point", "coordinates": [ 18.8359134, -34.1212522 ] } },
{ "type": "Feature", "properties": { "element": "node", "id": 12269704063, "name": "TotalEnergies", "brand": "TotalEnergies", "operator": null }, "geometry": { "type": "Point", "coordinates": [ 18.6598, -33.9075 ] } },
{ "type": "Feature", "properties": { "element": "node", "id": 12269704064, "name": "TotalEnergies", "brand": "TotalEnergies", "operator": null }, "geometry": { "type": "Point", "coordinates": [ 18.8207644, -34.0850039 ] } },
{ "type": "Feature", "properties": { "element": "node", "id": 12269704065, "name": "Total Energies", "brand": "TotalEnergies", "operator": null }, "geometry": { "type": "Point", "coordinates": [ 18.8778839, -33.925676599999989 ] } },
{ "type": "Feature", "properties": { "element": "node", "id": 12269704069, "name": "TotalEnergies", "brand": "TotalEnergies", "operator": null }, "geometry": { "type": "Point", "coordinates": [ 18.5445, -33.8372 ] } },
{ "type": "Feature", "properties": { "element": "node", "id": 12269704073, "name": "TotalEnergies", "brand": "TotalEnergies", "operator": null }, "geometry": { "type": "Point", "coordinates": [ 18.5064946, -33.8125084 ] } },
{ "type": "Feature", "properties": { "element": "node", "id": 12269704074, "name": "TotalEnergies", "brand": "TotalEnergies", "operator": null }, "geometry": { "type": "Point", "coordinates": [ 18.5656671, -33.8854343 ] } },
{ "type": "Feature", "properties": { "element": "node", "id": 12269704076, "name": "TotalEnergies", "brand": "TotalEnergies", "operator": null }, "geometry": { "type": "Point", "coordinates": [ 18.4652127, -33.9387744 ] } },
{ "type": "Feature", "properties": { "element": "node", "id": 12269704078, "name": "TotalEnergies", "brand": "TotalEnergies", "operator": null }, "geometry": { "type": "Point", "coordinates": [ 18.5631886, -33.893585 ] } },
{ "type": "Feature", "properties": { "element": "node", "id": 12269704079, "name": "TotalEnergies", "brand": "TotalEnergies", "operator": null }, "geometry": { "type": "Point", "coordinates": [ 18.5579, -33.8942 ] } },
{ "type": "Feature", "properties": { "element": "node", "id": 12269704081, "name": "TotalEnergies", "brand": "TotalEnergies", "operator": null }, "geometry": { "type": "Point", "coordinates": [ 18.5195255, -33.8737644 ] } },
{ "type": "Feature", "properties": { "element": "node", "id": 12269704082, "name": "TotalEnergies", "brand": "TotalEnergies", "operator": null }, "geometry": { "type": "Point", "coordinates": [ 18.6340772, -33.9140783 ] } },
{ "type": "Feature", "properties": { "element": "node", "id": 12269704083, "name": "TotalEnergies", "brand": "TotalEnergies", "operator": null }, "geometry": { "type": "Point", "coordinates": [ 18.6020107, -34.0661817 ] } },
{ "type": "Feature", "properties": { "element": "node", "id": 12269704084, "name": "TotalEnergies", "brand": "TotalEnergies", "operator": null }, "geometry": { "type": "Point", "coordinates": [ 18.456294, -33.7351967 ] } },
{ "type": "Feature", "properties": { "element": "node", "id": 12269704090, "name": "TotalEnergies", "brand": "TotalEnergies", "operator": null }, "geometry": { "type": "Point", "coordinates": [ 18.6893235, -33.9408139 ] } },
{ "type": "Feature", "properties": { "element": "node", "id": 12269704092, "name": "TotalEnergies", "brand": "TotalEnergies", "operator": null }, "geometry": { "type": "Point", "coordinates": [ 18.6606148, -34.042448899999989 ] } },
{ "type": "Feature", "properties": { "element": "node", "id": 12269704095, "name": "TotalEnergies", "brand": "TotalEnergies", "operator": null }, "geometry": { "type": "Point", "coordinates": [ 18.5838469, -34.0317028 ] } },
{ "type": "Feature", "properties": { "element": "node", "id": 12269704098, "name": "TotalEnergies", "brand": "TotalEnergies", "operator": null }, "geometry": { "type": "Point", "coordinates": [ 18.6476381, -33.8342867 ] } },
{ "type": "Feature", "properties": { "element": "node", "id": 12269704105, "name": "TotalEnergies", "brand": "TotalEnergies", "operator": null }, "geometry": { "type": "Point", "coordinates": [ 18.7353268, -34.0134506 ] } },
{ "type": "Feature", "properties": { "element": "node", "id": 12289683248, "name": "Engen", "brand": "Engen", "operator": null }, "geometry": { "type": "Point", "coordinates": [ 18.424965, -33.932109 ] } },
{ "type": "Feature", "properties": { "element": "node", "id": 12289683255, "name": "Engen", "brand": "Engen", "operator": null }, "geometry": { "type": "Point", "coordinates": [ 18.476828, -34.002337 ] } },
{ "type": "Feature", "properties": { "element": "node", "id": 12289683262, "name": "Engen", "brand": "Engen", "operator": null }, "geometry": { "type": "Point", "coordinates": [ 18.537913, -33.906507 ] } },
{ "type": "Feature", "properties": { "element": "node", "id": 12289683263, "name": "Engen", "brand": "Engen", "operator": null }, "geometry": { "type": "Point", "coordinates": [ 18.76485, -33.828218 ] } },
{ "type": "Feature", "properties": { "element": "node", "id": 12289683264, "name": "Engen", "brand": "Engen", "operator": null }, "geometry": { "type": "Point", "coordinates": [ 18.762747, -33.8269688 ] } },
{ "type": "Feature", "properties": { "element": "node", "id": 12289683271, "name": "Engen", "brand": "Engen", "operator": null }, "geometry": { "type": "Point", "coordinates": [ 18.504556, -33.822448 ] } },
{ "type": "Feature", "properties": { "element": "node", "id": 12289683275, "name": "Engen", "brand": "Engen", "operator": null }, "geometry": { "type": "Point", "coordinates": [ 18.681275, -33.929736 ] } },
{ "type": "Feature", "properties": { "element": "node", "id": 12289683283, "name": "Engen", "brand": "Engen", "operator": null }, "geometry": { "type": "Point", "coordinates": [ 18.680687, -33.864991 ] } },
{ "type": "Feature", "properties": { "element": "node", "id": 12289683286, "name": "Engen", "brand": "Engen", "operator": null }, "geometry": { "type": "Point", "coordinates": [ 18.4643959, -33.9768446 ] } },
{ "type": "Feature", "properties": { "element": "node", "id": 12289683298, "name": "Engen", "brand": "Engen", "operator": null }, "geometry": { "type": "Point", "coordinates": [ 18.671997, -34.04048 ] } },
{ "type": "Feature", "properties": { "element": "node", "id": 12289683304, "name": "Engen", "brand": "Engen", "operator": null }, "geometry": { "type": "Point", "coordinates": [ 18.629668, -33.89552 ] } },
{ "type": "Feature", "properties": { "element": "node", "id": 12289683312, "name": "Engen", "brand": "Engen", "operator": null }, "geometry": { "type": "Point", "coordinates": [ 18.458423, -34.066539 ] } },
{ "type": "Feature", "properties": { "element": "node", "id": 12289683315, "name": "Engen", "brand": "Engen", "operator": null }, "geometry": { "type": "Point", "coordinates": [ 18.630964, -33.880927 ] } },
{ "type": "Feature", "properties": { "element": "node", "id": 12289683316, "name": "Engen", "brand": "Engen", "operator": null }, "geometry": { "type": "Point", "coordinates": [ 18.596558, -33.901793 ] } },
{ "type": "Feature", "properties": { "element": "node", "id": 12289683318, "name": "Engen", "brand": "Engen", "operator": null }, "geometry": { "type": "Point", "coordinates": [ 18.6374268, -34.0141343 ] } },
{ "type": "Feature", "properties": { "element": "node", "id": 12289683337, "name": "Engen", "brand": "Engen", "operator": null }, "geometry": { "type": "Point", "coordinates": [ 18.495739, -33.8547912 ] } },
{ "type": "Feature", "properties": { "element": "node", "id": 12289683339, "name": "Engen", "brand": "Engen", "operator": null }, "geometry": { "type": "Point", "coordinates": [ 18.487236, -33.804364 ] } },
{ "type": "Feature", "properties": { "element": "node", "id": 12289683344, "name": "Engen", "brand": "Engen", "operator": null }, "geometry": { "type": "Point", "coordinates": [ 18.563408, -34.075405 ] } },
{ "type": "Feature", "properties": { "element": "node", "id": 12289683346, "name": "Engen", "brand": "Engen", "operator": null }, "geometry": { "type": "Point", "coordinates": [ 18.856663, -33.928119 ] } },
{ "type": "Feature", "properties": { "element": "node", "id": 12289683347, "name": "Engen", "brand": "Engen", "operator": null }, "geometry": { "type": "Point", "coordinates": [ 18.655519, -33.872282 ] } },
{ "type": "Feature", "properties": { "element": "node", "id": 12289683357, "name": "Engen", "brand": "Engen", "operator": null }, "geometry": { "type": "Point", "coordinates": [ 18.5827856, -33.8831713 ] } },
{ "type": "Feature", "properties": { "element": "node", "id": 12289683367, "name": "Engen", "brand": "Engen", "operator": null }, "geometry": { "type": "Point", "coordinates": [ 18.554847, -33.897265 ] } },
{ "type": "Feature", "properties": { "element": "node", "id": 12289683378, "name": "Engen", "brand": "Engen", "operator": null }, "geometry": { "type": "Point", "coordinates": [ 18.4691725, -33.9436367 ] } },
{ "type": "Feature", "properties": { "element": "node", "id": 12289683380, "name": "Engen", "brand": "Engen", "operator": null }, "geometry": { "type": "Point", "coordinates": [ 18.3500458, -34.0410229 ] } },
{ "type": "Feature", "properties": { "element": "node", "id": 12289683382, "name": "Engen", "brand": "Engen", "operator": null }, "geometry": { "type": "Point", "coordinates": [ 18.391368, -33.9135599 ] } },
{ "type": "Feature", "properties": { "element": "node", "id": 12289683384, "name": "Engen", "brand": "Engen", "operator": null }, "geometry": { "type": "Point", "coordinates": [ 18.697189, -33.952848 ] } },
{ "type": "Feature", "properties": { "element": "node", "id": 12289683389, "name": "Engen", "brand": "Engen", "operator": null }, "geometry": { "type": "Point", "coordinates": [ 18.705518, -33.880567 ] } },
{ "type": "Feature", "properties": { "element": "node", "id": 12289683391, "name": "Engen", "brand": "Engen", "operator": null }, "geometry": { "type": "Point", "coordinates": [ 18.49353, -34.027313 ] } },
{ "type": "Feature", "properties": { "element": "node", "id": 12289683404, "name": "Engen", "brand": "Engen", "operator": null }, "geometry": { "type": "Point", "coordinates": [ 18.489589, -33.825983 ] } },
{ "type": "Feature", "properties": { "element": "node", "id": 12289683407, "name": "Engen", "brand": "Engen", "operator": null }, "geometry": { "type": "Point", "coordinates": [ 18.6857543, -33.8806307 ] } },
{ "type": "Feature", "properties": { "element": "node", "id": 12289683419, "name": "Engen", "brand": "Engen", "operator": null }, "geometry": { "type": "Point", "coordinates": [ 18.70913, -33.84211 ] } },
{ "type": "Feature", "properties": { "element": "node", "id": 12289683426, "name": "Engen", "brand": "Engen", "operator": null }, "geometry": { "type": "Point", "coordinates": [ 18.688801, -33.889282 ] } },
{ "type": "Feature", "properties": { "element": "node", "id": 12289683429, "name": "Engen", "brand": "Engen", "operator": null }, "geometry": { "type": "Point", "coordinates": [ 18.542778, -33.979383 ] } },
{ "type": "Feature", "properties": { "element": "node", "id": 12289683438, "name": "Engen", "brand": "Engen", "operator": null }, "geometry": { "type": "Point", "coordinates": [ 18.571949, -33.8661995 ] } },
{ "type": "Feature", "properties": { "element": "node", "id": 12289683445, "name": "Engen", "brand": "Engen", "operator": null }, "geometry": { "type": "Point", "coordinates": [ 18.713056, -34.002002 ] } },
{ "type": "Feature", "properties": { "element": "node", "id": 12289683453, "name": "Engen", "brand": "Engen", "operator": null }, "geometry": { "type": "Point", "coordinates": [ 18.851208, -33.963131 ] } },
{ "type": "Feature", "properties": { "element": "node", "id": 12289683458, "name": "Engen", "brand": "Engen", "operator": null }, "geometry": { "type": "Point", "coordinates": [ 18.588848, -33.924198 ] } },
{ "type": "Feature", "properties": { "element": "node", "id": 12289683464, "name": "Engen", "brand": "Engen", "operator": null }, "geometry": { "type": "Point", "coordinates": [ 18.578649, -33.937054 ] } },
{ "type": "Feature", "properties": { "element": "node", "id": 12289683471, "name": "Engen", "brand": "Engen", "operator": null }, "geometry": { "type": "Point", "coordinates": [ 18.414956, -33.932978 ] } },
{ "type": "Feature", "properties": { "element": "node", "id": 12289683472, "name": "Engen", "brand": "Engen", "operator": null }, "geometry": { "type": "Point", "coordinates": [ 18.509918, -33.989362 ] } },
{ "type": "Feature", "properties": { "element": "node", "id": 12289683480, "name": "Engen", "brand": "Engen", "operator": null }, "geometry": { "type": "Point", "coordinates": [ 18.5831626, -33.9895282 ] } },
{ "type": "Feature", "properties": { "element": "node", "id": 12289683518, "name": "Engen", "brand": "Engen", "operator": null }, "geometry": { "type": "Point", "coordinates": [ 18.5523761, -33.887697699999983 ] } },
{ "type": "Feature", "properties": { "element": "node", "id": 12289683528, "name": "Engen", "brand": "Engen", "operator": null }, "geometry": { "type": "Point", "coordinates": [ 18.5868522, -34.042989800000022 ] } },
{ "type": "Feature", "properties": { "element": "node", "id": 12289683548, "name": "Engen", "brand": "Engen", "operator": null }, "geometry": { "type": "Point", "coordinates": [ 18.4468267, -34.0336317 ] } },
{ "type": "Feature", "properties": { "element": "node", "id": 12289683558, "name": "Engen", "brand": "Engen", "operator": null }, "geometry": { "type": "Point", "coordinates": [ 18.515068, -33.868831 ] } },
{ "type": "Feature", "properties": { "element": "node", "id": 12289683572, "name": "Engen", "brand": "Engen", "operator": null }, "geometry": { "type": "Point", "coordinates": [ 18.760813, -34.061148 ] } },
{ "type": "Feature", "properties": { "element": "node", "id": 12289683575, "name": "Engen", "brand": "Engen", "operator": null }, "geometry": { "type": "Point", "coordinates": [ 18.6724931, -33.9562122 ] } },
{ "type": "Feature", "properties": { "element": "node", "id": 12289683591, "name": "Engen", "brand": "Engen", "operator": null }, "geometry": { "type": "Point", "coordinates": [ 18.609564, -34.034965 ] } },
{ "type": "Feature", "properties": { "element": "node", "id": 12289683596, "name": "Engen", "brand": "Engen", "operator": null }, "geometry": { "type": "Point", "coordinates": [ 18.6623477, -33.8819732 ] } },
{ "type": "Feature", "properties": { "element": "node", "id": 12289683609, "name": "Engen", "brand": "Engen", "operator": null }, "geometry": { "type": "Point", "coordinates": [ 18.723447, -33.853331 ] } },
{ "type": "Feature", "properties": { "element": "node", "id": 12289683610, "name": "Engen", "brand": "Engen", "operator": null }, "geometry": { "type": "Point", "coordinates": [ 18.482614, -33.913478 ] } },
{ "type": "Feature", "properties": { "element": "node", "id": 12289683612, "name": "Engen", "brand": "Engen", "operator": null }, "geometry": { "type": "Point", "coordinates": [ 18.676087, -33.921012 ] } },
{ "type": "Feature", "properties": { "element": "node", "id": 12289683614, "name": "Engen", "brand": "Engen", "operator": null }, "geometry": { "type": "Point", "coordinates": [ 18.4112712, -33.9297193 ] } },
{ "type": "Feature", "properties": { "element": "node", "id": 12289683654, "name": "Engen", "brand": "Engen", "operator": null }, "geometry": { "type": "Point", "coordinates": [ 18.477297, -34.010561 ] } },
{ "type": "Feature", "properties": { "element": "node", "id": 12289683655, "name": "Engen", "brand": "Engen", "operator": null }, "geometry": { "type": "Point", "coordinates": [ 18.623897, -34.050562 ] } },
{ "type": "Feature", "properties": { "element": "node", "id": 12289683667, "name": "Engen", "brand": "Engen", "operator": null }, "geometry": { "type": "Point", "coordinates": [ 18.657907, -33.979836 ] } },
{ "type": "Feature", "properties": { "element": "node", "id": 12289683678, "name": "Engen", "brand": "Engen", "operator": null }, "geometry": { "type": "Point", "coordinates": [ 18.8619361, -34.0942974 ] } },
{ "type": "Feature", "properties": { "element": "node", "id": 12289683683, "name": "Engen", "brand": "Engen", "operator": null }, "geometry": { "type": "Point", "coordinates": [ 18.528724, -33.994697 ] } },
{ "type": "Feature", "properties": { "element": "node", "id": 12289683688, "name": "Engen", "brand": "Engen", "operator": null }, "geometry": { "type": "Point", "coordinates": [ 18.46489, -34.0190557 ] } },
{ "type": "Feature", "properties": { "element": "node", "id": 12289683701, "name": "Engen", "brand": "Engen", "operator": null }, "geometry": { "type": "Point", "coordinates": [ 18.6523283, -33.9147947 ] } },
{ "type": "Feature", "properties": { "element": "node", "id": 12289683703, "name": "Engen", "brand": "Engen", "operator": null }, "geometry": { "type": "Point", "coordinates": [ 18.514522, -33.963583 ] } },
{ "type": "Feature", "properties": { "element": "node", "id": 12289683711, "name": "Engen", "brand": "Engen", "operator": null }, "geometry": { "type": "Point", "coordinates": [ 18.84398, -34.094965 ] } },
{ "type": "Feature", "properties": { "element": "node", "id": 12289683713, "name": "Engen", "brand": "Engen", "operator": null }, "geometry": { "type": "Point", "coordinates": [ 18.512978, -34.034194 ] } },
{ "type": "Feature", "properties": { "element": "node", "id": 12289683719, "name": "Engen", "brand": "Engen", "operator": null }, "geometry": { "type": "Point", "coordinates": [ 18.726855, -34.000026 ] } },
{ "type": "Feature", "properties": { "element": "node", "id": 12289683725, "name": "Engen", "brand": "Engen", "operator": null }, "geometry": { "type": "Point", "coordinates": [ 18.51569, -33.832717 ] } },
{ "type": "Feature", "properties": { "element": "node", "id": 12289683729, "name": "Engen", "brand": "Engen", "operator": null }, "geometry": { "type": "Point", "coordinates": [ 18.501364, -34.013204 ] } },
{ "type": "Feature", "properties": { "element": "node", "id": 12289683734, "name": "Engen", "brand": "Engen", "operator": null }, "geometry": { "type": "Point", "coordinates": [ 18.756906, -34.047314 ] } },
{ "type": "Feature", "properties": { "element": "node", "id": 12289683738, "name": "Engen", "brand": "Engen", "operator": null }, "geometry": { "type": "Point", "coordinates": [ 18.59365, -33.890752 ] } },
{ "type": "Feature", "properties": { "element": "node", "id": 12289683742, "name": "Engen", "brand": "Engen", "operator": null }, "geometry": { "type": "Point", "coordinates": [ 18.64811, -33.903712 ] } },
{ "type": "Feature", "properties": { "element": "node", "id": 12289683755, "name": "Engen", "brand": "Engen", "operator": null }, "geometry": { "type": "Point", "coordinates": [ 18.5350698, -33.8728626 ] } },
{ "type": "Feature", "properties": { "element": "node", "id": 12289683761, "name": "Engen", "brand": "Engen", "operator": null }, "geometry": { "type": "Point", "coordinates": [ 18.4948287, -34.0471093 ] } },
{ "type": "Feature", "properties": { "element": "node", "id": 12289683763, "name": "Engen", "brand": "Engen", "operator": null }, "geometry": { "type": "Point", "coordinates": [ 18.651609, -33.828484 ] } },
{ "type": "Feature", "properties": { "element": "node", "id": 12289683764, "name": "Engen", "brand": "Engen", "operator": null }, "geometry": { "type": "Point", "coordinates": [ 18.6387173, -33.869978 ] } },
{ "type": "Feature", "properties": { "element": "node", "id": 12289683767, "name": "Engen", "brand": "Engen", "operator": null }, "geometry": { "type": "Point", "coordinates": [ 18.854125, -34.086991 ] } },
{ "type": "Feature", "properties": { "element": "node", "id": 12289683777, "name": "Engen", "brand": "Engen", "operator": null }, "geometry": { "type": "Point", "coordinates": [ 18.5384873, -33.8531176 ] } },
{ "type": "Feature", "properties": { "element": "node", "id": 12289683778, "name": "Engen", "brand": "Engen", "operator": null }, "geometry": { "type": "Point", "coordinates": [ 18.6898814, -33.856610899999986 ] } },
{ "type": "Feature", "properties": { "element": "node", "id": 12289683808, "name": "Engen", "brand": "Engen", "operator": null }, "geometry": { "type": "Point", "coordinates": [ 18.463226, -34.004186 ] } },
{ "type": "Feature", "properties": { "element": "node", "id": 12289683822, "name": "Engen", "brand": "Engen", "operator": null }, "geometry": { "type": "Point", "coordinates": [ 18.6947094, -33.8513232 ] } },
{ "type": "Feature", "properties": { "element": "node", "id": 12289683844, "name": "Engen", "brand": "Engen", "operator": null }, "geometry": { "type": "Point", "coordinates": [ 18.533199, -33.868942 ] } },
{ "type": "Feature", "properties": { "element": "node", "id": 12289683848, "name": "Engen", "brand": "Engen", "operator": null }, "geometry": { "type": "Point", "coordinates": [ 18.553519, -33.950715 ] } },
{ "type": "Feature", "properties": { "element": "node", "id": 12289683855, "name": "Engen", "brand": "Engen", "operator": null }, "geometry": { "type": "Point", "coordinates": [ 18.694942, -33.975595 ] } },
{ "type": "Feature", "properties": { "element": "node", "id": 12289683864, "name": "Engen", "brand": "Engen", "operator": null }, "geometry": { "type": "Point", "coordinates": [ 18.647798, -33.951371 ] } },
{ "type": "Feature", "properties": { "element": "node", "id": 12289683866, "name": "Engen", "brand": "Engen", "operator": null }, "geometry": { "type": "Point", "coordinates": [ 18.523226, -33.985664 ] } },
{ "type": "Feature", "properties": { "element": "node", "id": 12289683886, "name": "Engen", "brand": "Engen", "operator": null }, "geometry": { "type": "Point", "coordinates": [ 18.569645, -33.925087 ] } },
{ "type": "Feature", "properties": { "element": "node", "id": 12289683894, "name": "Engen", "brand": "Engen", "operator": null }, "geometry": { "type": "Point", "coordinates": [ 18.584809, -33.957325 ] } },
{ "type": "Feature", "properties": { "element": "node", "id": 12289683896, "name": "Engen", "brand": "Engen", "operator": null }, "geometry": { "type": "Point", "coordinates": [ 18.505866, -33.962313 ] } },
{ "type": "Feature", "properties": { "element": "node", "id": 12328175513, "name": "Astron Energy", "brand": "Astron Energy", "operator": null }, "geometry": { "type": "Point", "coordinates": [ 18.847931, -34.0994348 ] } },
{ "type": "Feature", "properties": { "element": "node", "id": 12328465845, "name": "BP", "brand": "BP", "operator": null }, "geometry": { "type": "Point", "coordinates": [ 18.5331845, -33.969662 ] } },
{ "type": "Feature", "properties": { "element": "node", "id": 12328470225, "name": "BP", "brand": "BP", "operator": null }, "geometry": { "type": "Point", "coordinates": [ 18.6028731, -34.0297794 ] } },
{ "type": "Feature", "properties": { "element": "node", "id": 12328470228, "name": "BP", "brand": "BP", "operator": null }, "geometry": { "type": "Point", "coordinates": [ 18.4802573, -34.0885033 ] } },
{ "type": "Feature", "properties": { "element": "node", "id": 12328470234, "name": "BP", "brand": "BP", "operator": null }, "geometry": { "type": "Point", "coordinates": [ 18.5626549, -33.9276866 ] } },
{ "type": "Feature", "properties": { "element": "node", "id": 12328470235, "name": "BP", "brand": "BP", "operator": null }, "geometry": { "type": "Point", "coordinates": [ 18.8228974, -34.0681639 ] } },
{ "type": "Feature", "properties": { "element": "node", "id": 12328470239, "name": "BP", "brand": "BP", "operator": null }, "geometry": { "type": "Point", "coordinates": [ 18.5001769, -33.9409599 ] } },
{ "type": "Feature", "properties": { "element": "node", "id": 12328470242, "name": "BP", "brand": "BP", "operator": null }, "geometry": { "type": "Point", "coordinates": [ 18.4593775, -33.9289588 ] } },
{ "type": "Feature", "properties": { "element": "node", "id": 12328470244, "name": "BP", "brand": "BP", "operator": null }, "geometry": { "type": "Point", "coordinates": [ 18.5159747, -34.0035681 ] } },
{ "type": "Feature", "properties": { "element": "node", "id": 12328470252, "name": "Shell", "brand": "Shell", "operator": null }, "geometry": { "type": "Point", "coordinates": [ 18.4678083, -34.1054106 ] } },
{ "type": "Feature", "properties": { "element": "node", "id": 12328470263, "name": "BP", "brand": "BP", "operator": null }, "geometry": { "type": "Point", "coordinates": [ 18.6361754, -33.880698099999989 ] } },
{ "type": "Feature", "properties": { "element": "node", "id": 12328470264, "name": "BP", "brand": "BP", "operator": null }, "geometry": { "type": "Point", "coordinates": [ 18.830171, -34.1006454 ] } },
{ "type": "Feature", "properties": { "element": "node", "id": 12328470270, "name": "BP", "brand": "BP", "operator": null }, "geometry": { "type": "Point", "coordinates": [ 18.6671326, -33.8898285 ] } },
{ "type": "Feature", "properties": { "element": "node", "id": 12328470276, "name": "BP", "brand": "BP", "operator": null }, "geometry": { "type": "Point", "coordinates": [ 18.7118352, -33.8438179 ] } },
{ "type": "Feature", "properties": { "element": "node", "id": 12328470287, "name": "BP", "brand": "BP", "operator": null }, "geometry": { "type": "Point", "coordinates": [ 18.5496032, -34.0724694 ] } },
{ "type": "Feature", "properties": { "element": "node", "id": 12328470292, "name": "BP", "brand": "BP", "operator": null }, "geometry": { "type": "Point", "coordinates": [ 18.6312092, -34.0328803 ] } },
{ "type": "Feature", "properties": { "element": "node", "id": 12328470294, "name": "BP", "brand": "BP", "operator": null }, "geometry": { "type": "Point", "coordinates": [ 18.5788455, -33.9366063 ] } },
{ "type": "Feature", "properties": { "element": "node", "id": 12328470295, "name": "BP", "brand": "BP", "operator": null }, "geometry": { "type": "Point", "coordinates": [ 18.6187986, -34.040887 ] } },
{ "type": "Feature", "properties": { "element": "node", "id": 12328470298, "name": "BP", "brand": "BP", "operator": null }, "geometry": { "type": "Point", "coordinates": [ 18.6513882, -33.8657746 ] } },
{ "type": "Feature", "properties": { "element": "node", "id": 12328470300, "name": "BP", "brand": "BP", "operator": null }, "geometry": { "type": "Point", "coordinates": [ 18.6474664, -33.947549499999987 ] } },
{ "type": "Feature", "properties": { "element": "node", "id": 12328470305, "name": "BP", "brand": "BP", "operator": null }, "geometry": { "type": "Point", "coordinates": [ 18.6025947, -34.0363894 ] } },
{ "type": "Feature", "properties": { "element": "node", "id": 12328470309, "name": "BP", "brand": "BP", "operator": null }, "geometry": { "type": "Point", "coordinates": [ 18.3888698, -34.1193139 ] } },
{ "type": "Feature", "properties": { "element": "node", "id": 12328470311, "name": "BP", "brand": "BP", "operator": null }, "geometry": { "type": "Point", "coordinates": [ 18.840288, -34.0743045 ] } },
{ "type": "Feature", "properties": { "element": "node", "id": 12328470314, "name": "BP", "brand": "BP", "operator": null }, "geometry": { "type": "Point", "coordinates": [ 18.3565837, -34.0340086 ] } },
{ "type": "Feature", "properties": { "element": "node", "id": 12328470316, "name": "BP", "brand": "BP", "operator": null }, "geometry": { "type": "Point", "coordinates": [ 18.5393809, -33.9266079 ] } },
{ "type": "Feature", "properties": { "element": "node", "id": 12328470317, "name": "BP", "brand": "BP", "operator": null }, "geometry": { "type": "Point", "coordinates": [ 18.6649717, -34.024958 ] } },
{ "type": "Feature", "properties": { "element": "node", "id": 12328470322, "name": "BP", "brand": "BP", "operator": null }, "geometry": { "type": "Point", "coordinates": [ 18.638811, -33.9019612 ] } },
{ "type": "Feature", "properties": { "element": "node", "id": 12328470329, "name": "BP", "brand": "BP", "operator": null }, "geometry": { "type": "Point", "coordinates": [ 18.418533, -33.9152335 ] } },
{ "type": "Feature", "properties": { "element": "node", "id": 12328470333, "name": "BP", "brand": "BP", "operator": null }, "geometry": { "type": "Point", "coordinates": [ 18.4868985, -34.0357763 ] } },
{ "type": "Feature", "properties": { "element": "node", "id": 12328470338, "name": "BP", "brand": "BP", "operator": null }, "geometry": { "type": "Point", "coordinates": [ 18.4868769, -34.0633843 ] } },
{ "type": "Feature", "properties": { "element": "node", "id": 12328470344, "name": "BP", "brand": "BP", "operator": null }, "geometry": { "type": "Point", "coordinates": [ 18.5838551, -33.9139822 ] } },
{ "type": "Feature", "properties": { "element": "node", "id": 12328470349, "name": "BP", "brand": "BP", "operator": null }, "geometry": { "type": "Point", "coordinates": [ 18.470393, -33.959331499999983 ] } },
{ "type": "Feature", "properties": { "element": "node", "id": 12328470353, "name": "BP", "brand": "BP", "operator": null }, "geometry": { "type": "Point", "coordinates": [ 18.5342649, -33.9813251 ] } },
{ "type": "Feature", "properties": { "element": "node", "id": 12328470358, "name": "BP", "brand": "BP", "operator": null }, "geometry": { "type": "Point", "coordinates": [ 18.6055516, -33.9977055 ] } },
{ "type": "Feature", "properties": { "element": "node", "id": 12328470368, "name": "BP", "brand": "BP", "operator": null }, "geometry": { "type": "Point", "coordinates": [ 18.5771053, -33.8969334 ] } },
{ "type": "Feature", "properties": { "element": "node", "id": 12328470371, "name": "BP", "brand": "BP", "operator": null }, "geometry": { "type": "Point", "coordinates": [ 18.603848, -33.9029688 ] } },
{ "type": "Feature", "properties": { "element": "node", "id": 12328470373, "name": "BP", "brand": "BP", "operator": null }, "geometry": { "type": "Point", "coordinates": [ 18.4755452, -33.914646 ] } },
{ "type": "Feature", "properties": { "element": "node", "id": 12328470374, "name": "BP", "brand": "BP", "operator": null }, "geometry": { "type": "Point", "coordinates": [ 18.6712406, -33.898219 ] } },
{ "type": "Feature", "properties": { "element": "node", "id": 12328470377, "name": "BP", "brand": "BP", "operator": null }, "geometry": { "type": "Point", "coordinates": [ 18.4789442, -33.9583647 ] } },
{ "type": "Feature", "properties": { "element": "node", "id": 12328470388, "name": "BP", "brand": "BP", "operator": null }, "geometry": { "type": "Point", "coordinates": [ 18.5002599, -33.8775231 ] } },
{ "type": "Feature", "properties": { "element": "node", "id": 12328470391, "name": "BP", "brand": "BP", "operator": null }, "geometry": { "type": "Point", "coordinates": [ 18.5663942, -33.9215836 ] } },
{ "type": "Feature", "properties": { "element": "node", "id": 12328470392, "name": "BP", "brand": "BP", "operator": null }, "geometry": { "type": "Point", "coordinates": [ 18.8529452, -34.1424405 ] } },
{ "type": "Feature", "properties": { "element": "node", "id": 12328470397, "name": "BP", "brand": "BP", "operator": null }, "geometry": { "type": "Point", "coordinates": [ 18.5230894, -33.9738237 ] } },
{ "type": "Feature", "properties": { "element": "node", "id": 12328470398, "name": "BP", "brand": "BP", "operator": null }, "geometry": { "type": "Point", "coordinates": [ 18.6126052, -34.065756 ] } },
{ "type": "Feature", "properties": { "element": "node", "id": 12328470403, "name": "BP", "brand": "BP", "operator": null }, "geometry": { "type": "Point", "coordinates": [ 18.5158447, -33.992669199999987 ] } },
{ "type": "Feature", "properties": { "element": "node", "id": 12328470408, "name": "BP", "brand": "BP", "operator": null }, "geometry": { "type": "Point", "coordinates": [ 18.4657119, -33.9855744 ] } },
{ "type": "Feature", "properties": { "element": "node", "id": 12328470414, "name": "BP", "brand": "BP", "operator": null }, "geometry": { "type": "Point", "coordinates": [ 18.4788845, -34.0279094 ] } },
{ "type": "Feature", "properties": { "element": "node", "id": 12328470420, "name": "BP", "brand": "BP", "operator": null }, "geometry": { "type": "Point", "coordinates": [ 18.5707685, -33.8778667 ] } },
{ "type": "Feature", "properties": { "element": "node", "id": 12328470427, "name": "BP", "brand": "BP", "operator": null }, "geometry": { "type": "Point", "coordinates": [ 18.6151346, -33.9016627 ] } },
{ "type": "Feature", "properties": { "element": "node", "id": 12328470431, "name": "BP", "brand": "BP", "operator": null }, "geometry": { "type": "Point", "coordinates": [ 18.5493216, -33.9404306 ] } },
{ "type": "Feature", "properties": { "element": "node", "id": 12328470432, "name": "BP", "brand": "BP", "operator": null }, "geometry": { "type": "Point", "coordinates": [ 18.6237877, -33.9455519 ] } },
{ "type": "Feature", "properties": { "element": "node", "id": 12328470436, "name": "BP", "brand": "BP", "operator": null }, "geometry": { "type": "Point", "coordinates": [ 18.555773, -33.9923399 ] } },
{ "type": "Feature", "properties": { "element": "node", "id": 12328470440, "name": "BP", "brand": "BP", "operator": null }, "geometry": { "type": "Point", "coordinates": [ 18.51298, -33.999452 ] } },
{ "type": "Feature", "properties": { "element": "node", "id": 12328470444, "name": "BP", "brand": "BP", "operator": null }, "geometry": { "type": "Point", "coordinates": [ 18.502534, -34.036319 ] } },
{ "type": "Feature", "properties": { "element": "node", "id": 12328470449, "name": "BP", "brand": "BP", "operator": null }, "geometry": { "type": "Point", "coordinates": [ 18.5470622, -33.8700978 ] } },
{ "type": "Feature", "properties": { "element": "node", "id": 12328470450, "name": "BP", "brand": "BP", "operator": null }, "geometry": { "type": "Point", "coordinates": [ 18.8605931, -33.9318072 ] } },
{ "type": "Feature", "properties": { "element": "node", "id": 12328470453, "name": "BP", "brand": "BP", "operator": null }, "geometry": { "type": "Point", "coordinates": [ 18.4902545, -33.8242971 ] } },
{ "type": "Feature", "properties": { "element": "node", "id": 12328470454, "name": "BP", "brand": "BP", "operator": null }, "geometry": { "type": "Point", "coordinates": [ 18.8609388, -34.1075281 ] } },
{ "type": "Feature", "properties": { "element": "node", "id": 12328470457, "name": "BP", "brand": "BP", "operator": null }, "geometry": { "type": "Point", "coordinates": [ 18.4905173, -33.8155363 ] } },
{ "type": "Feature", "properties": { "element": "node", "id": 12328470458, "name": "BP", "brand": "BP", "operator": null }, "geometry": { "type": "Point", "coordinates": [ 18.6905122, -33.9907081 ] } },
{ "type": "Feature", "properties": { "element": "node", "id": 12328470466, "name": "BP", "brand": "BP", "operator": null }, "geometry": { "type": "Point", "coordinates": [ 18.597946, -34.0327859 ] } },
{ "type": "Feature", "properties": { "element": "node", "id": 12328470468, "name": "BP", "brand": "BP", "operator": null }, "geometry": { "type": "Point", "coordinates": [ 18.8722492, -33.804257300000017 ] } },
{ "type": "Feature", "properties": { "element": "node", "id": 12328470472, "name": "BP", "brand": "BP", "operator": null }, "geometry": { "type": "Point", "coordinates": [ 18.5881376, -33.920673299999983 ] } },
{ "type": "Feature", "properties": { "element": "node", "id": 12328470473, "name": "BP", "brand": "BP", "operator": null }, "geometry": { "type": "Point", "coordinates": [ 18.856147, -33.9399421 ] } },
{ "type": "Feature", "properties": { "element": "node", "id": 12328470476, "name": "BP", "brand": "BP", "operator": null }, "geometry": { "type": "Point", "coordinates": [ 18.4827335, -33.8067335 ] } },
{ "type": "Feature", "properties": { "element": "node", "id": 12328470479, "name": "BP", "brand": "BP", "operator": null }, "geometry": { "type": "Point", "coordinates": [ 18.6755504, -33.9202334 ] } },
{ "type": "Feature", "properties": { "element": "node", "id": 12328470482, "name": "BP", "brand": "BP", "operator": null }, "geometry": { "type": "Point", "coordinates": [ 18.4788344, -34.002289 ] } },
{ "type": "Feature", "properties": { "element": "node", "id": 12335005271, "name": "BP", "brand": "BP", "operator": null }, "geometry": { "type": "Point", "coordinates": [ 18.6970434, -33.8282473 ] } },
{ "type": "Feature", "properties": { "element": "node", "id": 12335005291, "name": "BP", "brand": "BP", "operator": null }, "geometry": { "type": "Point", "coordinates": [ 18.4983104, -34.0011215 ] } },
{ "type": "Feature", "properties": { "element": "node", "id": 12335005300, "name": "BP", "brand": "BP", "operator": null }, "geometry": { "type": "Point", "coordinates": [ 18.4549244, -33.9714743 ] } },
{ "type": "Feature", "properties": { "element": "node", "id": 12335010003, "name": "BP", "brand": "BP", "operator": null }, "geometry": { "type": "Point", "coordinates": [ 18.5493328, -33.9404316 ] } },
{ "type": "Feature", "properties": { "element": "node", "id": 12343680978, "name": "Shell", "brand": "Shell", "operator": null }, "geometry": { "type": "Point", "coordinates": [ 18.3594632, -34.0402455 ] } },
{ "type": "Feature", "properties": { "element": "node", "id": 12343680979, "name": "Shell", "brand": "Shell", "operator": null }, "geometry": { "type": "Point", "coordinates": [ 18.4750467, -34.0754771 ] } },
{ "type": "Feature", "properties": { "element": "node", "id": 12343681053, "name": "Shell", "brand": "Shell", "operator": null }, "geometry": { "type": "Point", "coordinates": [ 18.8927627, -34.1258189 ] } },
{ "type": "Feature", "properties": { "element": "node", "id": 12343681081, "name": "Shell", "brand": "Shell", "operator": null }, "geometry": { "type": "Point", "coordinates": [ 18.600213, -34.052793 ] } },
{ "type": "Feature", "properties": { "element": "node", "id": 12343681082, "name": "Shell", "brand": "Shell", "operator": null }, "geometry": { "type": "Point", "coordinates": [ 18.7888314, -34.0544274 ] } },
{ "type": "Feature", "properties": { "element": "node", "id": 12343681083, "name": "Shell", "brand": "Shell", "operator": null }, "geometry": { "type": "Point", "coordinates": [ 18.8434184, -33.9760442 ] } },
{ "type": "Feature", "properties": { "element": "node", "id": 12343681084, "name": "Shell", "brand": "Shell", "operator": null }, "geometry": { "type": "Point", "coordinates": [ 18.8488443, -33.9407747 ] } },
{ "type": "Feature", "properties": { "element": "node", "id": 12343681085, "name": "Shell", "brand": "Shell", "operator": null }, "geometry": { "type": "Point", "coordinates": [ 18.7002973, -33.94887 ] } },
{ "type": "Feature", "properties": { "element": "node", "id": 12343681086, "name": "Shell", "brand": "Shell", "operator": null }, "geometry": { "type": "Point", "coordinates": [ 18.7125583, -33.89162 ] } },
{ "type": "Feature", "properties": { "element": "node", "id": 12343681087, "name": "Shell", "brand": "Shell", "operator": null }, "geometry": { "type": "Point", "coordinates": [ 18.649402, -33.829763599999986 ] } },
{ "type": "Feature", "properties": { "element": "node", "id": 12343681088, "name": "Shell", "brand": "Shell", "operator": null }, "geometry": { "type": "Point", "coordinates": [ 18.7083683, -33.8671151 ] } },
{ "type": "Feature", "properties": { "element": "node", "id": 12343681089, "name": "Shell", "brand": "Shell", "operator": null }, "geometry": { "type": "Point", "coordinates": [ 18.7322248, -33.8509596 ] } },
{ "type": "Feature", "properties": { "element": "node", "id": 12343681090, "name": "Shell", "brand": "Shell", "operator": null }, "geometry": { "type": "Point", "coordinates": [ 18.7009128, -33.8389258 ] } },
{ "type": "Feature", "properties": { "element": "node", "id": 12343681110, "name": "Shell", "brand": "Shell", "operator": null }, "geometry": { "type": "Point", "coordinates": [ 18.455253, -34.039085 ] } },
{ "type": "Feature", "properties": { "element": "node", "id": 12343681111, "name": "Shell", "brand": "Shell", "operator": null }, "geometry": { "type": "Point", "coordinates": [ 18.4972176, -34.0489351 ] } },
{ "type": "Feature", "properties": { "element": "node", "id": 12343681112, "name": "Shell", "brand": "Shell", "operator": null }, "geometry": { "type": "Point", "coordinates": [ 18.6302377, -34.0154563 ] } },
{ "type": "Feature", "properties": { "element": "node", "id": 12343681113, "name": "Shell", "brand": "Shell", "operator": null }, "geometry": { "type": "Point", "coordinates": [ 18.6748034, -33.9084447 ] } },
{ "type": "Feature", "properties": { "element": "node", "id": 12343681114, "name": "Shell", "brand": "Shell", "operator": null }, "geometry": { "type": "Point", "coordinates": [ 18.5887567, -34.0295093 ] } },
{ "type": "Feature", "properties": { "element": "node", "id": 12343681115, "name": "Shell", "brand": "Shell", "operator": null }, "geometry": { "type": "Point", "coordinates": [ 18.6710453, -33.9154906 ] } },
{ "type": "Feature", "properties": { "element": "node", "id": 12343681116, "name": "Shell", "brand": "Shell", "operator": null }, "geometry": { "type": "Point", "coordinates": [ 18.6638858, -33.8898518 ] } },
{ "type": "Feature", "properties": { "element": "node", "id": 12343681117, "name": "Shell", "brand": "Shell", "operator": null }, "geometry": { "type": "Point", "coordinates": [ 18.5356835, -33.7974162 ] } },
{ "type": "Feature", "properties": { "element": "node", "id": 12343681118, "name": "Shell", "brand": "Shell", "operator": null }, "geometry": { "type": "Point", "coordinates": [ 18.5260331, -34.0340123 ] } },
{ "type": "Feature", "properties": { "element": "node", "id": 12343681119, "name": "Shell", "brand": "Shell", "operator": null }, "geometry": { "type": "Point", "coordinates": [ 18.38921, -33.9160995 ] } },
{ "type": "Feature", "properties": { "element": "node", "id": 12343681120, "name": "Shell", "brand": "Shell", "operator": null }, "geometry": { "type": "Point", "coordinates": [ 18.4630627, -34.01438060000001 ] } },
{ "type": "Feature", "properties": { "element": "node", "id": 12343681121, "name": "Shell", "brand": "Shell", "operator": null }, "geometry": { "type": "Point", "coordinates": [ 18.6470931, -33.8852809 ] } },
{ "type": "Feature", "properties": { "element": "node", "id": 12343681122, "name": "Shell", "brand": "Shell", "operator": null }, "geometry": { "type": "Point", "coordinates": [ 18.3983906, -33.9056459 ] } },
{ "type": "Feature", "properties": { "element": "node", "id": 12343681123, "name": "Shell", "brand": "Shell", "operator": null }, "geometry": { "type": "Point", "coordinates": [ 18.634759, -33.901621099999986 ] } },
{ "type": "Feature", "properties": { "element": "node", "id": 12343681124, "name": "Shell", "brand": "Shell", "operator": null }, "geometry": { "type": "Point", "coordinates": [ 18.4140914, -33.9275605 ] } },
{ "type": "Feature", "properties": { "element": "node", "id": 12343681125, "name": "Shell", "brand": "Shell", "operator": null }, "geometry": { "type": "Point", "coordinates": [ 18.5655131, -33.9966978 ] } },
{ "type": "Feature", "properties": { "element": "node", "id": 12343681126, "name": "Shell", "brand": "Shell", "operator": null }, "geometry": { "type": "Point", "coordinates": [ 18.5074385, -33.8300663 ] } },
{ "type": "Feature", "properties": { "element": "node", "id": 12343681127, "name": "Shell", "brand": "Shell", "operator": null }, "geometry": { "type": "Point", "coordinates": [ 18.4193736, -33.93283850000001 ] } },
{ "type": "Feature", "properties": { "element": "node", "id": 12343681128, "name": "Shell", "brand": "Shell", "operator": null }, "geometry": { "type": "Point", "coordinates": [ 18.4533657, -33.9798394 ] } },
{ "type": "Feature", "properties": { "element": "node", "id": 12343681129, "name": "Shell", "brand": "Shell", "operator": null }, "geometry": { "type": "Point", "coordinates": [ 18.4792873, -33.9882379 ] } },
{ "type": "Feature", "properties": { "element": "node", "id": 12343681130, "name": "Shell", "brand": "Shell", "operator": null }, "geometry": { "type": "Point", "coordinates": [ 18.5980692, -33.9069337 ] } },
{ "type": "Feature", "properties": { "element": "node", "id": 12343681131, "name": "Shell", "brand": "Shell", "operator": null }, "geometry": { "type": "Point", "coordinates": [ 18.5161172, -33.8541095 ] } },
{ "type": "Feature", "properties": { "element": "node", "id": 12343681132, "name": "Shell", "brand": "Shell", "operator": null }, "geometry": { "type": "Point", "coordinates": [ 18.568708, -33.870224 ] } },
{ "type": "Feature", "properties": { "element": "node", "id": 12343681133, "name": "Shell", "brand": "Shell", "operator": null }, "geometry": { "type": "Point", "coordinates": [ 18.5035696, -33.9737722 ] } },
{ "type": "Feature", "properties": { "element": "node", "id": 12343681134, "name": "Shell", "brand": "Shell", "operator": null }, "geometry": { "type": "Point", "coordinates": [ 18.5148046, -33.9749544 ] } },
{ "type": "Feature", "properties": { "element": "node", "id": 12343681135, "name": "Shell", "brand": "Shell", "operator": null }, "geometry": { "type": "Point", "coordinates": [ 18.4779281, -33.9614802 ] } },
{ "type": "Feature", "properties": { "element": "node", "id": 12343681136, "name": "Shell", "brand": "Shell", "operator": null }, "geometry": { "type": "Point", "coordinates": [ 18.530079, -33.974522 ] } },
{ "type": "Feature", "properties": { "element": "node", "id": 12343681137, "name": "Shell", "brand": "Shell", "operator": null }, "geometry": { "type": "Point", "coordinates": [ 18.5544352, -33.9654557 ] } },
{ "type": "Feature", "properties": { "element": "node", "id": 12343681138, "name": "Shell", "brand": "Shell", "operator": null }, "geometry": { "type": "Point", "coordinates": [ 18.4606244, -33.9287341 ] } },
{ "type": "Feature", "properties": { "element": "node", "id": 12343681139, "name": "Shell", "brand": "Shell", "operator": null }, "geometry": { "type": "Point", "coordinates": [ 18.466735, -33.940578 ] } },
{ "type": "Feature", "properties": { "element": "node", "id": 12343681140, "name": "Shell", "brand": "Shell", "operator": null }, "geometry": { "type": "Point", "coordinates": [ 18.5844989, -33.9265859 ] } },
{ "type": "Feature", "properties": { "element": "node", "id": 12343681141, "name": "Shell", "brand": "Shell", "operator": null }, "geometry": { "type": "Point", "coordinates": [ 18.5800029, -33.9333176 ] } },
{ "type": "Feature", "properties": { "element": "node", "id": 12343681142, "name": "Shell", "brand": "Shell", "operator": null }, "geometry": { "type": "Point", "coordinates": [ 18.5194295, -33.9648978 ] } },
{ "type": "Feature", "properties": { "element": "node", "id": 12343681143, "name": "Shell", "brand": "Shell", "operator": null }, "geometry": { "type": "Point", "coordinates": [ 18.4657602, -33.9147815 ] } },
{ "type": "Feature", "properties": { "element": "node", "id": 12343681144, "name": "Shell", "brand": "Shell", "operator": null }, "geometry": { "type": "Point", "coordinates": [ 18.5699383, -33.9085042 ] } },
{ "type": "Feature", "properties": { "element": "node", "id": 12343681145, "name": "Shell", "brand": "Shell", "operator": null }, "geometry": { "type": "Point", "coordinates": [ 18.5649561, -33.9009495 ] } },
{ "type": "Feature", "properties": { "element": "node", "id": 12343681146, "name": "Shell", "brand": "Shell", "operator": null }, "geometry": { "type": "Point", "coordinates": [ 18.5223252, -33.8810874 ] } },
{ "type": "Feature", "properties": { "element": "node", "id": 12343681147, "name": "Shell", "brand": "Shell", "operator": null }, "geometry": { "type": "Point", "coordinates": [ 18.4843982, -33.9277752 ] } },
{ "type": "Feature", "properties": { "element": "node", "id": 12343681148, "name": "Shell", "brand": "Shell", "operator": null }, "geometry": { "type": "Point", "coordinates": [ 18.5442417, -33.9445175 ] } },
{ "type": "Feature", "properties": { "element": "node", "id": 12343681149, "name": "Shell", "brand": "Shell", "operator": null }, "geometry": { "type": "Point", "coordinates": [ 18.51501, -33.892247 ] } },
{ "type": "Feature", "properties": { "element": "node", "id": 12343681150, "name": "Shell", "brand": "Shell", "operator": null }, "geometry": { "type": "Point", "coordinates": [ 18.5226095, -33.9165491 ] } },
{ "type": "Feature", "properties": { "element": "node", "id": 13912416316, "name": "Astron Energy", "brand": "Astron Energy", "operator": null }, "geometry": { "type": "Point", "coordinates": [ 18.4869513, -33.9041697 ] } },
{ "type": "Feature", "properties": { "element": "node", "id": 13912416318, "name": "Astron Energy", "brand": "Astron Energy", "operator": null }, "geometry": { "type": "Point", "coordinates": [ 18.4962143, -33.8152696 ] } },
{ "type": "Feature", "properties": { "element": "node", "id": 13912416327, "name": "Astron Energy", "brand": "Astron Energy", "operator": null }, "geometry": { "type": "Point", "coordinates": [ 18.8583628, -33.932031 ] } },
{ "type": "Feature", "properties": { "element": "node", "id": 13912416330, "name": "Astron Energy", "brand": "Astron Energy", "operator": null }, "geometry": { "type": "Point", "coordinates": [ 18.5435848, -33.9133855 ] } },
{ "type": "Feature", "properties": { "element": "node", "id": 13912416334, "name": "Astron Energy", "brand": "Astron Energy", "operator": null }, "geometry": { "type": "Point", "coordinates": [ 18.5259828, -33.8356934 ] } },
{ "type": "Feature", "properties": { "element": "node", "id": 13912416337, "name": "Astron Energy", "brand": "Astron Energy", "operator": null }, "geometry": { "type": "Point", "coordinates": [ 18.6471764, -33.9561719 ] } },
{ "type": "Feature", "properties": { "element": "node", "id": 13912416338, "name": "Astron Energy", "brand": "Astron Energy", "operator": null }, "geometry": { "type": "Point", "coordinates": [ 18.589761, -33.9051069 ] } },
{ "type": "Feature", "properties": { "element": "node", "id": 13912416346, "name": "Astron Energy", "brand": "Astron Energy", "operator": null }, "geometry": { "type": "Point", "coordinates": [ 18.6328635, -33.8900012 ] } },
{ "type": "Feature", "properties": { "element": "node", "id": 13912416358, "name": "Astron Energy", "brand": "Astron Energy", "operator": null }, "geometry": { "type": "Point", "coordinates": [ 18.5045345, -33.8721309 ] } },
{ "type": "Feature", "properties": { "element": "node", "id": 13912416361, "name": "Astron Energy", "brand": "Astron Energy", "operator": null }, "geometry": { "type": "Point", "coordinates": [ 18.6640643, -34.0417713 ] } },
{ "type": "Feature", "properties": { "element": "node", "id": 13912416383, "name": "Astron Energy", "brand": "Astron Energy", "operator": null }, "geometry": { "type": "Point", "coordinates": [ 18.5234347, -33.9728456 ] } },
{ "type": "Feature", "properties": { "element": "node", "id": 13912416388, "name": "Astron Energy", "brand": "Astron Energy", "operator": null }, "geometry": { "type": "Point", "coordinates": [ 18.4350324, -33.9280307 ] } },
{ "type": "Feature", "properties": { "element": "node", "id": 13912416390, "name": "Astron Energy", "brand": "Astron Energy", "operator": null }, "geometry": { "type": "Point", "coordinates": [ 18.5917921, -33.905118 ] } },
{ "type": "Feature", "properties": { "element": "node", "id": 13912416391, "name": "Astron Energy", "brand": "Astron Energy", "operator": null }, "geometry": { "type": "Point", "coordinates": [ 18.4331207, -33.9275956 ] } },
{ "type": "Feature", "properties": { "element": "node", "id": 13912416392, "name": "Astron Energy", "brand": "Astron Energy", "operator": null }, "geometry": { "type": "Point", "coordinates": [ 18.5662709, -33.9710917 ] } },
{ "type": "Feature", "properties": { "element": "node", "id": 13912416393, "name": "Astron Energy", "brand": "Astron Energy", "operator": null }, "geometry": { "type": "Point", "coordinates": [ 18.479474, -33.9486217 ] } },
{ "type": "Feature", "properties": { "element": "node", "id": 13912423529, "name": "Astron Energy", "brand": "Astron Energy", "operator": null }, "geometry": { "type": "Point", "coordinates": [ 18.4631299, -33.9367166 ] } },
{ "type": "Feature", "properties": { "element": "node", "id": 13912423531, "name": "Astron Energy", "brand": "Astron Energy", "operator": null }, "geometry": { "type": "Point", "coordinates": [ 18.5247356, -34.0010954 ] } },
{ "type": "Feature", "properties": { "element": "node", "id": 13912423538, "name": "Astron Energy", "brand": "Astron Energy", "operator": null }, "geometry": { "type": "Point", "coordinates": [ 18.5917023, -34.0002031 ] } },
{ "type": "Feature", "properties": { "element": "node", "id": 13912423557, "name": "Astron Energy", "brand": "Astron Energy", "operator": null }, "geometry": { "type": "Point", "coordinates": [ 18.5108551, -33.9698755 ] } },
{ "type": "Feature", "properties": { "element": "node", "id": 13912423560, "name": "Astron Energy", "brand": "Astron Energy", "operator": null }, "geometry": { "type": "Point", "coordinates": [ 18.4124596, -33.9254452 ] } },
{ "type": "Feature", "properties": { "element": "node", "id": 13912423588, "name": "Astron Energy", "brand": "Astron Energy", "operator": null }, "geometry": { "type": "Point", "coordinates": [ 18.6769161, -33.9755043 ] } },
{ "type": "Feature", "properties": { "element": "node", "id": 13912423591, "name": "Astron Energy", "brand": "Astron Energy", "operator": null }, "geometry": { "type": "Point", "coordinates": [ 18.5209825, -34.0398621 ] } },
{ "type": "Feature", "properties": { "element": "node", "id": 13912423629, "name": "Astron Energy", "brand": "Astron Energy", "operator": null }, "geometry": { "type": "Point", "coordinates": [ 18.6245749, -34.0009762 ] } },
{ "type": "Feature", "properties": { "element": "node", "id": 13912423641, "name": "Astron Energy", "brand": "Astron Energy", "operator": null }, "geometry": { "type": "Point", "coordinates": [ 18.6819004, -34.0391321 ] } },
{ "type": "Feature", "properties": { "element": "node", "id": 13912423691, "name": "Astron Energy", "brand": "Astron Energy", "operator": null }, "geometry": { "type": "Point", "coordinates": [ 18.6460603, -33.903759 ] } },
{ "type": "Feature", "properties": { "element": "node", "id": 13912423697, "name": "Astron Energy", "brand": "Astron Energy", "operator": null }, "geometry": { "type": "Point", "coordinates": [ 18.6753433, -33.9347094 ] } },
{ "type": "Feature", "properties": { "element": "node", "id": 13912423716, "name": "Astron Energy", "brand": "Astron Energy", "operator": null }, "geometry": { "type": "Point", "coordinates": [ 18.6181368, -34.0448914 ] } },
{ "type": "Feature", "properties": { "element": "node", "id": 13912423717, "name": "Astron Energy", "brand": "Astron Energy", "operator": null }, "geometry": { "type": "Point", "coordinates": [ 18.841289, -34.0888631 ] } },
{ "type": "Feature", "properties": { "element": "way", "id": 88115297, "name": "Shell", "brand": "Shell", "operator": null }, "geometry": { "type": "Point", "coordinates": [ 18.869533167396984, -34.078247523121831 ] } },
{ "type": "Feature", "properties": { "element": "way", "id": 221952969, "name": "Caltex", "brand": "Caltex", "operator": "Caltex" }, "geometry": { "type": "Point", "coordinates": [ 18.464658275117777, -33.914658426149479 ] } },
{ "type": "Feature", "properties": { "element": "way", "id": 221952970, "name": "Caltex", "brand": "Caltex", "operator": "Caltex" }, "geometry": { "type": "Point", "coordinates": [ 18.464767521863294, -33.914293109444259 ] } },
{ "type": "Feature", "properties": { "element": "way", "id": 294208673, "name": "BP", "brand": "BP", "operator": null }, "geometry": { "type": "Point", "coordinates": [ 18.591490563348916, -33.969199572088748 ] } },
{ "type": "Feature", "properties": { "element": "way", "id": 300415828, "name": null, "brand": "Engen", "operator": null }, "geometry": { "type": "Point", "coordinates": [ 18.762543349942138, -33.826348750020685 ] } },
{ "type": "Feature", "properties": { "element": "way", "id": 300415829, "name": null, "brand": "Engen", "operator": null }, "geometry": { "type": "Point", "coordinates": [ 18.765179963748128, -33.828674234965732 ] } },
{ "type": "Feature", "properties": { "element": "way", "id": 316835873, "name": "MBT Petroleum", "brand": "MBT", "operator": "MBT" }, "geometry": { "type": "Point", "coordinates": [ 18.831167821773473, -34.116766760871776 ] } },
{ "type": "Feature", "properties": { "element": "way", "id": 316838680, "name": "Caltex Silversands Service Station", "brand": "Caltex", "operator": "Caltex" }, "geometry": { "type": "Point", "coordinates": [ 18.602287112730281, -34.046193597561349 ] } },
{ "type": "Feature", "properties": { "element": "way", "id": 323229684, "name": "BP", "brand": "BP", "operator": null }, "geometry": { "type": "Point", "coordinates": [ 18.700940178860698, -34.046897772375949 ] } },
{ "type": "Feature", "properties": { "element": "way", "id": 366555051, "name": null, "brand": null, "operator": null }, "geometry": { "type": "Point", "coordinates": [ 18.559773885057748, -33.989952968703271 ] } },
{ "type": "Feature", "properties": { "element": "way", "id": 366555052, "name": null, "brand": "Caltex", "operator": null }, "geometry": { "type": "Point", "coordinates": [ 18.55973022425837, -33.990258548870536 ] } },
{ "type": "Feature", "properties": { "element": "way", "id": 379933709, "name": "BP", "brand": "BP", "operator": null }, "geometry": { "type": "Point", "coordinates": [ 18.665907916173314, -34.027192920100497 ] } },
{ "type": "Feature", "properties": { "element": "way", "id": 389256138, "name": "Engen", "brand": "Engen", "operator": null }, "geometry": { "type": "Point", "coordinates": [ 18.479698631902295, -34.097286547372008 ] } },
{ "type": "Feature", "properties": { "element": "way", "id": 495799414, "name": "Astron Energy", "brand": "Astron Energy", "operator": null }, "geometry": { "type": "Point", "coordinates": [ 18.581447234250984, -34.03261898720416 ] } },
{ "type": "Feature", "properties": { "element": "way", "id": 544728958, "name": "BP Westridge", "brand": "BP", "operator": "BP" }, "geometry": { "type": "Point", "coordinates": [ 18.605657852824656, -34.05817058149718 ] } },
{ "type": "Feature", "properties": { "element": "way", "id": 689519798, "name": "Shell", "brand": "Shell", "operator": null }, "geometry": { "type": "Point", "coordinates": [ 18.463337512509423, -34.046088172430991 ] } },
{ "type": "Feature", "properties": { "element": "way", "id": 690016967, "name": "BP", "brand": "BP", "operator": null }, "geometry": { "type": "Point", "coordinates": [ 18.45733687255791, -34.075332825511566 ] } },
{ "type": "Feature", "properties": { "element": "way", "id": 692055303, "name": "BP", "brand": "BP", "operator": null }, "geometry": { "type": "Point", "coordinates": [ 18.45201224839121, -34.064583845469954 ] } },
{ "type": "Feature", "properties": { "element": "way", "id": 698219463, "name": "Astron Energy", "brand": "Astron Energy", "operator": null }, "geometry": { "type": "Point", "coordinates": [ 18.379608015383539, -33.963515094672381 ] } },
{ "type": "Feature", "properties": { "element": "way", "id": 698315791, "name": "Engen", "brand": "Engen", "operator": null }, "geometry": { "type": "Point", "coordinates": [ 18.462341447809763, -34.060783170818226 ] } },
{ "type": "Feature", "properties": { "element": "way", "id": 702806800, "name": "BP", "brand": "BP", "operator": null }, "geometry": { "type": "Point", "coordinates": [ 18.456092106456705, -34.078560879683579 ] } },
{ "type": "Feature", "properties": { "element": "way", "id": 704396290, "name": "Engen", "brand": "Engen", "operator": null }, "geometry": { "type": "Point", "coordinates": [ 18.47693697494023, -33.820115925012132 ] } },
{ "type": "Feature", "properties": { "element": "way", "id": 705082531, "name": "TotalEnergies", "brand": "TotalEnergies", "operator": null }, "geometry": { "type": "Point", "coordinates": [ 18.477259048820351, -33.822119588445048 ] } },
{ "type": "Feature", "properties": { "element": "way", "id": 736313635, "name": "Caltex", "brand": "Caltex", "operator": "Caltex" }, "geometry": { "type": "Point", "coordinates": [ 18.630348352164514, -33.893612006706277 ] } },
{ "type": "Feature", "properties": { "element": "way", "id": 736614381, "name": "BP", "brand": "BP", "operator": null }, "geometry": { "type": "Point", "coordinates": [ 18.556718221478231, -33.902277254360499 ] } },
{ "type": "Feature", "properties": { "element": "way", "id": 737428410, "name": "Engen", "brand": "Engen", "operator": null }, "geometry": { "type": "Point", "coordinates": [ 18.647825750000827, -33.951043050000607 ] } },
{ "type": "Feature", "properties": { "element": "way", "id": 738059499, "name": "Total", "brand": "Total", "operator": null }, "geometry": { "type": "Point", "coordinates": [ 18.633518763694941, -33.913743170749221 ] } },
{ "type": "Feature", "properties": { "element": "way", "id": 738063003, "name": "Sasol", "brand": "Sasol", "operator": null }, "geometry": { "type": "Point", "coordinates": [ 18.658016184465538, -33.906498052085617 ] } },
{ "type": "Feature", "properties": { "element": "way", "id": 739584805, "name": "Puma", "brand": "Puma", "operator": null }, "geometry": { "type": "Point", "coordinates": [ 18.570132970640959, -33.908911197910975 ] } },
{ "type": "Feature", "properties": { "element": "way", "id": 739586048, "name": "BP", "brand": "BP", "operator": null }, "geometry": { "type": "Point", "coordinates": [ 18.560829436477785, -33.910499481218409 ] } },
{ "type": "Feature", "properties": { "element": "way", "id": 739662436, "name": "MBT Bishop Lavis", "brand": "MBT", "operator": null }, "geometry": { "type": "Point", "coordinates": [ 18.585347450041059, -33.949323095869467 ] } },
{ "type": "Feature", "properties": { "element": "way", "id": 739678085, "name": null, "brand": "Puma", "operator": null }, "geometry": { "type": "Point", "coordinates": [ 18.519387510503623, -33.917157249853744 ] } },
{ "type": "Feature", "properties": { "element": "way", "id": 739825365, "name": "Caltex", "brand": "Caltex", "operator": null }, "geometry": { "type": "Point", "coordinates": [ 18.484360892854543, -33.923506078885886 ] } },
{ "type": "Feature", "properties": { "element": "way", "id": 739839119, "name": "Ben Vorster Motors", "brand": "BP", "operator": null }, "geometry": { "type": "Point", "coordinates": [ 18.48108349620972, -33.922374225992925 ] } },
{ "type": "Feature", "properties": { "element": "way", "id": 739839119, "name": "Ben Vorster Motors", "brand": "BP", "operator": null }, "geometry": { "type": "Point", "coordinates": [ 18.48108349620972, -33.922374225992925 ] } },
{ "type": "Feature", "properties": { "element": "way", "id": 739854636, "name": "Puma Elsiesrivier", "brand": "Puma", "operator": null }, "geometry": { "type": "Point", "coordinates": [ 18.574030997162204, -33.928140238118779 ] } },
{ "type": "Feature", "properties": { "element": "way", "id": 739902867, "name": "Caltex", "brand": "Caltex", "operator": null }, "geometry": { "type": "Point", "coordinates": [ 18.492903410900933, -33.893436027019789 ] } },
{ "type": "Feature", "properties": { "element": "way", "id": 740435021, "name": "Green Petroleum", "brand": "Green Petroleum", "operator": null }, "geometry": { "type": "Point", "coordinates": [ 18.570158796671894, -33.917701218030814 ] } },
{ "type": "Feature", "properties": { "element": "way", "id": 740794747, "name": "BP", "brand": "BP", "operator": null }, "geometry": { "type": "Point", "coordinates": [ 18.518516617053088, -33.867763215156693 ] } },
{ "type": "Feature", "properties": { "element": "way", "id": 740794748, "name": "Caltex", "brand": "Caltex", "operator": null }, "geometry": { "type": "Point", "coordinates": [ 18.519028549888258, -33.874445999929499 ] } },
{ "type": "Feature", "properties": { "element": "way", "id": 741973181, "name": "Total", "brand": "Total", "operator": null }, "geometry": { "type": "Point", "coordinates": [ 18.47034294763688, -33.910738159126844 ] } },
{ "type": "Feature", "properties": { "element": "way", "id": 742028237, "name": "Astron Energy", "brand": "Astron Energy", "operator": null }, "geometry": { "type": "Point", "coordinates": [ 18.418571297801609, -33.91654192636161 ] } },
{ "type": "Feature", "properties": { "element": "way", "id": 742210110, "name": "Caltex", "brand": "Caltex", "operator": null }, "geometry": { "type": "Point", "coordinates": [ 18.702791899055804, -34.009795508842359 ] } },
{ "type": "Feature", "properties": { "element": "way", "id": 742329472, "name": "Engen", "brand": "Engen", "operator": null }, "geometry": { "type": "Point", "coordinates": [ 18.751543353130192, -34.034015133348326 ] } },
{ "type": "Feature", "properties": { "element": "way", "id": 742682190, "name": "Caltex", "brand": "Caltex", "operator": null }, "geometry": { "type": "Point", "coordinates": [ 18.547186650002356, -33.96032369999299 ] } },
{ "type": "Feature", "properties": { "element": "way", "id": 742998101, "name": null, "brand": null, "operator": null }, "geometry": { "type": "Point", "coordinates": [ 18.544234659926978, -33.969751227735443 ] } },
{ "type": "Feature", "properties": { "element": "way", "id": 744482500, "name": "Wynberg Motors", "brand": "Caltex", "operator": null }, "geometry": { "type": "Point", "coordinates": [ 18.472701736733399, -34.005075025478497 ] } },
{ "type": "Feature", "properties": { "element": "way", "id": 744742289, "name": "Shell", "brand": "Shell", "operator": null }, "geometry": { "type": "Point", "coordinates": [ 18.622084871943635, -34.047791835025507 ] } },
{ "type": "Feature", "properties": { "element": "way", "id": 744996233, "name": "Caledonian Motors", "brand": "Puma", "operator": null }, "geometry": { "type": "Point", "coordinates": [ 18.479623690751346, -33.948366460218146 ] } },
{ "type": "Feature", "properties": { "element": "way", "id": 745021483, "name": "Puma", "brand": "Puma", "operator": null }, "geometry": { "type": "Point", "coordinates": [ 18.497470876309329, -33.986482708204882 ] } },
{ "type": "Feature", "properties": { "element": "way", "id": 745041836, "name": "Caltex", "brand": "Caltex", "operator": null }, "geometry": { "type": "Point", "coordinates": [ 18.6528857014832, -33.827042746247393 ] } },
{ "type": "Feature", "properties": { "element": "way", "id": 745070210, "name": null, "brand": "Puma", "operator": null }, "geometry": { "type": "Point", "coordinates": [ 18.476725814479767, -34.037284349335245 ] } },
{ "type": "Feature", "properties": { "element": "way", "id": 745146731, "name": null, "brand": "Engen", "operator": null }, "geometry": { "type": "Point", "coordinates": [ 18.501544379362571, -34.04595637260315 ] } },
{ "type": "Feature", "properties": { "element": "way", "id": 745383227, "name": "Puma", "brand": "Puma", "operator": null }, "geometry": { "type": "Point", "coordinates": [ 18.505067459998802, -34.007290982028181 ] } },
{ "type": "Feature", "properties": { "element": "way", "id": 745477523, "name": null, "brand": null, "operator": null }, "geometry": { "type": "Point", "coordinates": [ 18.514844162344467, -34.00229956842302 ] } },
{ "type": "Feature", "properties": { "element": "way", "id": 745500498, "name": "Auto Centre Diepriver", "brand": "Total", "operator": null }, "geometry": { "type": "Point", "coordinates": [ 18.465795050196117, -34.031037448974807 ] } },
{ "type": "Feature", "properties": { "element": "way", "id": 745976976, "name": "Caltex", "brand": "Caltex", "operator": null }, "geometry": { "type": "Point", "coordinates": [ 18.488385929015646, -34.052955217894315 ] } },
{ "type": "Feature", "properties": { "element": "way", "id": 747351793, "name": "Caltex", "brand": "Caltex", "operator": null }, "geometry": { "type": "Point", "coordinates": [ 18.521250180605332, -33.999846508988881 ] } },
{ "type": "Feature", "properties": { "element": "way", "id": 747846552, "name": "Green Petroleum", "brand": "Green Petroleum", "operator": null }, "geometry": { "type": "Point", "coordinates": [ 18.855751561217247, -33.911543292579793 ] } },
{ "type": "Feature", "properties": { "element": "way", "id": 748702448, "name": null, "brand": null, "operator": null }, "geometry": { "type": "Point", "coordinates": [ 18.54848199064531, -33.970284222621117 ] } },
{ "type": "Feature", "properties": { "element": "way", "id": 749920455, "name": null, "brand": null, "operator": null }, "geometry": { "type": "Point", "coordinates": [ 18.532292369234185, -33.956585104093584 ] } },
{ "type": "Feature", "properties": { "element": "way", "id": 749928651, "name": "BP", "brand": "BP", "operator": null }, "geometry": { "type": "Point", "coordinates": [ 18.471230707339757, -34.057504698391163 ] } },
{ "type": "Feature", "properties": { "element": "way", "id": 749928652, "name": "Caltex", "brand": "Caltex", "operator": null }, "geometry": { "type": "Point", "coordinates": [ 18.471409360000312, -34.057938086169642 ] } },
{ "type": "Feature", "properties": { "element": "way", "id": 764383821, "name": "Puma", "brand": null, "operator": null }, "geometry": { "type": "Point", "coordinates": [ 18.877928249442128, -33.924568799686206 ] } },
{ "type": "Feature", "properties": { "element": "way", "id": 1198787900, "name": null, "brand": "Caltex", "operator": null }, "geometry": { "type": "Point", "coordinates": [ 18.84702962695474, -34.085208862266555 ] } },
{ "type": "Feature", "properties": { "element": "way", "id": 1225437474, "name": null, "brand": "Puma", "operator": null }, "geometry": { "type": "Point", "coordinates": [ 18.513883413448706, -33.916082559531176 ] } },
{ "type": "Feature", "properties": { "element": "way", "id": 1227979163, "name": "Shell", "brand": "Shell", "operator": null }, "geometry": { "type": "Point", "coordinates": [ 18.582025232782584, -33.992635319200353 ] } },
{ "type": "Feature", "properties": { "element": "way", "id": 1280479724, "name": "Orient Service Station", "brand": "Independent", "operator": null }, "geometry": { "type": "Point", "coordinates": [ 18.575589497985568, -33.929821948415913 ] } },
{ "type": "Feature", "properties": { "element": "way", "id": 1326128349, "name": "TotalEnergies", "brand": "TotalEnergies", "operator": null }, "geometry": { "type": "Point", "coordinates": [ 18.456187110033536, -34.085089479910174 ] } },
{ "type": "Feature", "properties": { "element": "way", "id": 1531245547, "name": "Astron Energy", "brand": "Astron Energy", "operator": null }, "geometry": { "type": "Point", "coordinates": [ 18.555609417703483, -33.897256202219204 ] } },
{ "type": "Feature", "properties": { "element": "way", "id": 1531926690, "name": "Engen", "brand": "Engen", "operator": null }, "geometry": { "type": "Point", "coordinates": [ 18.55220786664869, -33.887800356624453 ] } }
]
}
