{
"type": "FeatureCollection",
"name": "innovation_district",
"crs": { "type": "name", "properties": { "name": "urn:ogc:def:crs:OGC:1.3:CRS84" } },
"features": [
{ "type": "Feature", "properties": { "kind": "corridor", "bearing": null }, "geometry": { "type": "LineString", "coordinates": [ [ 18.459608600008455, -33.934236250003579 ], [ 18.460094550011583, -33.934584100003853 ], [ 18.460418199843676, -33.934835024852156 ], [ 18.46099199992436, -33.935266433359509 ], [ 18.461630995191946, -33.935809570798277 ], [ 18.46181915001144, -33.935963100005196 ], [ 18.462402691045746, -33.936432370533701 ] ] } },
{ "type": "Feature", "properties": { "kind": "corridor", "bearing": null }, "geometry": { "type": "LineString", "coordinates": [ [ 18.462402691045746, -33.936432370533701 ], [ 18.46265829464236, -33.936637918759757 ], [ 18.463198636333974, -33.9370751018498 ], [ 18.463877999934908, -33.937627466705422 ], [ 18.46423077678617, -33.937999509755684 ], [ 18.464504835741884, -33.938296671876394 ], [ 18.464872412606173, -33.938719680393753 ], [ 18.464958343325744, -33.938811450479434 ] ] } },
{ "type": "Feature", "properties": { "kind": "corridor", "bearing": null }, "geometry": { "type": "LineString", "coordinates": [ [ 18.464958343325744, -33.938811450479434 ], [ 18.465314208739613, -33.939191495862538 ], [ 18.465678400009896, -33.939675100008955 ], [ 18.465988900009631, -33.940074200006343 ], [ 18.466875766648265, -33.94109293335304 ], [ 18.467167390383644, -33.9414294409303 ] ] } },
{ "type": "Feature", "properties": { "kind": "corridor", "bearing": null }, "geometry": { "type": "LineString", "coordinates": [ [ 18.467167390383644, -33.9414294409303 ], [ 18.467267450011775, -33.941544900008054 ], [ 18.467627273355721, -33.941967564875775 ], [ 18.467954800014425, -33.942367650014631 ], [ 18.468424300010529, -33.942967400012684 ], [ 18.468591300012758, -33.94325360001281 ], [ 18.468808800010351, -33.943638700011334 ], [ 18.46910179434812, -33.94418399376233 ] ] } },
{ "type": "Feature", "properties": { "kind": "corridor", "bearing": null }, "geometry": { "type": "LineString", "coordinates": [ [ 18.46910179434812, -33.94418399376233 ], [ 18.469232850008758, -33.944427900012982 ], [ 18.4694456, -33.9447425 ], [ 18.4697246, -33.94528 ], [ 18.4699722, -33.9457469 ], [ 18.47005715000817, -33.946019900008451 ], [ 18.470213950006052, -33.94632975000642 ], [ 18.470615591249889, -33.947121602437704 ] ] } },
{ "type": "Feature", "properties": { "kind": "corridor", "bearing": null }, "geometry": { "type": "LineString", "coordinates": [ [ 18.470615591249889, -33.947121602437704 ], [ 18.470666324968843, -33.947221625011437 ], [ 18.470912550003916, -33.947686100007289 ], [ 18.471059299949808, -33.947993500017873 ], [ 18.471291085543125, -33.948402607760244 ], [ 18.471615200003697, -33.949080550007309 ], [ 18.471862628317897, -33.949703850504676 ], [ 18.471867050000835, -33.949975850007114 ], [ 18.471880184374708, -33.950119970949935 ] ] } },
{ "type": "Feature", "properties": { "kind": "corridor", "bearing": null }, "geometry": { "type": "LineString", "coordinates": [ [ 18.471880184374708, -33.950119970949935 ], [ 18.471914800000839, -33.950499800006504 ], [ 18.471945800000597, -33.950936700005698 ], [ 18.471969700000596, -33.951328200005797 ], [ 18.47203079999705, -33.952337350006673 ], [ 18.472060935633408, -33.953285769569611 ], [ 18.472061020268729, -33.953318477255529 ] ] } },
{ "type": "Feature", "properties": { "kind": "corridor", "bearing": null }, "geometry": { "type": "LineString", "coordinates": [ [ 18.472061020268729, -33.953318477255529 ], [ 18.472061549997893, -33.953523200004987 ], [ 18.472011550004719, -33.954030150000548 ], [ 18.472000602589631, -33.954075688426073 ], [ 18.471701515268204, -33.955319805177638 ], [ 18.4716869, -33.9553806 ], [ 18.4715332, -33.9559211 ], [ 18.471379900092877, -33.956462586028664 ] ] } },
{ "type": "Feature", "properties": { "kind": "corridor", "bearing": null }, "geometry": { "type": "LineString", "coordinates": [ [ 18.471379900092877, -33.956462586028664 ], [ 18.4712893, -33.9567826 ], [ 18.4710309, -33.9577051 ], [ 18.470972500003679, -33.957923750000447 ], [ 18.4708872, -33.958490799999979 ], [ 18.4708203, -33.9590163 ], [ 18.4706666, -33.9593532 ], [ 18.470564266695071, -33.959505800007896 ], [ 18.470525727691001, -33.959564849585171 ] ] } },
{ "type": "Feature", "properties": { "kind": "corridor", "bearing": null }, "geometry": { "type": "LineString", "coordinates": [ [ 18.470525727691001, -33.959564849585171 ], [ 18.4703919, -33.9597699 ], [ 18.4700683, -33.9603187 ], [ 18.4700246, -33.9605992 ], [ 18.469932100004364, -33.961465850000508 ], [ 18.469480150018324, -33.962610150006867 ] ] } },
{ "type": "Feature", "properties": { "kind": "arrow", "bearing": "310.8" }, "geometry": { "type": "Point", "coordinates": [ 18.459608600008455, -33.934236250003579 ] } },
{ "type": "Feature", "properties": { "kind": "arrow", "bearing": "198.1" }, "geometry": { "type": "Point", "coordinates": [ 18.469480150018324, -33.962610150006867 ] } }
]
}
