{
"type": "FeatureCollection",
"name": "railway_stations",
"crs": { "type": "name", "properties": { "name": "urn:ogc:def:crs:OGC:1.3:CRS84" } },
"features": [
{ "type": "Feature", "properties": { "name": "Hazendal" }, "geometry": { "type": "Point", "coordinates": [ 18.5024891, -33.9531899 ] } },
{ "type": "Feature", "properties": { "name": "Athlone" }, "geometry": { "type": "Point", "coordinates": [ 18.5017257, -33.9627204 ] } },
{ "type": "Feature", "properties": { "name": "Crawford" }, "geometry": { "type": "Point", "coordinates": [ 18.5013599, -33.9764279 ] } },
{ "type": "Feature", "properties": { "name": "Mowbray" }, "geometry": { "type": "Point", "coordinates": [ 18.473901, -33.9466163 ] } },
{ "type": "Feature", "properties": { "name": "Rondebosch" }, "geometry": { "type": "Point", "coordinates": [ 18.4723361, -33.9621644 ] } },
{ "type": "Feature", "properties": { "name": "Observatory" }, "geometry": { "type": "Point", "coordinates": [ 18.4715005, -33.9379572 ] } },
{ "type": "Feature", "properties": { "name": "Langa" }, "geometry": { "type": "Point", "coordinates": [ 18.5299699, -33.939042 ] } },
{ "type": "Feature", "properties": { "name": "Harfield Road" }, "geometry": { "type": "Point", "coordinates": [ 18.4713148, -33.9884353 ] } },
{ "type": "Feature", "properties": { "name": "Kenilworth" }, "geometry": { "type": "Point", "coordinates": [ 18.4730226, -33.9952966 ] } },
{ "type": "Feature", "properties": { "name": "Wynberg" }, "geometry": { "type": "Point", "coordinates": [ 18.4712298, -34.0048619 ] } },
{ "type": "Feature", "properties": { "name": "Wittebome" }, "geometry": { "type": "Point", "coordinates": [ 18.4707681, -34.0139771 ] } },
{ "type": "Feature", "properties": { "name": "Plumstead" }, "geometry": { "type": "Point", "coordinates": [ 18.4697189, -34.021942800000012 ] } },
{ "type": "Feature", "properties": { "name": "Steurhof" }, "geometry": { "type": "Point", "coordinates": [ 18.4688753, -34.0291272 ] } },
{ "type": "Feature", "properties": { "name": "Diep River" }, "geometry": { "type": "Point", "coordinates": [ 18.4670425, -34.0354252 ] } },
{ "type": "Feature", "properties": { "name": "Fish Hoek" }, "geometry": { "type": "Point", "coordinates": [ 18.432552, -34.1371336 ] } },
{ "type": "Feature", "properties": { "name": "Glencairn" }, "geometry": { "type": "Point", "coordinates": [ 18.4320099, -34.1634623 ] } },
{ "type": "Feature", "properties": { "name": "Simon's Town" }, "geometry": { "type": "Point", "coordinates": [ 18.4255075, -34.1868154 ] } },
{ "type": "Feature", "properties": { "name": "Lansdowne" }, "geometry": { "type": "Point", "coordinates": [ 18.5039299, -33.9875915 ] } },
{ "type": "Feature", "properties": { "name": "Wetton" }, "geometry": { "type": "Point", "coordinates": [ 18.5011306, -34.0019806 ] } },
{ "type": "Feature", "properties": { "name": "Ottery" }, "geometry": { "type": "Point", "coordinates": [ 18.4952001, -34.0134909 ] } },
{ "type": "Feature", "properties": { "name": "Southfield" }, "geometry": { "type": "Point", "coordinates": [ 18.4816782, -34.0329571 ] } },
{ "type": "Feature", "properties": { "name": "Sarepta" }, "geometry": { "type": "Point", "coordinates": [ 18.6612321, -33.9266917 ] } },
{ "type": "Feature", "properties": { "name": "Muldersvlei" }, "geometry": { "type": "Point", "coordinates": [ 18.8280059, -33.8311159 ] } },
{ "type": "Feature", "properties": { "name": "Spier" }, "geometry": { "type": "Point", "coordinates": [ 18.7820293, -33.9728711 ] } },
{ "type": "Feature", "properties": { "name": "Kraaifontein" }, "geometry": { "type": "Point", "coordinates": [ 18.723979, -33.8470798 ] } },
{ "type": "Feature", "properties": { "name": "Eikenfontein" }, "geometry": { "type": "Point", "coordinates": [ 18.7113336, -33.8570878 ] } },
{ "type": "Feature", "properties": { "name": "Klapmuts" }, "geometry": { "type": "Point", "coordinates": [ 18.8697378, -33.806312 ] } },
{ "type": "Feature", "properties": { "name": "Ysterplaat" }, "geometry": { "type": "Point", "coordinates": [ 18.4766999, -33.920020699999988 ] } },
{ "type": "Feature", "properties": { "name": "Acacia Park" }, "geometry": { "type": "Point", "coordinates": [ 18.5287803, -33.8946913 ] } },
{ "type": "Feature", "properties": { "name": "Monte Vista" }, "geometry": { "type": "Point", "coordinates": [ 18.5489611, -33.8916425 ] } },
{ "type": "Feature", "properties": { "name": "De Grendel" }, "geometry": { "type": "Point", "coordinates": [ 18.5787254, -33.8934812 ] } },
{ "type": "Feature", "properties": { "name": "Tygerberg" }, "geometry": { "type": "Point", "coordinates": [ 18.6012927, -33.9074524 ] } },
{ "type": "Feature", "properties": { "name": "Stikland" }, "geometry": { "type": "Point", "coordinates": [ 18.6571982, -33.9044767 ] } },
{ "type": "Feature", "properties": { "name": "Brackenfell" }, "geometry": { "type": "Point", "coordinates": [ 18.6886427, -33.8808441 ] } },
{ "type": "Feature", "properties": { "name": "Avondale" }, "geometry": { "type": "Point", "coordinates": [ 18.593085, -33.8977737 ] } },
{ "type": "Feature", "properties": { "name": "Oosterzee" }, "geometry": { "type": "Point", "coordinates": [ 18.606845, -33.9004062 ] } },
{ "type": "Feature", "properties": { "name": "Bellville" }, "geometry": { "type": "Point", "coordinates": [ 18.6270614, -33.9064324 ] } },
{ "type": "Feature", "properties": { "name": "Bonteheuwel" }, "geometry": { "type": "Point", "coordinates": [ 18.5499965, -33.9419821 ] } },
{ "type": "Feature", "properties": { "name": "Heideveld" }, "geometry": { "type": "Point", "coordinates": [ 18.5617681, -33.9699309 ] } },
{ "type": "Feature", "properties": { "name": "Nolungile" }, "geometry": { "type": "Point", "coordinates": [ 18.6489768, -34.0169553 ] } },
{ "type": "Feature", "properties": { "name": "Khayelitsha" }, "geometry": { "type": "Point", "coordinates": [ 18.6707865, -34.0479943 ] } },
{ "type": "Feature", "properties": { "name": "Nonkqubela" }, "geometry": { "type": "Point", "coordinates": [ 18.6631456, -34.0269672 ] } },
{ "type": "Feature", "properties": { "name": "Dassenberg" }, "geometry": { "type": "Point", "coordinates": [ 18.5896472, -33.516601499999986 ] } },
{ "type": "Feature", "properties": { "name": "Elgin" }, "geometry": { "type": "Point", "coordinates": [ 19.0416668, -34.1512426 ] } },
{ "type": "Feature", "properties": { "name": "Groot-Drakenstein" }, "geometry": { "type": "Point", "coordinates": [ 18.9764076, -33.8637918 ] } },
{ "type": "Feature", "properties": { "name": "Groenrivier" }, "geometry": { "type": "Point", "coordinates": [ 18.6132799, -33.5515038 ] } },
{ "type": "Feature", "properties": { "name": "Simondium" }, "geometry": { "type": "Point", "coordinates": [ 18.953549, -33.8340249 ] } },
{ "type": "Feature", "properties": { "name": "Cape Town Station" }, "geometry": { "type": "Point", "coordinates": [ 18.4263523, -33.9224221 ] } },
{ "type": "Feature", "properties": { "name": "Woodstock" }, "geometry": { "type": "Point", "coordinates": [ 18.446164, -33.925312899999987 ] } },
{ "type": "Feature", "properties": { "name": "Paarden Eiland" }, "geometry": { "type": "Point", "coordinates": [ 18.4669547, -33.9224742 ] } },
{ "type": "Feature", "properties": { "name": "Koeberg Road" }, "geometry": { "type": "Point", "coordinates": [ 18.4787975, -33.9257273 ] } },
{ "type": "Feature", "properties": { "name": "Maitland" }, "geometry": { "type": "Point", "coordinates": [ 18.4870506, -33.9246966 ] } },
{ "type": "Feature", "properties": { "name": "Esplanade" }, "geometry": { "type": "Point", "coordinates": [ 18.4459658, -33.9236869 ] } },
{ "type": "Feature", "properties": { "name": "Mutual" }, "geometry": { "type": "Point", "coordinates": [ 18.5130827, -33.9222631 ] } },
{ "type": "Feature", "properties": { "name": "Ndabeni" }, "geometry": { "type": "Point", "coordinates": [ 18.4946435, -33.929433 ] } },
{ "type": "Feature", "properties": { "name": "Nyanga" }, "geometry": { "type": "Point", "coordinates": [ 18.5600101, -33.9928649 ] } },
{ "type": "Feature", "properties": { "name": "Philippi" }, "geometry": { "type": "Point", "coordinates": [ 18.5853133, -34.0133405 ] } },
{ "type": "Feature", "properties": { "name": "Vasco" }, "geometry": { "type": "Point", "coordinates": [ 18.558435, -33.911199799999984 ] } },
{ "type": "Feature", "properties": { "name": "Pinelands" }, "geometry": { "type": "Point", "coordinates": [ 18.4906562, -33.939601399999987 ] } },
{ "type": "Feature", "properties": { "name": "Steenbras" }, "geometry": { "type": "Point", "coordinates": [ 18.9417741, -34.1462041 ] } },
{ "type": "Feature", "properties": { "name": "Salt River" }, "geometry": { "type": "Point", "coordinates": [ 18.4650145, -33.9272293 ] } },
{ "type": "Feature", "properties": { "name": "Cape Point Funicular (Upper)" }, "geometry": { "type": "Point", "coordinates": [ 18.4892635, -34.35335950000001 ] } },
{ "type": "Feature", "properties": { "name": "Chris Hani" }, "geometry": { "type": "Point", "coordinates": [ 18.7090597, -34.0548061 ] } },
{ "type": "Feature", "properties": { "name": "Sir Lowry's Pass Railway Station" }, "geometry": { "type": "Point", "coordinates": [ 18.9099362, -34.1182884 ] } },
{ "type": "Feature", "properties": { "name": "Kalk Bay" }, "geometry": { "type": "Point", "coordinates": [ 18.45008, -34.1262669 ] } },
{ "type": "Feature", "properties": { "name": "St James" }, "geometry": { "type": "Point", "coordinates": [ 18.4584551, -34.1193 ] } },
{ "type": "Feature", "properties": { "name": "Muizenberg" }, "geometry": { "type": "Point", "coordinates": [ 18.4680664, -34.1093231 ] } },
{ "type": "Feature", "properties": { "name": "False Bay" }, "geometry": { "type": "Point", "coordinates": [ 18.4687919, -34.1024313 ] } },
{ "type": "Feature", "properties": { "name": "Steenberg" }, "geometry": { "type": "Point", "coordinates": [ 18.4636733, -34.076667 ] } },
{ "type": "Feature", "properties": { "name": "The \"Blue Train\"" }, "geometry": { "type": "Point", "coordinates": [ 18.3988862, -33.902529 ] } },
{ "type": "Feature", "properties": { "name": "Woltemade" }, "geometry": { "type": "Point", "coordinates": [ 18.5076432, -33.9221329 ] } },
{ "type": "Feature", "properties": { "name": "Chempet" }, "geometry": { "type": "Point", "coordinates": [ 18.5286328, -33.8614982 ] } },
{ "type": "Feature", "properties": { "name": "Atlantis" }, "geometry": { "type": "Point", "coordinates": [ 18.4554705, -33.5977332 ] } },
{ "type": "Feature", "properties": { "name": "Cape Point Funicular (Lower)" }, "geometry": { "type": "Point", "coordinates": [ 18.4846787, -34.3506565 ] } },
{ "type": "Feature", "properties": { "name": "Paarl" }, "geometry": { "type": "Point", "coordinates": [ 18.9647315, -33.7649756 ] } },
{ "type": "Feature", "properties": { "name": "Newlands" }, "geometry": { "type": "Point", "coordinates": [ 18.4676075, -33.974217 ] } },
{ "type": "Feature", "properties": { "name": "Rosebank" }, "geometry": { "type": "Point", "coordinates": [ 18.4731447, -33.9547309 ] } },
{ "type": "Feature", "properties": { "name": "Heathfield" }, "geometry": { "type": "Point", "coordinates": [ 18.4655838, -34.045897400000015 ] } },
{ "type": "Feature", "properties": { "name": "Retreat" }, "geometry": { "type": "Point", "coordinates": [ 18.4635509, -34.0605154 ] } },
{ "type": "Feature", "properties": { "name": "Kentemade" }, "geometry": { "type": "Point", "coordinates": [ 18.4977606, -33.9130098 ] } },
{ "type": "Feature", "properties": { "name": "Century City" }, "geometry": { "type": "Point", "coordinates": [ 18.5115116, -33.9013092 ] } },
{ "type": "Feature", "properties": { "name": "Claremont" }, "geometry": { "type": "Point", "coordinates": [ 18.4671433, -33.9817059 ] } },
{ "type": "Feature", "properties": { "name": "Kapteinsklip Station" }, "geometry": { "type": "Point", "coordinates": [ 18.6207325, -34.0670502 ] } },
{ "type": "Feature", "properties": { "name": "Parow" }, "geometry": { "type": "Point", "coordinates": [ 18.5862413, -33.909588 ] } },
{ "type": "Feature", "properties": { "name": "Elsies River" }, "geometry": { "type": "Point", "coordinates": [ 18.5691391, -33.9105228 ] } },
{ "type": "Feature", "properties": { "name": "Goodwood" }, "geometry": { "type": "Point", "coordinates": [ 18.5475411, -33.9144583 ] } },
{ "type": "Feature", "properties": { "name": "Thornton" }, "geometry": { "type": "Point", "coordinates": [ 18.5325026, -33.9188521 ] } },
{ "type": "Feature", "properties": { "name": "Wellington" }, "geometry": { "type": "Point", "coordinates": [ 18.992048, -33.6346862 ] } },
{ "type": "Feature", "properties": { "name": "Dal Josafat" }, "geometry": { "type": "Point", "coordinates": [ 18.9803396, -33.7065613 ] } },
{ "type": "Feature", "properties": { "name": "Mbekweni" }, "geometry": { "type": "Point", "coordinates": [ 18.9854988, -33.6741243 ] } },
{ "type": "Feature", "properties": { "name": "Huguenot" }, "geometry": { "type": "Point", "coordinates": [ 18.9766818, -33.7293037 ] } },
{ "type": "Feature", "properties": { "name": "Kuyasa" }, "geometry": { "type": "Point", "coordinates": [ 18.6947528, -34.054895 ] } },
{ "type": "Feature", "properties": { "name": "Malan" }, "geometry": { "type": "Point", "coordinates": [ 18.9828914, -33.579891 ] } },
{ "type": "Feature", "properties": { "name": "Elgin" }, "geometry": { "type": "Point", "coordinates": [ 19.041408, -34.1511616 ] } },
{ "type": "Feature", "properties": { "name": "Pentech" }, "geometry": { "type": "Point", "coordinates": [ 18.646105, -33.9348118 ] } },
{ "type": "Feature", "properties": { "name": "Unibell" }, "geometry": { "type": "Point", "coordinates": [ 18.6285953, -33.9370456 ] } },
{ "type": "Feature", "properties": { "name": "Belhar" }, "geometry": { "type": "Point", "coordinates": [ 18.6090412, -33.9395249 ] } },
{ "type": "Feature", "properties": { "name": "Lavistown" }, "geometry": { "type": "Point", "coordinates": [ 18.5837839, -33.9433867 ] } },
{ "type": "Feature", "properties": { "name": "Mandalay" }, "geometry": { "type": "Point", "coordinates": [ 18.6245774, -34.018921799999987 ] } },
{ "type": "Feature", "properties": { "name": "Stock Road" }, "geometry": { "type": "Point", "coordinates": [ 18.6063853, -34.0141789 ] } },
{ "type": "Feature", "properties": { "name": "Lentegeur" }, "geometry": { "type": "Point", "coordinates": [ 18.6113081, -34.0343012 ] } },
{ "type": "Feature", "properties": { "name": "Netreg" }, "geometry": { "type": "Point", "coordinates": [ 18.5636633, -33.9524689 ] } },
{ "type": "Feature", "properties": { "name": "Firgrove" }, "geometry": { "type": "Point", "coordinates": [ 18.7925637, -34.0555322 ] } },
{ "type": "Feature", "properties": { "name": "Somerset West" }, "geometry": { "type": "Point", "coordinates": [ 18.8414675, -34.0843453 ] } },
{ "type": "Feature", "properties": { "name": "Van der Stel" }, "geometry": { "type": "Point", "coordinates": [ 18.8530555, -34.094979 ] } },
{ "type": "Feature", "properties": { "name": "Strand" }, "geometry": { "type": "Point", "coordinates": [ 18.8323835, -34.1149013 ] } },
{ "type": "Feature", "properties": { "name": "Sunny Cove" }, "geometry": { "type": "Point", "coordinates": [ 18.437119, -34.144300599999987 ] } },
{ "type": "Feature", "properties": { "name": "Eerste River" }, "geometry": { "type": "Point", "coordinates": [ 18.7309673, -34.00075 ] } },
{ "type": "Feature", "properties": { "name": "Kuils River" }, "geometry": { "type": "Point", "coordinates": [ 18.6776948, -33.9336682 ] } },
{ "type": "Feature", "properties": { "name": "Faure" }, "geometry": { "type": "Point", "coordinates": [ 18.7472906, -34.026323 ] } },
{ "type": "Feature", "properties": { "name": "Melton Rose" }, "geometry": { "type": "Point", "coordinates": [ 18.720553, -33.9895557 ] } },
{ "type": "Feature", "properties": { "name": "Blackheath" }, "geometry": { "type": "Point", "coordinates": [ 18.7015479, -33.9643262 ] } },
{ "type": "Feature", "properties": { "name": "Stellenbosch" }, "geometry": { "type": "Point", "coordinates": [ 18.8496778, -33.9388168 ] } },
{ "type": "Feature", "properties": { "name": "Oosterzee" }, "geometry": { "type": "Point", "coordinates": [ 18.607028, -33.8998763 ] } },
{ "type": "Feature", "properties": { "name": "Soetendal" }, "geometry": { "type": "Point", "coordinates": [ 18.9811632, -33.5075207 ] } },
{ "type": "Feature", "properties": { "name": "Malmesbury" }, "geometry": { "type": "Point", "coordinates": [ 18.7230423, -33.4679069 ] } },
{ "type": "Feature", "properties": { "name": "Kalbaskraal" }, "geometry": { "type": "Point", "coordinates": [ 18.6476507, -33.5725371 ] } },
{ "type": "Feature", "properties": { "name": "Klipheuwel" }, "geometry": { "type": "Point", "coordinates": [ 18.7006417, -33.6992714 ] } },
{ "type": "Feature", "properties": { "name": "Lakeside" }, "geometry": { "type": "Point", "coordinates": [ 18.4624916, -34.0884585 ] } },
{ "type": "Feature", "properties": { "name": "Lynedoch" }, "geometry": { "type": "Point", "coordinates": [ 18.7712465, -33.9813338 ] } },
{ "type": "Feature", "properties": { "name": "Vlottenburg" }, "geometry": { "type": "Point", "coordinates": [ 18.7998831, -33.9620436 ] } },
{ "type": "Feature", "properties": { "name": "Koelenhof" }, "geometry": { "type": "Point", "coordinates": [ 18.8195668, -33.8739536 ] } },
{ "type": "Feature", "properties": { "name": "Fisantkraal" }, "geometry": { "type": "Point", "coordinates": [ 18.7114334, -33.785941 ] } },
{ "type": "Feature", "properties": { "name": "Mellish" }, "geometry": { "type": "Point", "coordinates": [ 18.7183799, -33.7601491 ] } },
{ "type": "Feature", "properties": { "name": "Mikpunt" }, "geometry": { "type": "Point", "coordinates": [ 18.7075393, -33.7220795 ] } },
{ "type": "Feature", "properties": { "name": "Wintervogel" }, "geometry": { "type": "Point", "coordinates": [ 18.6700284, -33.6295579 ] } },
{ "type": "Feature", "properties": { "name": "Abbotsdale" }, "geometry": { "type": "Point", "coordinates": [ 18.6817026, -33.4927741 ] } },
{ "type": "Feature", "properties": { "name": "Mitchell's Plain" }, "geometry": { "type": "Point", "coordinates": [ 18.6191604, -34.0495297 ] } },
{ "type": "Feature", "properties": { "name": "Du Toit" }, "geometry": { "type": "Point", "coordinates": [ 18.8541806, -33.9238277 ] } }
]
}
