{
"type": "FeatureCollection",
"name": "recreational_hubs",
"crs": { "type": "name", "properties": { "name": "urn:ogc:def:crs:OGC:1.3:CRS84" } },
"features": [
{ "type": "Feature", "properties": { "name": "Athlone Community Centre" }, "geometry": { "type": "Point", "coordinates": [ 18.510033174931714, -33.960674447785131 ] } },
{ "type": "Feature", "properties": { "name": "Lotus River Recreation Centre" }, "geometry": { "type": "Point", "coordinates": [ 18.520419950794228, -34.040972109446848 ] } },
{ "type": "Feature", "properties": { "name": "Kleinvlei Community Hall" }, "geometry": { "type": "Point", "coordinates": [ 18.717204172891353, -33.986936266069669 ] } },
{ "type": "Feature", "properties": { "name": "Duinefontein Community Centre" }, "geometry": { "type": "Point", "coordinates": [ 18.551938808588122, -33.975351722026602 ] } },
{ "type": "Feature", "properties": { "name": "The Hague Community Centre" }, "geometry": { "type": "Point", "coordinates": [ 18.645751751187657, -33.964499728342822 ] } },
{ "type": "Feature", "properties": { "name": "Lansport Community Centre" }, "geometry": { "type": "Point", "coordinates": [ 18.535120207580718, -33.993528284048359 ] } },
{ "type": "Feature", "properties": { "name": "Cathkin Community Centre" }, "geometry": { "type": "Point", "coordinates": [ 18.553599635444957, -33.964423892830631 ] } },
{ "type": "Feature", "properties": { "name": "Nomzamo Recreation Centre" }, "geometry": { "type": "Point", "coordinates": [ 18.859318429678414, -34.115533841082112 ] } },
{ "type": "Feature", "properties": { "name": "Leonsdale Community Centre" }, "geometry": { "type": "Point", "coordinates": [ 18.5747086935556, -33.919635085558241 ] } },
{ "type": "Feature", "properties": { "name": "Delft South Community Hall" }, "geometry": { "type": "Point", "coordinates": [ 18.639604791700837, -33.986131609464529 ] } },
{ "type": "Feature", "properties": { "name": "Eastridge Community Centre" }, "geometry": { "type": "Point", "coordinates": [ 18.633333084068823, -34.04676896195754 ] } },
{ "type": "Feature", "properties": { "name": "Parkwood Community Centre" }, "geometry": { "type": "Point", "coordinates": [ 18.493274690081432, -34.03306717702629 ] } },
{ "type": "Feature", "properties": { "name": "Sarepta Recreation Centre" }, "geometry": { "type": "Point", "coordinates": [ 18.672093613507585, -33.931825758050913 ] } },
{ "type": "Feature", "properties": { "name": "Wesbank Multipurpose Centre" }, "geometry": { "type": "Point", "coordinates": [ 18.65894829646049, -33.969363697675348 ] } },
{ "type": "Feature", "properties": { "name": "Saxonsea Community Hall" }, "geometry": { "type": "Point", "coordinates": [ 18.487372508034809, -33.549872986105143 ] } },
{ "type": "Feature", "properties": { "name": "Masiphumelele Community Hall" }, "geometry": { "type": "Point", "coordinates": [ 18.378245743140074, -34.12858926277088 ] } },
{ "type": "Feature", "properties": { "name": "Gugulethu Indoor Sports Centre" }, "geometry": { "type": "Point", "coordinates": [ 18.566760220258651, -33.98077302918179 ] } },
{ "type": "Feature", "properties": { "name": "Facreton Community Centre" }, "geometry": { "type": "Point", "coordinates": [ 18.518722431351318, -33.905232642907542 ] } },
{ "type": "Feature", "properties": { "name": "Eersteriver Multipurpose Centre" }, "geometry": { "type": "Point", "coordinates": [ 18.724805152683555, -34.00794434902722 ] } },
{ "type": "Feature", "properties": { "name": "Beacon Valley Community Centre" }, "geometry": { "type": "Point", "coordinates": [ 18.627179058433967, -34.039706376510757 ] } },
{ "type": "Feature", "properties": { "name": "Bardale Multipurpose Centre" }, "geometry": { "type": "Point", "coordinates": [ 18.680420136503646, -33.996224564097041 ] } },
{ "type": "Feature", "properties": { "name": "Rebecca van Amsterdam Community Hall" }, "geometry": { "type": "Point", "coordinates": [ 18.49811163459281, -33.576420407093281 ] } },
{ "type": "Feature", "properties": { "name": "Joe Slovo  Recreation Centre" }, "geometry": { "type": "Point", "coordinates": [ 18.51005636583908, -33.872154346464967 ] } },
{ "type": "Feature", "properties": { "name": "Nelson Mandela Youth & Family Recreation Centre" }, "geometry": { "type": "Point", "coordinates": [ 18.637774336867221, -34.061414216518649 ] } },
{ "type": "Feature", "properties": { "name": "Weltevreden Valley Community Hall" }, "geometry": { "type": "Point", "coordinates": [ 18.579455298990403, -34.018263719802626 ] } },
{ "type": "Feature", "properties": { "name": "Khayelitsha CBD Multipurpose Centre" }, "geometry": { "type": "Point", "coordinates": [ 18.674342136189612, -34.04777896056504 ] } },
{ "type": "Feature", "properties": { "name": "O.R Tambo Indoor Sports Centre" }, "geometry": { "type": "Point", "coordinates": [ 18.660435879621527, -34.015058748397244 ] } },
{ "type": "Feature", "properties": { "name": "Du Noon Community Hall" }, "geometry": { "type": "Point", "coordinates": [ 18.543210949764148, -33.813588366249682 ] } },
{ "type": "Feature", "properties": { "name": "Bridgetown Community Centre" }, "geometry": { "type": "Point", "coordinates": [ 18.529737803333873, -33.955524656585098 ] } },
{ "type": "Feature", "properties": { "name": "Hout Bay Sport  Recreation Centre" }, "geometry": { "type": "Point", "coordinates": [ 18.341930547380628, -34.053875569688977 ] } },
{ "type": "Feature", "properties": { "name": "Gugulethu Stadium Recreation Centre" }, "geometry": { "type": "Point", "coordinates": [ 18.567498221298827, -33.988923749074608 ] } },
{ "type": "Feature", "properties": { "name": "Fisantekraal Multipurpose Centre" }, "geometry": { "type": "Point", "coordinates": [ 18.717727182829559, -33.782532342342115 ] } },
{ "type": "Feature", "properties": { "name": "Monwabisi Recreation Centre" }, "geometry": { "type": "Point", "coordinates": [ 18.526988645950777, -33.941257623873483 ] } },
{ "type": "Feature", "properties": { "name": "Ocean View Recreation Centre" }, "geometry": { "type": "Point", "coordinates": [ 18.353844170866946, -34.148682807223324 ] } },
{ "type": "Feature", "properties": { "name": "Mandalay Community Hall" }, "geometry": { "type": "Point", "coordinates": [ 18.629294099549622, -34.015787625025467 ] } },
{ "type": "Feature", "properties": { "name": "Coniston Park Recreation Centre" }, "geometry": { "type": "Point", "coordinates": [ 18.472042454080757, -34.075779745273849 ] } },
{ "type": "Feature", "properties": { "name": "Steenberg Community Centre" }, "geometry": { "type": "Point", "coordinates": [ 18.477082218420335, -34.070686410546564 ] } },
{ "type": "Feature", "properties": { "name": "Seawinds Community Centre" }, "geometry": { "type": "Point", "coordinates": [ 18.48779014379355, -34.075724253103658 ] } },
{ "type": "Feature", "properties": { "name": "Ravensmead Recreation Centre" }, "geometry": { "type": "Point", "coordinates": [ 18.59799958611648, -33.925690861145391 ] } },
{ "type": "Feature", "properties": { "name": "Desmond Tutu Recreation Centre" }, "geometry": { "type": "Point", "coordinates": [ 18.705337330071753, -34.047299276794043 ] } },
{ "type": "Feature", "properties": { "name": "Andile Msizi Recreation Centre" }, "geometry": { "type": "Point", "coordinates": [ 18.655509226650938, -34.021140615906887 ] } },
{ "type": "Feature", "properties": { "name": "Mandela Peace Park Recreation Centre" }, "geometry": { "type": "Point", "coordinates": [ 18.636705407256141, -33.958705741007151 ] } },
{ "type": "Feature", "properties": { "name": "Swartklip Indoor Sports Centre" }, "geometry": { "type": "Point", "coordinates": [ 18.641761120285256, -34.051346336043913 ] } },
{ "type": "Feature", "properties": { "name": "Zolani Recreation Centre" }, "geometry": { "type": "Point", "coordinates": [ 18.584370033113807, -33.991431828820311 ] } },
{ "type": "Feature", "properties": { "name": "Langa Indoor Sports Centre" }, "geometry": { "type": "Point", "coordinates": [ 18.522428825416348, -33.948485712651191 ] } },
{ "type": "Feature", "properties": { "name": "Bonteheuwel Community Centre" }, "geometry": { "type": "Point", "coordinates": [ 18.551028053433932, -33.944812672483899 ] } },
{ "type": "Feature", "properties": { "name": "Kalksteenfontein Community Centre" }, "geometry": { "type": "Point", "coordinates": [ 18.56462710683612, -33.946751847850265 ] } },
{ "type": "Feature", "properties": { "name": "Valhalla Park Community Centre" }, "geometry": { "type": "Point", "coordinates": [ 18.571397495333482, -33.953580802650713 ] } },
{ "type": "Feature", "properties": { "name": "FF Erasmus Community Hall" }, "geometry": { "type": "Point", "coordinates": [ 18.708540122300306, -33.855787632057996 ] } },
{ "type": "Feature", "properties": { "name": "Scottsdene Recreation Centre" }, "geometry": { "type": "Point", "coordinates": [ 18.721492182983727, -33.867086571254944 ] } },
{ "type": "Feature", "properties": { "name": "Proteaville Recreation Centre" }, "geometry": { "type": "Point", "coordinates": [ 18.651236234593473, -33.919816181305656 ] } },
{ "type": "Feature", "properties": { "name": "Philippi West Community Hall" }, "geometry": { "type": "Point", "coordinates": [ 18.574800806804838, -34.011140485037608 ] } },
{ "type": "Feature", "properties": { "name": "Crossroads Multipurpose Centre" }, "geometry": { "type": "Point", "coordinates": [ 18.598189188133624, -33.994138689578321 ] } },
{ "type": "Feature", "properties": { "name": "Colorado Community Hall" }, "geometry": { "type": "Point", "coordinates": [ 18.587713464684906, -34.026951202432642 ] } },
{ "type": "Feature", "properties": { "name": "Woodlands Community Hall" }, "geometry": { "type": "Point", "coordinates": [ 18.599975591382343, -34.038001349425947 ] } }
]
}
