{
"type": "FeatureCollection",
"name": "study_area",
"crs": { "type": "name", "properties": { "name": "urn:ogc:def:crs:OGC:1.3:CRS84" } },
"features": [
{ "type": "Feature", "properties": { "name": "study area" }, "geometry": { "type": "Polygon", "coordinates": [ [ [ 18.461301094246927, -33.953220302356684 ], [ 18.462186914615625, -33.953322681860591 ], [ 18.463074535362804, -33.953603669790702 ], [ 18.463186844085676, -33.953337487568632 ], [ 18.463232932773209, -33.952991078501626 ], [ 18.463329885633915, -33.952772431972136 ], [ 18.463387623342488, -33.952718422143043 ], [ 18.463384321842724, -33.952614185545812 ], [ 18.463328625600301, -33.951692740949838 ], [ 18.463306663174258, -33.951332380856179 ], [ 18.46329573647888, -33.951178164594886 ], [ 18.463235487426065, -33.951071805321696 ], [ 18.463020138276988, -33.950658686107857 ], [ 18.462933150165306, -33.950476433882777 ], [ 18.462752265586463, -33.950135154333303 ], [ 18.462697106253138, -33.95002877846229 ], [ 18.462646380633057, -33.949928752990708 ], [ 18.462646380633053, -33.949928752990694 ], [ 18.462646380633029, -33.949928752990658 ], [ 18.462244803504991, -33.949136877618763 ], [ 18.46208526954084, -33.948821571712827 ], [ 18.461893988396504, -33.948350568501304 ], [ 18.461811221228462, -33.948194465639993 ], [ 18.461783991389062, -33.948142558080001 ], [ 18.461678858181383, -33.947939980095676 ], [ 18.461336733238589, -33.947374556771805 ], [ 18.461205696713925, -33.947130643032366 ], [ 18.461205696713911, -33.947130643032338 ], [ 18.460946178380993, -33.94664756669988 ], [ 18.460870680952191, -33.946513870749946 ], [ 18.460757833559523, -33.946369699932923 ], [ 18.460525438113837, -33.946085790393035 ], [ 18.460232693106043, -33.945741883535725 ], [ 18.460154004795029, -33.945651075781029 ], [ 18.460154004795019, -33.945651075781015 ], [ 18.459867875747957, -33.945320875642203 ], [ 18.45898655099251, -33.944308407593212 ], [ 18.458730064552014, -33.943996893902657 ], [ 18.45841958662146, -33.943597776702035 ], [ 18.458350925903702, -33.943508070026972 ], [ 18.45822194055803, -33.943336772675693 ], [ 18.458138271536988, -33.943247410131832 ], [ 18.458138271536935, -33.943247410131775 ], [ 18.458138271536804, -33.94324741013164 ], [ 18.458052344309099, -33.943155635470198 ], [ 18.457865829654864, -33.942948885307516 ], [ 18.457570663808976, -33.942609174201159 ], [ 18.457433843315645, -33.942460806022808 ], [ 18.45716530671438, -33.942242454014227 ], [ 18.456642071339672, -33.941819084765932 ], [ 18.456395970522664, -33.941621165983115 ], [ 18.456395970522632, -33.941621165983094 ], [ 18.455812430793653, -33.941151867192794 ], [ 18.455767318584194, -33.941115321450702 ], [ 18.455579164512589, -33.940961783077555 ], [ 18.45545425417172, -33.940857750500342 ], [ 18.455000843016538, -33.940472332192925 ], [ 18.454623858596747, -33.940188881520214 ], [ 18.45452630891916, -33.940114398963829 ], [ 18.45432827036106, -33.939960851330959 ], [ 18.453972461423774, -33.93970614408785 ], [ 18.453356360100738, -33.939219331817121 ], [ 18.452800481744244, -33.938684528935696 ], [ 18.452310179360584, -33.938106886713967 ], [ 18.451890174036464, -33.937491968930864 ], [ 18.451544509502863, -33.936845698262047 ], [ 18.451276513235953, -33.936174299215125 ], [ 18.451088764467904, -33.935484238162474 ], [ 18.450983069413553, -33.934782161049853 ], [ 18.450960443948929, -33.934074829381636 ], [ 18.451021103905656, -33.933369055099213 ], [ 18.451164463071688, -33.932671634980288 ], [ 18.451389138914617, -33.931989285190383 ], [ 18.4516929659694, -33.931328576616806 ], [ 18.452073016758789, -33.930695871607234 ], [ 18.452525630042505, -33.93009726272124 ], [ 18.453046446120847, -33.929538514083923 ], [ 18.453630448851172, -33.929025005905238 ], [ 18.45427201397138, -33.928561682697996 ], [ 18.454964963264469, -33.928153005692309 ], [ 18.45570262404253, -33.927802909903136 ], [ 18.45647789337789, -33.927514766263506 ], [ 18.457283306464063, -33.927291349186689 ], [ 18.458111108449767, -33.927134809868832 ], [ 18.458953329056428, -33.927046655588498 ], [ 18.459801859263084, -33.927027735201321 ], [ 18.460648529322942, -33.927078230969762 ], [ 18.461485187363277, -33.927197656805916 ], [ 18.462303777814725, -33.927384862944521 ], [ 18.463096418917676, -33.927638047001643 ], [ 18.463855478562071, -33.927954771312884 ], [ 18.464573647732831, -33.928331986384983 ], [ 18.465244010855702, -33.928766060235873 ], [ 18.465729955617153, -33.929113887872468 ], [ 18.465985710524492, -33.929304421680655 ], [ 18.466260926780972, -33.929517783561955 ], [ 18.466785607681594, -33.929912239287908 ], [ 18.467168006025179, -33.930217937959881 ], [ 18.467745187840524, -33.930708502268871 ], [ 18.467847774073256, -33.930792204465355 ], [ 18.468408680458765, -33.931243244421012 ], [ 18.46840868045885, -33.93124324442109 ], [ 18.468408680458914, -33.931243244421132 ], [ 18.468664284619443, -33.931448780270365 ], [ 18.468683261095599, -33.931464086214021 ], [ 18.469223604370281, -33.93190124307457 ], [ 18.469238847328434, -33.931913605441288 ], [ 18.469918213316742, -33.932465937253262 ], [ 18.470664626914544, -33.933156450545113 ], [ 18.471017417412142, -33.93352847487423 ], [ 18.471089027258195, -33.933605042327947 ], [ 18.471363097977036, -33.933902189799127 ], [ 18.471510718106234, -33.934067053401215 ], [ 18.471787272900702, -33.934385282281042 ], [ 18.472133596324571, -33.934755103817942 ], [ 18.472641014594604, -33.935358077353904 ], [ 18.472971295432128, -33.935796600521286 ], [ 18.473123722856752, -33.935992500476829 ], [ 18.473877479962962, -33.936858244671605 ], [ 18.473888456083532, -33.936870880109225 ], [ 18.474180095209586, -33.937207371863721 ], [ 18.474180095209743, -33.937207371863934 ], [ 18.474180095209938, -33.937207371864126 ], [ 18.47428016011871, -33.937322825512872 ], [ 18.474322646431037, -33.937372283745404 ], [ 18.474682489812174, -33.937794929013805 ], [ 18.474773189338151, -33.937903555787017 ], [ 18.475100736376945, -33.938303622942804 ], [ 18.475199942740733, -33.938427522780103 ], [ 18.475669475573504, -33.939027246787774 ], [ 18.476204072124172, -33.939813747983784 ], [ 18.476371093411913, -33.940099938454061 ], [ 18.476418515341898, -33.940182524339669 ], [ 18.476636044622374, -33.940567611913913 ], [ 18.476704336536166, -33.940691534338185 ], [ 18.476965317897179, -33.941177163078166 ], [ 18.476982122960656, -33.941202009791411 ], [ 18.477385660574278, -33.941879419624364 ], [ 18.477651206826842, -33.94239090686262 ], [ 18.477885102348878, -33.94283188507552 ], [ 18.478142761284094, -33.943376426425772 ], [ 18.478229124418732, -33.943613788532886 ], [ 18.478584305663883, -33.94431391036629 ], [ 18.478584305663897, -33.94431391036634 ], [ 18.478607972109717, -33.94436056048626 ], [ 18.478826132868949, -33.944772021393867 ], [ 18.4789512131624, -33.945020372777833 ], [ 18.478998025528337, -33.945118412028158 ], [ 18.479114390321289, -33.94532376431453 ], [ 18.479328232036014, -33.945733561686815 ], [ 18.479652402943007, -33.94641148544671 ], [ 18.479829092756258, -33.946815641729479 ], [ 18.480076576624821, -33.947438928325163 ], [ 18.480310611323087, -33.948147579186625 ], [ 18.480456866464664, -33.948872404258196 ], [ 18.480513820074307, -33.949605872026837 ], [ 18.480514597093155, -33.949653373875208 ], [ 18.480541974887075, -33.949953449681729 ], [ 18.480551746956586, -33.950073883770109 ], [ 18.480582791281801, -33.950510783615705 ], [ 18.480586708640811, -33.950570046629046 ], [ 18.480610648379507, -33.95096154676223 ], [ 18.480672033700081, -33.951973700298588 ], [ 18.480680012118459, -33.952146186839137 ], [ 18.48071024404846, -33.953094608661338 ], [ 18.480713273368846, -33.953269916802853 ], [ 18.480713361319797, -33.953302624633153 ], [ 18.48071336131979, -33.953302624633281 ], [ 18.480713361319797, -33.953302624633395 ], [ 18.480713911802127, -33.953507348286628 ], [ 18.480684915480229, -33.954113530746511 ], [ 18.480634965891472, -33.954620486511118 ], [ 18.480495559981573, -33.955446174424381 ], [ 18.480185647172021, -33.956735849270387 ], [ 18.480171039329861, -33.956796638036465 ], [ 18.4801064734874, -33.957042882598138 ], [ 18.479953814757966, -33.957579904499887 ], [ 18.479801552087796, -33.958117911588154 ], [ 18.479801552087778, -33.958117911588211 ], [ 18.479801552087764, -33.958117911588275 ], [ 18.479713341308845, -33.958429593225546 ], [ 18.479505219106361, -33.959172859051591 ], [ 18.479483206253558, -33.959319290809702 ], [ 18.479425028924162, -33.959776633697089 ], [ 18.479315104332656, -33.960388747866887 ], [ 18.479142583859723, -33.960990751200285 ], [ 18.478908737492535, -33.961578207629366 ], [ 18.478755063485554, -33.961915118854805 ], [ 18.478506282348182, -33.962359646430855 ], [ 18.478407183374273, -33.962921475627383 ], [ 18.478151827195767, -33.96371955780441 ], [ 18.477699971541739, -33.964863892112376 ], [ 18.477395297641472, -33.965524375293157 ], [ 18.477014388372787, -33.966156793969617 ], [ 18.476560910956408, -33.966755056867385 ], [ 18.476039231841916, -33.967313401580675 ], [ 18.475454374686684, -33.967826450098407 ], [ 18.474811971990651, -33.968289260629852 ], [ 18.474118210852069, -33.968697375229645 ], [ 18.473379773366666, -33.969046862762049 ], [ 18.472603772244813, -33.969334356789467 ], [ 18.471797682267898, -33.969557088019286 ], [ 18.47096926824571, -33.969712910995582 ], [ 18.470126510170864, -33.969800324777609 ], [ 18.46927752629356, -33.969818487405547 ], [ 18.468430494860385, -33.969767224013424 ], [ 18.467593575273789, -33.969647028511361 ], [ 18.466774829434673, -33.969459058820611 ], [ 18.465982144028516, -33.969205125707795 ], [ 18.465223154506329, -33.968887675326457 ], [ 18.464505171495059, -33.9685097656346 ], [ 18.463835110348327, -33.968075036916574 ], [ 18.463219424517657, -33.967587676694095 ], [ 18.462664043386965, -33.967052379365619 ], [ 18.462174315169705, -33.96647430096381 ], [ 18.461754955418417, -33.965859009468424 ], [ 18.461410001642108, -33.965212431154086 ], [ 18.461142774467259, -33.964540793490734 ], [ 18.460955845714771, -33.963850565148064 ], [ 18.460851013698196, -33.963148393681948 ], [ 18.460829285978505, -33.962441041504221 ], [ 18.460890869738691, -33.961735320752446 ], [ 18.461035169867934, -33.961038027687273 ], [ 18.461229041057972, -33.960451881635144 ], [ 18.461131396051961, -33.96047477492219 ], [ 18.460901755462807, -33.960593089986929 ], [ 18.460663711691193, -33.960757167227428 ], [ 18.460530917298993, -33.960891713010177 ], [ 18.460448733566153, -33.961013785033181 ], [ 18.460325274006006, -33.961225391519058 ], [ 18.460305841446232, -33.961351140786952 ], [ 18.460259427450751, -33.961534169653412 ], [ 18.459350267804215, -33.961265325669238 ], [ 18.459634992456859, -33.960593892037075 ], [ 18.457950639744176, -33.959831046727594 ], [ 18.456017303791551, -33.958924521550799 ], [ 18.458656786156148, -33.955159555948889 ], [ 18.458933693803168, -33.954268758222412 ], [ 18.460391538971749, -33.954604506114322 ], [ 18.460624201629173, -33.953619165637967 ], [ 18.461301094246927, -33.953220302356684 ] ] ] } }
]
}
