{
"type": "FeatureCollection",
"name": "uct_campuses",
"crs": { "type": "name", "properties": { "name": "urn:ogc:def:crs:OGC:1.3:CRS84" } },
"features": [
{ "type": "Feature", "properties": { "campus_num": 1, "campus_name": "Rondebosch Upper Campus", "area": 416502.6877124891 }, "geometry": { "type": "Polygon", "coordinates": [ [ [ 18.456017303791551, -33.958924521550792 ], [ 18.458656786156148, -33.955159555948889 ], [ 18.458933693803168, -33.954268758222405 ], [ 18.460391538971749, -33.954604506114315 ], [ 18.460624201629173, -33.953619165637967 ], [ 18.461301094246927, -33.953220302356677 ], [ 18.462186914615625, -33.953322681860591 ], [ 18.463074535362804, -33.953603669790716 ], [ 18.463186844085676, -33.953337487568639 ], [ 18.463232932773209, -33.952991078501618 ], [ 18.463329885633915, -33.952772431972136 ], [ 18.463493352429314, -33.952619519277576 ], [ 18.463822379863601, -33.95256527330848 ], [ 18.464025663609117, -33.952628652628832 ], [ 18.464225284163305, -33.952771283040256 ], [ 18.464325191464503, -33.952964537139444 ], [ 18.464353405441781, -33.953140406711661 ], [ 18.464020817124688, -33.953140076483962 ], [ 18.464019985353019, -33.954035252050176 ], [ 18.464063451325899, -33.954198226981575 ], [ 18.464126258155328, -33.954347102633562 ], [ 18.464153222081098, -33.954469613996672 ], [ 18.464141141744175, -33.954552784583448 ], [ 18.463704747357006, -33.955400198473278 ], [ 18.4638169631829, -33.955419006694427 ], [ 18.46374677930006, -33.955759829764894 ], [ 18.463736133211697, -33.956284762037377 ], [ 18.463701262400633, -33.956954962230526 ], [ 18.463598483788665, -33.957694807351615 ], [ 18.463509542165717, -33.958145831738044 ], [ 18.463351375630005, -33.95860030014012 ], [ 18.463143442537028, -33.959279098041478 ], [ 18.462870847140582, -33.959736376022647 ], [ 18.46268686592871, -33.95992607971683 ], [ 18.462532281347755, -33.960029322805191 ], [ 18.462224394445343, -33.960172586671085 ], [ 18.461830399993847, -33.960286128961457 ], [ 18.461455860265705, -33.960398702554933 ], [ 18.461131396051961, -33.96047477492219 ], [ 18.460901755462807, -33.960593089986929 ], [ 18.460663711691193, -33.960757167227428 ], [ 18.460530917298993, -33.96089171301017 ], [ 18.460448733566153, -33.961013785033188 ], [ 18.460325274006006, -33.961225391519058 ], [ 18.460305841446232, -33.961351140786959 ], [ 18.460259427450751, -33.961534169653412 ], [ 18.459350267804215, -33.961265325669231 ], [ 18.459634992456859, -33.960593892037068 ], [ 18.457950639744176, -33.959831046727601 ], [ 18.456017303791551, -33.958924521550792 ] ] ] } },
{ "type": "Feature", "properties": { "campus_num": 2, "campus_name": "Rondebosch Middle & Lower Campus", "area": 268626.83861800272 }, "geometry": { "type": "Polygon", "coordinates": [ [ [ 18.461842232933076, -33.960533073663342 ], [ 18.46307618476926, -33.960784702261719 ], [ 18.463137810983522, -33.960745346769215 ], [ 18.463212759025804, -33.960396883767991 ], [ 18.463592138348194, -33.960468715561973 ], [ 18.463671628286512, -33.960544825440635 ], [ 18.464027533138932, -33.960631775753434 ], [ 18.465232488151784, -33.960832445135971 ], [ 18.465351924591619, -33.960310388857415 ], [ 18.465390888559178, -33.960161838762268 ], [ 18.465307805555742, -33.960139630965109 ], [ 18.465270374816068, -33.960004047037316 ], [ 18.465324376488333, -33.959546517206689 ], [ 18.465771862240327, -33.959528241841006 ], [ 18.465833964771861, -33.958652545215436 ], [ 18.466709254036456, -33.958714220401014 ], [ 18.467838171442128, -33.958791124220475 ], [ 18.467915620008821, -33.958486444830243 ], [ 18.468125583010842, -33.957706623798096 ], [ 18.470983262786589, -33.957980708094432 ], [ 18.471268164901975, -33.956775259129785 ], [ 18.471146778767984, -33.956503981437052 ], [ 18.471081591051938, -33.956205789927878 ], [ 18.471077647575672, -33.95607094213927 ], [ 18.470603080801251, -33.95598122871202 ], [ 18.470409335583049, -33.955875122353426 ], [ 18.470006320919889, -33.955769788771804 ], [ 18.469416516178921, -33.955654462718613 ], [ 18.468767035449819, -33.955517992428895 ], [ 18.468007067203413, -33.955341203861352 ], [ 18.467574447499207, -33.955268693437645 ], [ 18.467168887077964, -33.955288885310956 ], [ 18.466769815891055, -33.955318400198578 ], [ 18.466654431061787, -33.955327986004839 ], [ 18.46658898053607, -33.955402606225512 ], [ 18.466472698849827, -33.955404197861867 ], [ 18.46639252030511, -33.955345223642254 ], [ 18.465929757685178, -33.955139486258496 ], [ 18.465536431721794, -33.954949181209756 ], [ 18.465303462847864, -33.954876824946517 ], [ 18.465093234024657, -33.954734073227755 ], [ 18.464795516974128, -33.954606171579279 ], [ 18.464627850202085, -33.954562047124057 ], [ 18.464402002816868, -33.95490281672722 ], [ 18.464253455696127, -33.955157880256969 ], [ 18.464142930570404, -33.95544882964397 ], [ 18.464056658847454, -33.955690296698549 ], [ 18.464054146298608, -33.956005250596554 ], [ 18.464027231923154, -33.95647253507282 ], [ 18.463991079144606, -33.956853369508437 ], [ 18.463915854447347, -33.957406946817663 ], [ 18.463826040046694, -33.957918216956706 ], [ 18.463691025633015, -33.958481935621094 ], [ 18.463558534914029, -33.958921217741 ], [ 18.46335557407447, -33.959462016885922 ], [ 18.463020798737887, -33.95997351754221 ], [ 18.462608996529582, -33.96025697298208 ], [ 18.461842232933076, -33.960533073663342 ] ] ] } },
{ "type": "Feature", "properties": { "campus_num": 3, "campus_name": "Rosebank Residence Precinct", "area": 122207.96743156109 }, "geometry": { "type": "Polygon", "coordinates": [ [ [ 18.465399477030402, -33.954414047169003 ], [ 18.465483925526314, -33.954220530455814 ], [ 18.465549603782289, -33.954107756150606 ], [ 18.465587144262173, -33.953946270377777 ], [ 18.465580942987238, -33.953829650428702 ], [ 18.465421877609355, -33.953393981967189 ], [ 18.465426154762692, -33.953267559430557 ], [ 18.465486838715684, -33.953147608414099 ], [ 18.465607226977049, -33.952956011480772 ], [ 18.465761368387277, -33.952705196453621 ], [ 18.466294829514588, -33.952853146275046 ], [ 18.46703596854233, -33.953057314929367 ], [ 18.467086292969523, -33.953117746053394 ], [ 18.467104376627923, -33.953234741112816 ], [ 18.467140326803264, -33.953318048546585 ], [ 18.467165052483725, -33.953349615400732 ], [ 18.467218697921943, -33.95336733235041 ], [ 18.46734345012387, -33.953348711081503 ], [ 18.468434442906133, -33.953514435387625 ], [ 18.468639129567574, -33.953501065658301 ], [ 18.468826225176567, -33.953438772682091 ], [ 18.46893973082582, -33.953436300053426 ], [ 18.469161244584228, -33.953461296053611 ], [ 18.471812385847048, -33.953986122215035 ], [ 18.471876886582059, -33.954078791181374 ], [ 18.471569508499019, -33.955349245775132 ], [ 18.471455181399996, -33.955729736190555 ], [ 18.470445771399138, -33.95561220466363 ], [ 18.469593839394324, -33.955565278726397 ], [ 18.469156433530451, -33.955510788930958 ], [ 18.467747829428625, -33.955140748610511 ], [ 18.467560457826874, -33.955056377333257 ], [ 18.467179987379854, -33.955097521445339 ], [ 18.466752185067545, -33.955149254286169 ], [ 18.466730979052738, -33.955073501568592 ], [ 18.466634708344021, -33.955071048576436 ], [ 18.466625761481687, -33.955116419765076 ], [ 18.466464137882049, -33.955104177587273 ], [ 18.46626988907823, -33.955051532421017 ], [ 18.466181520303508, -33.954989268035924 ], [ 18.466030270964868, -33.954927235848686 ], [ 18.465676030925312, -33.954715895588727 ], [ 18.465480457205452, -33.954596651774999 ], [ 18.465426905974198, -33.954532653560527 ], [ 18.465399477030402, -33.954414047169003 ] ] ] } },
{ "type": "Feature", "properties": { "campus_num": 4, "campus_name": "Mowbray Residence Precinct", "area": 125284.38738618104 }, "geometry": { "type": "Polygon", "coordinates": [ [ [ 18.466721853390045, -33.9516914839744 ], [ 18.466455791811811, -33.951707278777882 ], [ 18.466360981682385, -33.951627925767234 ], [ 18.466420710918388, -33.951349801390229 ], [ 18.467037079771334, -33.950063089734989 ], [ 18.467184139730627, -33.949421379783438 ], [ 18.467122309849373, -33.94899133952557 ], [ 18.467011585213438, -33.948448849077735 ], [ 18.466897476532967, -33.947854172487048 ], [ 18.466899080607391, -33.947653078866345 ], [ 18.466930427602826, -33.94732721484403 ], [ 18.467067497483182, -33.947033608267482 ], [ 18.467281961886826, -33.946827274279308 ], [ 18.467628545212975, -33.946571477721285 ], [ 18.468203119211193, -33.946296287406255 ], [ 18.469790478605191, -33.945729444668004 ], [ 18.469566457282465, -33.946200669273864 ], [ 18.470076323098105, -33.946002033209055 ], [ 18.470745230632218, -33.947294598176953 ], [ 18.469537283639987, -33.947800232566166 ], [ 18.4697092046334, -33.948173517327568 ], [ 18.468459705751386, -33.948717945681153 ], [ 18.468644221831727, -33.94921471214478 ], [ 18.468826399570926, -33.949679159481612 ], [ 18.468999850502168, -33.950131065802054 ], [ 18.469213573354445, -33.950220965082849 ], [ 18.468764562458009, -33.950661699105773 ], [ 18.467902762460497, -33.951233252730603 ], [ 18.467275791835863, -33.951592032708561 ], [ 18.466721853390045, -33.9516914839744 ] ] ] } },
{ "type": "Feature", "properties": { "campus_num": 5, "campus_name": "Health Sciences Campus", "area": 56120.680003584363 }, "geometry": { "type": "Polygon", "coordinates": [ [ [ 18.467822743186826, -33.946025605451787 ], [ 18.467711855488261, -33.945745466505976 ], [ 18.467487699609585, -33.945302576370516 ], [ 18.467330436270785, -33.944982646498246 ], [ 18.466589489107136, -33.943609254671486 ], [ 18.466133199003153, -33.942778677960668 ], [ 18.46596377623916, -33.942407771432784 ], [ 18.465602443491449, -33.941660954791047 ], [ 18.465156821615061, -33.941821830658327 ], [ 18.464690182826487, -33.941998029214361 ], [ 18.464085535902246, -33.942203533920342 ], [ 18.463909904864824, -33.942324451234434 ], [ 18.463695718788035, -33.94249011733217 ], [ 18.463709095758116, -33.942573069889953 ], [ 18.463914277148596, -33.942758642625336 ], [ 18.464169382071077, -33.942988636816281 ], [ 18.464319940602536, -33.943268704410528 ], [ 18.464486855358015, -33.943299142727263 ], [ 18.464646274373596, -33.943327914819761 ], [ 18.464815197606541, -33.943352134724421 ], [ 18.465654860164225, -33.943844072414578 ], [ 18.465976938824642, -33.944256650463359 ], [ 18.466175660260703, -33.944579301099829 ], [ 18.466375880104021, -33.944922659891375 ], [ 18.466528366076464, -33.945160317770984 ], [ 18.466687394133093, -33.945453765667182 ], [ 18.4668297927517, -33.945621259399893 ], [ 18.467065906165885, -33.94580279184607 ], [ 18.467276105782247, -33.945937811645436 ], [ 18.467621907394111, -33.946007884803336 ], [ 18.467822743186826, -33.946025605451787 ] ] ] } }
]
}
