{
"type": "FeatureCollection",
"name": "uct_shuttle_routes",
"crs": { "type": "name", "properties": { "name": "urn:ogc:def:crs:OGC:1.3:CRS84" } },
"features": [
{ "type": "Feature", "properties": { "name": "Upper Campus - Tugwell", "ref": "4", "operator": "University of Cape Town" }, "geometry": { "type": "MultiLineString", "coordinates": [ [ [ 18.4707649, -33.9544758 ], [ 18.4708071, -33.9542933 ], [ 18.4708514, -33.9541242 ], [ 18.4709024, -33.9539529 ], [ 18.4709641, -33.9537749 ] ], [ [ 18.4704184, -33.955484 ], [ 18.470432, -33.955414 ], [ 18.4704556, -33.9553383 ], [ 18.4704885, -33.9552668 ], [ 18.4706396, -33.9549136 ], [ 18.4706522, -33.9548499 ], [ 18.4707649, -33.9544758 ] ], [ [ 18.4704085, -33.9555873 ], [ 18.4704184, -33.955484 ] ], [ [ 18.4703894, -33.9559083 ], [ 18.4704085, -33.9555873 ] ], [ [ 18.4703931, -33.9560751 ], [ 18.4703895, -33.9559895 ], [ 18.4703894, -33.9559515 ], [ 18.4703894, -33.9559083 ] ], [ [ 18.4703931, -33.9560751 ], [ 18.4702401, -33.9559627 ], [ 18.4701338, -33.9559127 ], [ 18.47006, -33.9558755 ], [ 18.469994, -33.9558482 ], [ 18.4699284, -33.9558281 ], [ 18.4696634, -33.9557598 ] ], [ [ 18.4696634, -33.9557598 ], [ 18.4693079, -33.9556665 ], [ 18.4688907, -33.9555613 ], [ 18.4687683, -33.9554706 ] ], [ [ 18.4665458, -33.955238 ], [ 18.4667341, -33.9552553 ], [ 18.4668352, -33.9552551 ], [ 18.4669599, -33.9552473 ], [ 18.4671371, -33.9552303 ], [ 18.4672993, -33.9552172 ], [ 18.4674215, -33.9552107 ], [ 18.4675527, -33.9552128 ], [ 18.467667, -33.955222 ], [ 18.4678129, -33.9552462 ], [ 18.467942, -33.9552746 ], [ 18.4687683, -33.9554706 ] ], [ [ 18.4656646, -33.9548195 ], [ 18.4661785, -33.9551161 ], [ 18.4663605, -33.955187 ], [ 18.4665458, -33.955238 ] ], [ [ 18.4656646, -33.9548195 ], [ 18.4655503, -33.9548058 ], [ 18.4652508, -33.9546634 ] ], [ [ 18.4652508, -33.9546634 ], [ 18.4651437, -33.9546138 ] ], [ [ 18.4651437, -33.9546138 ], [ 18.4650521, -33.9545687 ] ], [ [ 18.4650521, -33.9545687 ], [ 18.4644114, -33.9542304 ], [ 18.4643594, -33.9541653 ] ], [ [ 18.4642463, -33.9538871 ], [ 18.4642622, -33.9539697 ], [ 18.4642787, -33.9540321 ], [ 18.4643141, -33.9541005 ], [ 18.4643594, -33.9541653 ] ], [ [ 18.4642463, -33.9538871 ], [ 18.4642291, -33.953765 ] ], [ [ 18.4641319, -33.9529453 ], [ 18.4641575, -33.9529859 ], [ 18.4641799, -33.953079 ], [ 18.4641883, -33.9531639 ], [ 18.464232, -33.9535319 ], [ 18.4642291, -33.953765 ] ], [ [ 18.4641319, -33.9529453 ], [ 18.4641074, -33.9528981 ], [ 18.4640487, -33.9528354 ], [ 18.4639755, -33.9527873 ], [ 18.4638825, -33.9527616 ], [ 18.4637767, -33.9527496 ], [ 18.4636821, -33.9527602 ], [ 18.4635929, -33.9527868 ], [ 18.4635184, -33.9528334 ], [ 18.4634698, -33.952883 ], [ 18.4634327, -33.9529469 ], [ 18.463409, -33.9530202 ], [ 18.4631604, -33.9544746 ], [ 18.4631397, -33.9545667 ], [ 18.4630716, -33.954793 ], [ 18.4629516, -33.9551236 ], [ 18.4628894, -33.9553006 ] ], [ [ 18.4628894, -33.9553006 ], [ 18.4628182, -33.9555524 ] ], [ [ 18.4628182, -33.9555524 ], [ 18.4627537, -33.955638 ], [ 18.4627066, -33.9556778 ], [ 18.4626505, -33.9557036 ], [ 18.462573, -33.9557243 ], [ 18.4625016, -33.9557275 ], [ 18.4624219, -33.9557228 ], [ 18.4623463, -33.9557033 ], [ 18.4622877, -33.9556721 ] ], [ [ 18.4622877, -33.9556721 ], [ 18.4622609, -33.9556521 ], [ 18.4622284, -33.955624 ], [ 18.4621774, -33.9555659 ], [ 18.4621403, -33.9555077 ] ], [ [ 18.4621403, -33.9555077 ], [ 18.4621242, -33.9554464 ] ], [ [ 18.4621242, -33.9554464 ], [ 18.4621176, -33.9553453 ], [ 18.4621228, -33.9553217 ], [ 18.4621387, -33.9552903 ] ], [ [ 18.4617688, -33.9550236 ], [ 18.4618936, -33.9550527 ], [ 18.4619502, -33.955071 ], [ 18.4620033, -33.9550962 ], [ 18.4620436, -33.9551251 ], [ 18.4620804, -33.9551619 ], [ 18.462108, -33.9552013 ], [ 18.4621248, -33.9552419 ], [ 18.4621335, -33.9552736 ], [ 18.4621387, -33.9552903 ] ], [ [ 18.4617688, -33.9550236 ], [ 18.4617107, -33.9550322 ], [ 18.4616745, -33.955043 ], [ 18.4616373, -33.9550586 ], [ 18.4616152, -33.9550706 ], [ 18.461594, -33.9550806 ], [ 18.4615682, -33.9550887 ], [ 18.461541, -33.9550928 ], [ 18.4615126, -33.9550923 ], [ 18.4614388, -33.9550817 ] ], [ [ 18.4614388, -33.9550817 ], [ 18.4614566, -33.9549503 ] ], [ [ 18.4597708, -33.9606411 ], [ 18.4596392, -33.960524 ], [ 18.4595874, -33.9604762 ], [ 18.4594952, -33.9603779 ], [ 18.4594413, -33.9603018 ], [ 18.4591459, -33.959885 ], [ 18.4589767, -33.9596328 ], [ 18.4589416, -33.9595781 ], [ 18.4588659, -33.9594434 ], [ 18.458834, -33.9593661 ], [ 18.4588086, -33.9592771 ], [ 18.4587968, -33.9591664 ], [ 18.4588027, -33.9590597 ], [ 18.4588236, -33.9589511 ], [ 18.4588535, -33.9588472 ], [ 18.4589903, -33.9585056 ], [ 18.4593355, -33.9576402 ], [ 18.4596437, -33.9568674 ], [ 18.459683, -33.9567576 ], [ 18.4600055, -33.9559435 ], [ 18.460044, -33.9558059 ], [ 18.4600695, -33.9556791 ], [ 18.4600789, -33.9555734 ], [ 18.4600804, -33.9554798 ], [ 18.4600752, -33.9553515 ], [ 18.4600598, -33.9549747 ], [ 18.4600628, -33.9549248 ], [ 18.4600793, -33.9548798 ], [ 18.4601105, -33.9548373 ], [ 18.4601376, -33.9548003 ], [ 18.4601859, -33.9547619 ], [ 18.4602347, -33.9547374 ], [ 18.4602843, -33.954722 ], [ 18.4603395, -33.9547137 ], [ 18.4604092, -33.9547111 ], [ 18.4604595, -33.9547142 ], [ 18.460787, -33.9547914 ], [ 18.4608578, -33.9548076 ], [ 18.4614566, -33.9549503 ] ], [ [ 18.4599512, -33.9607862 ], [ 18.4598102, -33.960672 ], [ 18.4597708, -33.9606411 ] ], [ [ 18.4599897, -33.9608336 ], [ 18.4599512, -33.9607862 ] ], [ [ 18.4599897, -33.9608336 ], [ 18.460047, -33.9609449 ], [ 18.4600695, -33.9610034 ], [ 18.4600889, -33.961058 ], [ 18.460101, -33.9611208 ], [ 18.4601111, -33.9611925 ], [ 18.4601157, -33.9613021 ], [ 18.4601024, -33.961425 ], [ 18.4600789, -33.9615268 ], [ 18.4599596, -33.9618877 ], [ 18.4599098, -33.9620295 ], [ 18.4597329, -33.9625334 ], [ 18.4597007, -33.962608 ], [ 18.4596184, -33.9627727 ], [ 18.4595948, -33.9628199 ], [ 18.4593426, -33.9632648 ], [ 18.4592321, -33.9634858 ], [ 18.4592135, -33.9635261 ], [ 18.4591609, -33.9636407 ] ], [ [ 18.4591609, -33.9636407 ], [ 18.459096, -33.963796 ], [ 18.459056, -33.9638554 ], [ 18.4589984, -33.9639207 ], [ 18.4589332, -33.9639808 ] ], [ [ 18.4589332, -33.9639808 ], [ 18.4589024, -33.9640256 ], [ 18.4588746, -33.964062 ], [ 18.4588555, -33.964094 ], [ 18.4588387, -33.9641307 ], [ 18.4588257, -33.9641657 ] ], [ [ 18.4588257, -33.9641657 ], [ 18.4588313, -33.964191 ], [ 18.4588381, -33.9642138 ], [ 18.4588488, -33.964235 ], [ 18.4588622, -33.9642544 ], [ 18.458878, -33.9642689 ], [ 18.4588991, -33.9642814 ], [ 18.4589232, -33.9642905 ], [ 18.45895, -33.9642956 ], [ 18.4589765, -33.964297 ], [ 18.4590023, -33.9642948 ], [ 18.4590483, -33.9642859 ], [ 18.4591009, -33.9642717 ] ], [ [ 18.4591009, -33.9642717 ], [ 18.4591804, -33.9642111 ], [ 18.4592555, -33.9641352 ], [ 18.4592957, -33.9640762 ], [ 18.4593628, -33.9639222 ] ], [ [ 18.4593628, -33.9639222 ], [ 18.4594078, -33.9638005 ], [ 18.4594972, -33.9635567 ], [ 18.4595617, -33.9633936 ], [ 18.4597696, -33.9629994 ] ], [ [ 18.4597696, -33.9629994 ], [ 18.459973, -33.9624173 ], [ 18.4602459, -33.9616487 ], [ 18.46033, -33.9614143 ] ], [ [ 18.46033, -33.9614143 ], [ 18.4604015, -33.9612535 ], [ 18.4604706, -33.9611283 ], [ 18.4605356, -33.96103 ], [ 18.4606133, -33.9609395 ], [ 18.4606972, -33.9608538 ], [ 18.460789, -33.9607743 ], [ 18.4608797, -33.9607032 ], [ 18.4609494, -33.9606559 ], [ 18.4610403, -33.9606037 ], [ 18.4612565, -33.9605017 ], [ 18.4614114, -33.9604505 ], [ 18.4616688, -33.960375 ], [ 18.4621207, -33.9602481 ], [ 18.4623353, -33.9601725 ], [ 18.4624654, -33.9601124 ], [ 18.4625834, -33.960049 ], [ 18.4627248, -33.9599477 ], [ 18.4628548, -33.959841 ], [ 18.4629796, -33.9597185 ], [ 18.463103, -33.9595466 ], [ 18.4631668, -33.959425 ], [ 18.4632258, -33.9592804 ], [ 18.4634471, -33.9586163 ], [ 18.4636082, -33.958031 ], [ 18.4636812, -33.9576614 ], [ 18.4637314, -33.9573606 ], [ 18.4637602, -33.9571446 ], [ 18.4637839, -33.9569245 ], [ 18.463796, -33.9567796 ], [ 18.4638144, -33.9564947 ], [ 18.4638551, -33.9558468 ], [ 18.4638654, -33.9557359 ], [ 18.4638832, -33.9556268 ], [ 18.4639071, -33.9555184 ] ], [ [ 18.4639071, -33.9555184 ], [ 18.4639369, -33.9554111 ], [ 18.4639727, -33.955305 ], [ 18.4640144, -33.9552004 ], [ 18.4640619, -33.9550975 ], [ 18.464115, -33.9549965 ], [ 18.4641738, -33.9548977 ], [ 18.4644378, -33.9544719 ] ], [ [ 18.4644378, -33.9544719 ], [ 18.4645754, -33.9542478 ] ], [ [ 18.4645754, -33.9542478 ], [ 18.4646633, -33.9541083 ] ], [ [ 18.4646633, -33.9541083 ], [ 18.4647365, -33.9539902 ] ], [ [ 18.4647365, -33.9539902 ], [ 18.4647705, -33.9538668 ], [ 18.4647884, -33.9538076 ], [ 18.4647936, -33.9537599 ], [ 18.4647845, -33.953712 ], [ 18.4647667, -33.95367 ], [ 18.4647115, -33.9536014 ], [ 18.46467, -33.9535743 ], [ 18.4646276, -33.953558 ], [ 18.4645716, -33.9535479 ], [ 18.4645186, -33.9535443 ], [ 18.4644666, -33.9535495 ], [ 18.4644373, -33.953557 ], [ 18.4644069, -33.9535695 ], [ 18.4643874, -33.953581 ], [ 18.4643468, -33.9536084 ], [ 18.4643128, -33.9536463 ], [ 18.4642784, -33.9537077 ], [ 18.4642608, -33.953778 ], [ 18.4642463, -33.9538871 ] ], [ [ 18.4642463, -33.9538871 ], [ 18.4642622, -33.9539697 ], [ 18.4642787, -33.9540321 ], [ 18.4643141, -33.9541005 ], [ 18.4643594, -33.9541653 ] ], [ [ 18.4643594, -33.9541653 ], [ 18.4644269, -33.9541864 ], [ 18.4645683, -33.9542535 ], [ 18.4645986, -33.9542677 ] ], [ [ 18.4645986, -33.9542677 ], [ 18.4647666, -33.954343 ] ], [ [ 18.4647666, -33.954343 ], [ 18.4650187, -33.9544563 ], [ 18.4650999, -33.9544943 ] ], [ [ 18.4650999, -33.9544943 ], [ 18.4651916, -33.9545373 ] ], [ [ 18.4651916, -33.9545373 ], [ 18.465594, -33.9547518 ], [ 18.4656646, -33.9548195 ] ], [ [ 18.4656646, -33.9548195 ], [ 18.4661785, -33.9551161 ], [ 18.4663605, -33.955187 ], [ 18.4665458, -33.955238 ] ], [ [ 18.4665458, -33.955238 ], [ 18.4667341, -33.9552553 ], [ 18.4668352, -33.9552551 ], [ 18.4669599, -33.9552473 ], [ 18.4671371, -33.9552303 ], [ 18.4672993, -33.9552172 ], [ 18.4674215, -33.9552107 ], [ 18.4675527, -33.9552128 ], [ 18.467667, -33.955222 ], [ 18.4678129, -33.9552462 ], [ 18.467942, -33.9552746 ], [ 18.4687683, -33.9554706 ] ], [ [ 18.4687683, -33.9554706 ], [ 18.4692451, -33.9555763 ], [ 18.469439, -33.9556106 ], [ 18.4696506, -33.9556426 ], [ 18.4705037, -33.9557692 ] ], [ [ 18.4705037, -33.9557692 ], [ 18.471422, -33.9559022 ], [ 18.4715332, -33.9559211 ] ], [ [ 18.4720043, -33.9540763 ], [ 18.4719169, -33.9544391 ], [ 18.4717403, -33.9551778 ], [ 18.471718, -33.9552578 ], [ 18.4716869, -33.9553806 ], [ 18.4715571, -33.95582 ], [ 18.4715332, -33.9559211 ] ], [ [ 18.4720188, -33.953984 ], [ 18.4720043, -33.9540763 ] ], [ [ 18.4714893, -33.953879 ], [ 18.4719119, -33.9539637 ], [ 18.4719269, -33.9539665 ], [ 18.4720188, -33.953984 ] ], [ [ 18.4709641, -33.9537749 ], [ 18.4714893, -33.953879 ] ] ] } },
{ "type": "Feature", "properties": { "name": "Claremont", "ref": "1", "operator": "University of Cape Town" }, "geometry": { "type": "MultiLineString", "coordinates": [ [ [ 18.4609423, -33.9601668 ], [ 18.4608463, -33.9602336 ], [ 18.4604985, -33.9604757 ], [ 18.4604705, -33.9604951 ], [ 18.4604427, -33.9605145 ] ], [ [ 18.4604427, -33.9605145 ], [ 18.4600535, -33.9607849 ], [ 18.4600357, -33.9607992 ], [ 18.4599897, -33.9608336 ] ], [ [ 18.4599897, -33.9608336 ], [ 18.460047, -33.9609449 ], [ 18.4600695, -33.9610034 ], [ 18.4600889, -33.961058 ], [ 18.460101, -33.9611208 ], [ 18.4601111, -33.9611925 ], [ 18.4601157, -33.9613021 ], [ 18.4601024, -33.961425 ], [ 18.4600789, -33.9615268 ], [ 18.4599596, -33.9618877 ], [ 18.4599098, -33.9620295 ], [ 18.4597329, -33.9625334 ], [ 18.4597007, -33.962608 ], [ 18.4596184, -33.9627727 ], [ 18.4595948, -33.9628199 ], [ 18.4593426, -33.9632648 ], [ 18.4592321, -33.9634858 ], [ 18.4592135, -33.9635261 ], [ 18.4591609, -33.9636407 ] ], [ [ 18.4591609, -33.9636407 ], [ 18.459096, -33.963796 ], [ 18.459056, -33.9638554 ], [ 18.4589984, -33.9639207 ], [ 18.4589332, -33.9639808 ] ], [ [ 18.4589332, -33.9639808 ], [ 18.4589024, -33.9640256 ], [ 18.4588746, -33.964062 ], [ 18.4588555, -33.964094 ], [ 18.4588387, -33.9641307 ], [ 18.4588257, -33.9641657 ] ], [ [ 18.4588257, -33.9641657 ], [ 18.4588226, -33.9641816 ], [ 18.458822, -33.9642038 ], [ 18.458831, -33.9642475 ], [ 18.4588496, -33.9643168 ], [ 18.4588645, -33.9643611 ], [ 18.4588482, -33.9644326 ] ], [ [ 18.4588482, -33.9644326 ], [ 18.4587854, -33.9645144 ], [ 18.4587042, -33.9645632 ], [ 18.4586374, -33.9645982 ], [ 18.4585764, -33.9646412 ], [ 18.4585192, -33.9646844 ], [ 18.4584785, -33.9647265 ], [ 18.4584294, -33.9647865 ], [ 18.458397, -33.9648376 ], [ 18.4583662, -33.9648955 ], [ 18.4583437, -33.9649569 ], [ 18.4583329, -33.9650197 ], [ 18.4583238, -33.9650853 ], [ 18.4583221, -33.9651315 ], [ 18.4583254, -33.9651832 ], [ 18.4583379, -33.965255 ], [ 18.4583637, -33.9653337 ], [ 18.458387, -33.9653771 ], [ 18.4584144, -33.9654199 ], [ 18.458451, -33.9654627 ], [ 18.4585099, -33.965524 ] ], [ [ 18.4585099, -33.965524 ], [ 18.458519, -33.9655328 ], [ 18.4585641, -33.9655725 ] ], [ [ 18.4585641, -33.9655725 ], [ 18.4585965, -33.9656031 ] ], [ [ 18.4585965, -33.9656031 ], [ 18.4587444, -33.9657317 ], [ 18.4588459, -33.9658042 ], [ 18.4589178, -33.9658494 ], [ 18.4591539, -33.9659825 ] ], [ [ 18.4591539, -33.9659825 ], [ 18.4594886, -33.9661691 ], [ 18.4600896, -33.9664871 ] ], [ [ 18.4600896, -33.9664871 ], [ 18.4603086, -33.966599 ], [ 18.4605402, -33.9667232 ], [ 18.4606402, -33.9667669 ], [ 18.4607313, -33.9667965 ], [ 18.460818, -33.9668128 ], [ 18.4609945, -33.9668358 ] ], [ [ 18.4609945, -33.9668358 ], [ 18.461113, -33.9668191 ], [ 18.4611863, -33.9668018 ], [ 18.4612528, -33.9667804 ], [ 18.4613185, -33.9667501 ], [ 18.4616929, -33.9665473 ], [ 18.4617478, -33.9665231 ], [ 18.4618093, -33.9665024 ], [ 18.4618842, -33.9664831 ], [ 18.4619543, -33.9664704 ] ], [ [ 18.4619543, -33.9664704 ], [ 18.4620079, -33.9664672 ], [ 18.4620583, -33.9664671 ], [ 18.4621068, -33.9664704 ], [ 18.462154, -33.9664765 ], [ 18.4622439, -33.9664976 ] ], [ [ 18.4622439, -33.9664976 ], [ 18.4634929, -33.9668462 ], [ 18.4641703, -33.9670378 ], [ 18.4644395, -33.9671116 ], [ 18.464976, -33.967265 ], [ 18.4652814, -33.9673626 ], [ 18.4653814, -33.9673924 ] ], [ [ 18.4653814, -33.9673924 ], [ 18.4657418, -33.9674928 ], [ 18.4658736, -33.9675298 ], [ 18.4663044, -33.9676496 ], [ 18.4664645, -33.9676915 ] ], [ [ 18.4665535, -33.9677146 ], [ 18.4664645, -33.9676915 ] ], [ [ 18.4665535, -33.9677146 ], [ 18.4665168, -33.9678111 ], [ 18.4663631, -33.9682138 ], [ 18.4661182, -33.9688572 ] ], [ [ 18.4661182, -33.9688572 ], [ 18.4660964, -33.9689141 ] ], [ [ 18.4660964, -33.9689141 ], [ 18.4660518, -33.9690376 ], [ 18.4657538, -33.969814 ], [ 18.4657057, -33.969941 ] ], [ [ 18.4657057, -33.969941 ], [ 18.4656376, -33.9701224 ], [ 18.4654817, -33.9705512 ], [ 18.4652985, -33.9710706 ] ], [ [ 18.4652985, -33.9710706 ], [ 18.4651897, -33.9713919 ], [ 18.4651598, -33.9714781 ] ], [ [ 18.4651598, -33.9714781 ], [ 18.4651274, -33.9715722 ], [ 18.4650673, -33.971741 ] ], [ [ 18.4650673, -33.971741 ], [ 18.4650294, -33.9718486 ], [ 18.4647229, -33.9726542 ], [ 18.4646768, -33.9727985 ], [ 18.4646344, -33.9729434 ], [ 18.4646019, -33.9730731 ], [ 18.4645729, -33.9732005 ], [ 18.4645495, -33.9733297 ], [ 18.4645287, -33.9734798 ], [ 18.464508, -33.9736838 ], [ 18.4645021, -33.9738361 ], [ 18.4645045, -33.9740401 ] ], [ [ 18.4645045, -33.9740401 ], [ 18.4645462, -33.9745878 ] ], [ [ 18.4645462, -33.9745878 ], [ 18.4645511, -33.9746586 ] ], [ [ 18.4645511, -33.9746586 ], [ 18.4645603, -33.9747763 ] ], [ [ 18.4645603, -33.9747763 ], [ 18.4645662, -33.974864 ] ], [ [ 18.4645662, -33.974864 ], [ 18.4646006, -33.9753244 ], [ 18.4646389, -33.9758388 ], [ 18.4646654, -33.9761957 ] ], [ [ 18.4646654, -33.9761957 ], [ 18.4647009, -33.9766191 ], [ 18.4647226, -33.9768698 ], [ 18.4647302, -33.9769411 ], [ 18.464735, -33.976986 ] ], [ [ 18.464735, -33.976986 ], [ 18.4647484, -33.9770763 ] ], [ [ 18.4647484, -33.9770763 ], [ 18.464722, -33.9771901 ] ], [ [ 18.4647708, -33.9776255 ], [ 18.4647501, -33.9774531 ], [ 18.4647312, -33.97728 ], [ 18.4647253, -33.9772256 ], [ 18.464722, -33.9771901 ] ], [ [ 18.4648423, -33.9781829 ], [ 18.4648357, -33.9781448 ], [ 18.4647948, -33.97784 ], [ 18.4647708, -33.9776255 ] ], [ [ 18.4649503, -33.9789796 ], [ 18.4649145, -33.9787116 ], [ 18.4648538, -33.978264 ], [ 18.4648423, -33.9781829 ] ], [ [ 18.4649503, -33.9789796 ], [ 18.4650478, -33.9790347 ], [ 18.46507, -33.9790395 ], [ 18.4651178, -33.9790497 ], [ 18.465203, -33.9790532 ], [ 18.4660536, -33.9789556 ] ], [ [ 18.4660536, -33.9789556 ], [ 18.4660636, -33.9790047 ] ], [ [ 18.4660636, -33.9790047 ], [ 18.4661251, -33.9793 ] ], [ [ 18.4661251, -33.9793 ], [ 18.4664061, -33.9792677 ] ], [ [ 18.4664061, -33.9792677 ], [ 18.4664895, -33.9792599 ] ], [ [ 18.4664895, -33.9792599 ], [ 18.4666948, -33.9792517 ], [ 18.4667809, -33.9792483 ] ], [ [ 18.4667809, -33.9792483 ], [ 18.4667801, -33.9793169 ] ], [ [ 18.4667801, -33.9793169 ], [ 18.4667636, -33.9797832 ] ], [ [ 18.4667636, -33.9797832 ], [ 18.4667555, -33.9799306 ], [ 18.4667343, -33.9803418 ], [ 18.4667264, -33.9806231 ] ], [ [ 18.4666931, -33.980883 ], [ 18.466695, -33.9807462 ], [ 18.4667264, -33.9806231 ] ], [ [ 18.4666931, -33.980883 ], [ 18.4666151, -33.98089 ], [ 18.4665619, -33.9808948 ] ], [ [ 18.4665619, -33.9808948 ], [ 18.4664673, -33.9808365 ], [ 18.4664021, -33.9807717 ], [ 18.4663847, -33.9807421 ], [ 18.4663697, -33.9807062 ], [ 18.466234, -33.9799361 ] ], [ [ 18.466234, -33.9799361 ], [ 18.4662199, -33.9798825 ] ], [ [ 18.4662023, -33.9798214 ], [ 18.4662199, -33.9798825 ] ], [ [ 18.4661878, -33.9797337 ], [ 18.4662023, -33.9798214 ] ], [ [ 18.4661481, -33.9794206 ], [ 18.4661878, -33.9797337 ] ], [ [ 18.4661284, -33.9793116 ], [ 18.4661481, -33.9794206 ] ], [ [ 18.4661251, -33.9793 ], [ 18.4661284, -33.9793116 ] ], [ [ 18.4656069, -33.9793583 ], [ 18.4661251, -33.9793 ] ], [ [ 18.465015, -33.9794255 ], [ 18.4651407, -33.9794159 ], [ 18.4656069, -33.9793583 ] ], [ [ 18.465015, -33.9794255 ], [ 18.4650002, -33.9793289 ], [ 18.4649503, -33.9789796 ] ], [ [ 18.4649503, -33.9789796 ], [ 18.4649145, -33.9787116 ], [ 18.4648538, -33.978264 ], [ 18.4648423, -33.9781829 ] ], [ [ 18.4648423, -33.9781829 ], [ 18.4648357, -33.9781448 ], [ 18.4647948, -33.97784 ], [ 18.4647708, -33.9776255 ] ], [ [ 18.4647708, -33.9776255 ], [ 18.4647501, -33.9774531 ], [ 18.4647312, -33.97728 ], [ 18.4647253, -33.9772256 ], [ 18.464722, -33.9771901 ] ], [ [ 18.464722, -33.9771901 ], [ 18.4646594, -33.9771066 ] ], [ [ 18.4646594, -33.9771066 ], [ 18.4646338, -33.9770134 ] ], [ [ 18.4646338, -33.9770134 ], [ 18.4646254, -33.9769638 ], [ 18.4646121, -33.9768845 ], [ 18.4646067, -33.9768216 ], [ 18.464577, -33.9764044 ] ], [ [ 18.464577, -33.9764044 ], [ 18.4644891, -33.9752375 ] ], [ [ 18.4644891, -33.9752375 ], [ 18.4644555, -33.9748513 ] ], [ [ 18.4644555, -33.9748513 ], [ 18.4644488, -33.9747568 ] ], [ [ 18.4644488, -33.9747568 ], [ 18.4644413, -33.9746564 ] ], [ [ 18.4644413, -33.9746564 ], [ 18.4644374, -33.9745921 ] ], [ [ 18.4644374, -33.9745921 ], [ 18.4644162, -33.9741082 ] ], [ [ 18.4644162, -33.9741082 ], [ 18.4644108, -33.973841 ], [ 18.4644106, -33.9738305 ], [ 18.4644156, -33.9736771 ], [ 18.4644206, -33.9735622 ], [ 18.4644325, -33.9734408 ], [ 18.4644564, -33.9732924 ], [ 18.464485, -33.9731542 ], [ 18.464543, -33.9729317 ], [ 18.4645928, -33.972764 ], [ 18.4646344, -33.9726391 ], [ 18.4647877, -33.972235 ] ], [ [ 18.4647877, -33.972235 ], [ 18.4648016, -33.9721984 ], [ 18.4648225, -33.9721433 ] ], [ [ 18.4648225, -33.9721433 ], [ 18.4648721, -33.9720142 ] ], [ [ 18.4648721, -33.9720142 ], [ 18.4649374, -33.9718246 ], [ 18.4649759, -33.9717138 ] ], [ [ 18.4649759, -33.9717138 ], [ 18.4650312, -33.9715481 ], [ 18.4650635, -33.9714548 ] ], [ [ 18.4650635, -33.9714548 ], [ 18.4650913, -33.9713698 ], [ 18.465178, -33.9711256 ] ], [ [ 18.465178, -33.9711256 ], [ 18.4656161, -33.9699193 ] ], [ [ 18.4656161, -33.9699193 ], [ 18.4659665, -33.9690135 ], [ 18.4660249, -33.9688603 ] ], [ [ 18.4660249, -33.9688603 ], [ 18.4660399, -33.9688215 ] ], [ [ 18.4660399, -33.9688215 ], [ 18.4661609, -33.9684977 ], [ 18.466325, -33.9680591 ] ], [ [ 18.466325, -33.9680591 ], [ 18.4664264, -33.9677882 ], [ 18.4664645, -33.9676915 ] ], [ [ 18.4664645, -33.9676915 ], [ 18.4665101, -33.9675545 ], [ 18.4666633, -33.9671739 ], [ 18.466703, -33.967118 ] ], [ [ 18.466703, -33.967118 ], [ 18.4668051, -33.9669739 ] ], [ [ 18.4668051, -33.9669739 ], [ 18.4669086, -33.9667581 ] ], [ [ 18.4669086, -33.9667581 ], [ 18.4670973, -33.9663646 ], [ 18.4671634, -33.9662267 ], [ 18.4672956, -33.9659469 ], [ 18.4674439, -33.9656418 ], [ 18.4675288, -33.965464 ], [ 18.4677775, -33.96495 ], [ 18.468011, -33.9644603 ], [ 18.4682959, -33.963863 ], [ 18.468435, -33.9635712 ], [ 18.468481, -33.9635018 ], [ 18.4685429, -33.9634126 ], [ 18.4685776, -33.9633781 ], [ 18.468644, -33.9633162 ], [ 18.468662, -33.9633002 ], [ 18.4687192, -33.9632491 ], [ 18.468998, -33.9630206 ], [ 18.4692366, -33.9628318 ], [ 18.4693741, -33.9627177 ], [ 18.469442, -33.9626506 ], [ 18.4695183, -33.9625697 ] ], [ [ 18.4695183, -33.9625697 ], [ 18.4695674, -33.9625083 ], [ 18.4695964, -33.9624676 ], [ 18.4697912, -33.9620847 ], [ 18.4698304, -33.961988 ] ], [ [ 18.4698304, -33.961988 ], [ 18.4698586, -33.9618915 ], [ 18.4698802, -33.9617956 ], [ 18.4699146, -33.9615795 ], [ 18.4699252, -33.9615105 ] ], [ [ 18.4699252, -33.9615105 ], [ 18.469939, -33.9614212 ] ], [ [ 18.469939, -33.9614212 ], [ 18.4699629, -33.9612033 ] ], [ [ 18.4699629, -33.9612033 ], [ 18.4699649, -33.961186 ], [ 18.4700246, -33.9605992 ] ], [ [ 18.4700246, -33.9605992 ], [ 18.4700436, -33.9604326 ], [ 18.4700539, -33.9603756 ], [ 18.4700683, -33.9603187 ] ], [ [ 18.4700683, -33.9603187 ], [ 18.4700849, -33.9602691 ], [ 18.470104, -33.9602235 ], [ 18.4701286, -33.960174 ], [ 18.47015, -33.96014 ], [ 18.4703235, -33.9598744 ], [ 18.4703919, -33.9597699 ] ], [ [ 18.4703919, -33.9597699 ], [ 18.4704559, -33.9596709 ], [ 18.470514, -33.9595807 ], [ 18.4705678, -33.9595005 ], [ 18.470611, -33.9594362 ], [ 18.4706666, -33.9593532 ], [ 18.4707121, -33.9592854 ] ], [ [ 18.4707121, -33.9592854 ], [ 18.4707557, -33.9592067 ], [ 18.4707945, -33.9591102 ], [ 18.4708203, -33.9590163 ] ], [ [ 18.4708203, -33.9590163 ], [ 18.4708872, -33.9584908 ], [ 18.4709028, -33.9583838 ], [ 18.4709653, -33.9579612 ] ], [ [ 18.4709653, -33.9579612 ], [ 18.4709797, -33.9578863 ], [ 18.4710309, -33.9577051 ], [ 18.4711673, -33.9572217 ] ], [ [ 18.4711673, -33.9572217 ], [ 18.4712893, -33.9567826 ] ], [ [ 18.4712893, -33.9567826 ], [ 18.4714263, -33.956298 ] ], [ [ 18.4714263, -33.956298 ], [ 18.4715082, -33.9560088 ], [ 18.4715332, -33.9559211 ] ], [ [ 18.4720043, -33.9540763 ], [ 18.4719169, -33.9544391 ], [ 18.4717403, -33.9551778 ], [ 18.471718, -33.9552578 ], [ 18.4716869, -33.9553806 ], [ 18.4715571, -33.95582 ], [ 18.4715332, -33.9559211 ] ], [ [ 18.4720188, -33.953984 ], [ 18.4720043, -33.9540763 ] ], [ [ 18.4714893, -33.953879 ], [ 18.4719119, -33.9539637 ], [ 18.4719269, -33.9539665 ], [ 18.4720188, -33.953984 ] ], [ [ 18.4709641, -33.9537749 ], [ 18.4714893, -33.953879 ] ], [ [ 18.4707649, -33.9544758 ], [ 18.4708071, -33.9542933 ], [ 18.4708514, -33.9541242 ], [ 18.4709024, -33.9539529 ], [ 18.4709641, -33.9537749 ] ], [ [ 18.4704184, -33.955484 ], [ 18.470432, -33.955414 ], [ 18.4704556, -33.9553383 ], [ 18.4704885, -33.9552668 ], [ 18.4706396, -33.9549136 ], [ 18.4706522, -33.9548499 ], [ 18.4707649, -33.9544758 ] ], [ [ 18.4704085, -33.9555873 ], [ 18.4704184, -33.955484 ] ], [ [ 18.4703894, -33.9559083 ], [ 18.4704085, -33.9555873 ] ], [ [ 18.4703931, -33.9560751 ], [ 18.4703895, -33.9559895 ], [ 18.4703894, -33.9559515 ], [ 18.4703894, -33.9559083 ] ], [ [ 18.4703931, -33.9560751 ], [ 18.4702401, -33.9559627 ], [ 18.4701338, -33.9559127 ], [ 18.47006, -33.9558755 ], [ 18.469994, -33.9558482 ], [ 18.4699284, -33.9558281 ], [ 18.4696634, -33.9557598 ] ], [ [ 18.4696634, -33.9557598 ], [ 18.4693079, -33.9556665 ], [ 18.4688907, -33.9555613 ], [ 18.4687683, -33.9554706 ] ], [ [ 18.4665458, -33.955238 ], [ 18.4667341, -33.9552553 ], [ 18.4668352, -33.9552551 ], [ 18.4669599, -33.9552473 ], [ 18.4671371, -33.9552303 ], [ 18.4672993, -33.9552172 ], [ 18.4674215, -33.9552107 ], [ 18.4675527, -33.9552128 ], [ 18.467667, -33.955222 ], [ 18.4678129, -33.9552462 ], [ 18.467942, -33.9552746 ], [ 18.4687683, -33.9554706 ] ], [ [ 18.4656646, -33.9548195 ], [ 18.4661785, -33.9551161 ], [ 18.4663605, -33.955187 ], [ 18.4665458, -33.955238 ] ], [ [ 18.4656646, -33.9548195 ], [ 18.4655503, -33.9548058 ], [ 18.4652508, -33.9546634 ] ], [ [ 18.4652508, -33.9546634 ], [ 18.4651437, -33.9546138 ] ], [ [ 18.4651437, -33.9546138 ], [ 18.4650521, -33.9545687 ] ], [ [ 18.4650521, -33.9545687 ], [ 18.4644114, -33.9542304 ], [ 18.4643594, -33.9541653 ] ], [ [ 18.4642463, -33.9538871 ], [ 18.4642622, -33.9539697 ], [ 18.4642787, -33.9540321 ], [ 18.4643141, -33.9541005 ], [ 18.4643594, -33.9541653 ] ], [ [ 18.4642463, -33.9538871 ], [ 18.4642291, -33.953765 ] ], [ [ 18.4641319, -33.9529453 ], [ 18.4641575, -33.9529859 ], [ 18.4641799, -33.953079 ], [ 18.4641883, -33.9531639 ], [ 18.464232, -33.9535319 ], [ 18.4642291, -33.953765 ] ], [ [ 18.4641319, -33.9529453 ], [ 18.4641074, -33.9528981 ], [ 18.4640487, -33.9528354 ], [ 18.4639755, -33.9527873 ], [ 18.4638825, -33.9527616 ], [ 18.4637767, -33.9527496 ], [ 18.4636821, -33.9527602 ], [ 18.4635929, -33.9527868 ], [ 18.4635184, -33.9528334 ], [ 18.4634698, -33.952883 ], [ 18.4634327, -33.9529469 ], [ 18.463409, -33.9530202 ], [ 18.4631604, -33.9544746 ], [ 18.4631397, -33.9545667 ], [ 18.4630716, -33.954793 ], [ 18.4629516, -33.9551236 ], [ 18.4628894, -33.9553006 ] ], [ [ 18.4628894, -33.9553006 ], [ 18.4628182, -33.9555524 ] ], [ [ 18.4628182, -33.9555524 ], [ 18.4627537, -33.955638 ], [ 18.4627066, -33.9556778 ], [ 18.4626505, -33.9557036 ], [ 18.462573, -33.9557243 ], [ 18.4625016, -33.9557275 ], [ 18.4624219, -33.9557228 ], [ 18.4623463, -33.9557033 ], [ 18.4622877, -33.9556721 ] ], [ [ 18.4622877, -33.9556721 ], [ 18.4622609, -33.9556521 ], [ 18.4622284, -33.955624 ], [ 18.4621774, -33.9555659 ], [ 18.4621403, -33.9555077 ] ], [ [ 18.4621403, -33.9555077 ], [ 18.4621242, -33.9554464 ] ], [ [ 18.4621242, -33.9554464 ], [ 18.4621176, -33.9553453 ], [ 18.4621228, -33.9553217 ], [ 18.4621387, -33.9552903 ] ], [ [ 18.4617688, -33.9550236 ], [ 18.4618936, -33.9550527 ], [ 18.4619502, -33.955071 ], [ 18.4620033, -33.9550962 ], [ 18.4620436, -33.9551251 ], [ 18.4620804, -33.9551619 ], [ 18.462108, -33.9552013 ], [ 18.4621248, -33.9552419 ], [ 18.4621335, -33.9552736 ], [ 18.4621387, -33.9552903 ] ], [ [ 18.4617688, -33.9550236 ], [ 18.4617107, -33.9550322 ], [ 18.4616745, -33.955043 ], [ 18.4616373, -33.9550586 ], [ 18.4616152, -33.9550706 ], [ 18.461594, -33.9550806 ], [ 18.4615682, -33.9550887 ], [ 18.461541, -33.9550928 ], [ 18.4615126, -33.9550923 ], [ 18.4614388, -33.9550817 ] ], [ [ 18.4614388, -33.9550817 ], [ 18.4614566, -33.9549503 ] ], [ [ 18.4597708, -33.9606411 ], [ 18.4596392, -33.960524 ], [ 18.4595874, -33.9604762 ], [ 18.4594952, -33.9603779 ], [ 18.4594413, -33.9603018 ], [ 18.4591459, -33.959885 ], [ 18.4589767, -33.9596328 ], [ 18.4589416, -33.9595781 ], [ 18.4588659, -33.9594434 ], [ 18.458834, -33.9593661 ], [ 18.4588086, -33.9592771 ], [ 18.4587968, -33.9591664 ], [ 18.4588027, -33.9590597 ], [ 18.4588236, -33.9589511 ], [ 18.4588535, -33.9588472 ], [ 18.4589903, -33.9585056 ], [ 18.4593355, -33.9576402 ], [ 18.4596437, -33.9568674 ], [ 18.459683, -33.9567576 ], [ 18.4600055, -33.9559435 ], [ 18.460044, -33.9558059 ], [ 18.4600695, -33.9556791 ], [ 18.4600789, -33.9555734 ], [ 18.4600804, -33.9554798 ], [ 18.4600752, -33.9553515 ], [ 18.4600598, -33.9549747 ], [ 18.4600628, -33.9549248 ], [ 18.4600793, -33.9548798 ], [ 18.4601105, -33.9548373 ], [ 18.4601376, -33.9548003 ], [ 18.4601859, -33.9547619 ], [ 18.4602347, -33.9547374 ], [ 18.4602843, -33.954722 ], [ 18.4603395, -33.9547137 ], [ 18.4604092, -33.9547111 ], [ 18.4604595, -33.9547142 ], [ 18.460787, -33.9547914 ], [ 18.4608578, -33.9548076 ], [ 18.4614566, -33.9549503 ] ], [ [ 18.4599512, -33.9607862 ], [ 18.4598102, -33.960672 ], [ 18.4597708, -33.9606411 ] ], [ [ 18.4599897, -33.9608336 ], [ 18.4599512, -33.9607862 ] ], [ [ 18.4599897, -33.9608336 ], [ 18.460047, -33.9609449 ], [ 18.4600695, -33.9610034 ], [ 18.4600889, -33.961058 ], [ 18.460101, -33.9611208 ], [ 18.4601111, -33.9611925 ], [ 18.4601157, -33.9613021 ], [ 18.4601024, -33.961425 ], [ 18.4600789, -33.9615268 ], [ 18.4599596, -33.9618877 ], [ 18.4599098, -33.9620295 ], [ 18.4597329, -33.9625334 ], [ 18.4597007, -33.962608 ], [ 18.4596184, -33.9627727 ], [ 18.4595948, -33.9628199 ], [ 18.4593426, -33.9632648 ], [ 18.4592321, -33.9634858 ], [ 18.4592135, -33.9635261 ], [ 18.4591609, -33.9636407 ] ], [ [ 18.4591609, -33.9636407 ], [ 18.459096, -33.963796 ], [ 18.459056, -33.9638554 ], [ 18.4589984, -33.9639207 ], [ 18.4589332, -33.9639808 ] ] ] } },
{ "type": "Feature", "properties": { "name": "Upper Campus - Sandown", "ref": "3", "operator": "University of Cape Town" }, "geometry": { "type": "MultiLineString", "coordinates": [ [ [ 18.4609423, -33.9601668 ], [ 18.4608463, -33.9602336 ], [ 18.4604985, -33.9604757 ], [ 18.4604705, -33.9604951 ], [ 18.4604427, -33.9605145 ] ], [ [ 18.4604427, -33.9605145 ], [ 18.4600535, -33.9607849 ], [ 18.4600357, -33.9607992 ], [ 18.4599897, -33.9608336 ] ], [ [ 18.4599897, -33.9608336 ], [ 18.460047, -33.9609449 ], [ 18.4600695, -33.9610034 ], [ 18.4600889, -33.961058 ], [ 18.460101, -33.9611208 ], [ 18.4601111, -33.9611925 ], [ 18.4601157, -33.9613021 ], [ 18.4601024, -33.961425 ], [ 18.4600789, -33.9615268 ], [ 18.4599596, -33.9618877 ], [ 18.4599098, -33.9620295 ], [ 18.4597329, -33.9625334 ], [ 18.4597007, -33.962608 ], [ 18.4596184, -33.9627727 ], [ 18.4595948, -33.9628199 ], [ 18.4593426, -33.9632648 ], [ 18.4592321, -33.9634858 ], [ 18.4592135, -33.9635261 ], [ 18.4591609, -33.9636407 ] ], [ [ 18.4591609, -33.9636407 ], [ 18.459096, -33.963796 ], [ 18.459056, -33.9638554 ], [ 18.4589984, -33.9639207 ], [ 18.4589332, -33.9639808 ] ], [ [ 18.4589332, -33.9639808 ], [ 18.4589024, -33.9640256 ], [ 18.4588746, -33.964062 ], [ 18.4588555, -33.964094 ], [ 18.4588387, -33.9641307 ], [ 18.4588257, -33.9641657 ] ], [ [ 18.4588257, -33.9641657 ], [ 18.4588226, -33.9641816 ], [ 18.458822, -33.9642038 ], [ 18.458831, -33.9642475 ], [ 18.4588496, -33.9643168 ], [ 18.4588645, -33.9643611 ], [ 18.4588482, -33.9644326 ] ], [ [ 18.4588482, -33.9644326 ], [ 18.4587854, -33.9645144 ], [ 18.4587042, -33.9645632 ], [ 18.4586374, -33.9645982 ], [ 18.4585764, -33.9646412 ], [ 18.4585192, -33.9646844 ], [ 18.4584785, -33.9647265 ], [ 18.4584294, -33.9647865 ], [ 18.458397, -33.9648376 ], [ 18.4583662, -33.9648955 ], [ 18.4583437, -33.9649569 ], [ 18.4583329, -33.9650197 ], [ 18.4583238, -33.9650853 ], [ 18.4583221, -33.9651315 ], [ 18.4583254, -33.9651832 ], [ 18.4583379, -33.965255 ], [ 18.4583637, -33.9653337 ], [ 18.458387, -33.9653771 ], [ 18.4584144, -33.9654199 ], [ 18.458451, -33.9654627 ], [ 18.4585099, -33.965524 ] ], [ [ 18.4585099, -33.965524 ], [ 18.458519, -33.9655328 ], [ 18.4585641, -33.9655725 ] ], [ [ 18.4585641, -33.9655725 ], [ 18.4585965, -33.9656031 ] ], [ [ 18.4585965, -33.9656031 ], [ 18.4587444, -33.9657317 ], [ 18.4588459, -33.9658042 ], [ 18.4589178, -33.9658494 ], [ 18.4591539, -33.9659825 ] ], [ [ 18.4591539, -33.9659825 ], [ 18.4594886, -33.9661691 ], [ 18.4600896, -33.9664871 ] ], [ [ 18.4600896, -33.9664871 ], [ 18.460262, -33.9666211 ], [ 18.4603183, -33.9666606 ], [ 18.460473, -33.966749 ], [ 18.4605876, -33.9668055 ], [ 18.4607476, -33.966871 ], [ 18.4607935, -33.9668939 ] ], [ [ 18.4607935, -33.9668939 ], [ 18.4608179, -33.9669442 ] ], [ [ 18.4608179, -33.9669442 ], [ 18.4608061, -33.9669845 ], [ 18.4607728, -33.9670813 ], [ 18.4607553, -33.9671137 ], [ 18.4607271, -33.9671551 ], [ 18.4606748, -33.9672213 ] ], [ [ 18.4606748, -33.9672213 ], [ 18.4605567, -33.9673023 ] ], [ [ 18.4603434, -33.9674508 ], [ 18.4605567, -33.9673023 ] ], [ [ 18.4584537, -33.9689812 ], [ 18.4585005, -33.9689422 ], [ 18.4585067, -33.968937 ], [ 18.4589739, -33.9685476 ], [ 18.4590363, -33.9684956 ], [ 18.4591584, -33.9683933 ], [ 18.4596404, -33.9679892 ], [ 18.4599647, -33.96773 ], [ 18.4601942, -33.9675654 ], [ 18.4603434, -33.9674508 ] ], [ [ 18.4584537, -33.9689812 ], [ 18.4584729, -33.9690124 ], [ 18.4584816, -33.9690234 ], [ 18.4584953, -33.9690407 ], [ 18.4585179, -33.969058 ], [ 18.4585588, -33.9690831 ], [ 18.4587251, -33.9691773 ], [ 18.4587837, -33.9692037 ], [ 18.4588397, -33.9692276 ], [ 18.4597215, -33.9695563 ], [ 18.4598778, -33.9696092 ], [ 18.4601792, -33.9697113 ], [ 18.4615451, -33.9702032 ], [ 18.4616516, -33.970239 ], [ 18.4617736, -33.9702856 ], [ 18.4619596, -33.9703506 ] ], [ [ 18.4619596, -33.9703506 ], [ 18.4624965, -33.9705454 ], [ 18.4632169, -33.9708084 ] ], [ [ 18.4632169, -33.9708084 ], [ 18.4632934, -33.970836 ] ], [ [ 18.4632934, -33.970836 ], [ 18.4639915, -33.9710954 ] ], [ [ 18.4639915, -33.9710954 ], [ 18.4641377, -33.9711473 ], [ 18.4644358, -33.9712542 ], [ 18.4649184, -33.971412 ], [ 18.4649434, -33.9714208 ], [ 18.4650635, -33.9714548 ] ], [ [ 18.4650635, -33.9714548 ], [ 18.4650913, -33.9713698 ], [ 18.465178, -33.9711256 ] ], [ [ 18.465178, -33.9711256 ], [ 18.4656161, -33.9699193 ] ], [ [ 18.4656161, -33.9699193 ], [ 18.4659665, -33.9690135 ], [ 18.4660249, -33.9688603 ] ], [ [ 18.4660249, -33.9688603 ], [ 18.4660399, -33.9688215 ] ], [ [ 18.4660399, -33.9688215 ], [ 18.4661609, -33.9684977 ], [ 18.466325, -33.9680591 ] ], [ [ 18.466325, -33.9680591 ], [ 18.4664264, -33.9677882 ], [ 18.4664645, -33.9676915 ] ], [ [ 18.4664645, -33.9676915 ], [ 18.4665101, -33.9675545 ], [ 18.4666633, -33.9671739 ], [ 18.466703, -33.967118 ] ], [ [ 18.466703, -33.967118 ], [ 18.4668051, -33.9669739 ] ], [ [ 18.4668051, -33.9669739 ], [ 18.4669086, -33.9667581 ] ], [ [ 18.4669086, -33.9667581 ], [ 18.4670973, -33.9663646 ], [ 18.4671634, -33.9662267 ], [ 18.4672956, -33.9659469 ], [ 18.4674439, -33.9656418 ], [ 18.4675288, -33.965464 ], [ 18.4677775, -33.96495 ], [ 18.468011, -33.9644603 ], [ 18.4682959, -33.963863 ], [ 18.468435, -33.9635712 ], [ 18.468481, -33.9635018 ], [ 18.4685429, -33.9634126 ], [ 18.4685776, -33.9633781 ], [ 18.468644, -33.9633162 ], [ 18.468662, -33.9633002 ], [ 18.4687192, -33.9632491 ], [ 18.468998, -33.9630206 ], [ 18.4692366, -33.9628318 ], [ 18.4693741, -33.9627177 ], [ 18.469442, -33.9626506 ], [ 18.4695183, -33.9625697 ] ], [ [ 18.4695183, -33.9625697 ], [ 18.4695674, -33.9625083 ], [ 18.4695964, -33.9624676 ], [ 18.4697912, -33.9620847 ], [ 18.4698304, -33.961988 ] ], [ [ 18.4698304, -33.961988 ], [ 18.4698586, -33.9618915 ], [ 18.4698802, -33.9617956 ], [ 18.4699146, -33.9615795 ], [ 18.4699252, -33.9615105 ] ], [ [ 18.4699252, -33.9615105 ], [ 18.469939, -33.9614212 ] ], [ [ 18.469939, -33.9614212 ], [ 18.4699629, -33.9612033 ] ], [ [ 18.4699629, -33.9612033 ], [ 18.4700265, -33.9612782 ], [ 18.4700781, -33.961337 ], [ 18.4701106, -33.9613837 ] ], [ [ 18.4701106, -33.9613837 ], [ 18.4701696, -33.9614063 ], [ 18.4703559, -33.9614738 ], [ 18.4704665, -33.9615069 ] ], [ [ 18.4704665, -33.9615069 ], [ 18.4705561, -33.9615042 ] ], [ [ 18.4705561, -33.9615042 ], [ 18.4706312, -33.9615086 ] ], [ [ 18.4706312, -33.9615086 ], [ 18.4706844, -33.9615082 ] ], [ [ 18.4706844, -33.9615082 ], [ 18.4707511, -33.9615096 ], [ 18.4708115, -33.9615075 ], [ 18.4709142, -33.9614991 ], [ 18.4709707, -33.9614905 ], [ 18.4710163, -33.9614821 ] ], [ [ 18.4710163, -33.9614821 ], [ 18.4710778, -33.9614723 ], [ 18.4711347, -33.961459 ], [ 18.4712147, -33.961435 ], [ 18.4713308, -33.961395 ], [ 18.4714982, -33.9613374 ] ], [ [ 18.4714982, -33.9613374 ], [ 18.4717792, -33.9612409 ] ], [ [ 18.4717792, -33.9612409 ], [ 18.4725121, -33.960988 ], [ 18.4730907, -33.9607883 ] ], [ [ 18.4730907, -33.9607883 ], [ 18.4733286, -33.960704 ] ], [ [ 18.4733286, -33.960704 ], [ 18.4734965, -33.9606353 ], [ 18.4736874, -33.9605387 ] ], [ [ 18.4736874, -33.9605387 ], [ 18.4737258, -33.9605236 ], [ 18.4738043, -33.9604876 ], [ 18.4738882, -33.9604493 ], [ 18.4740525, -33.9603813 ], [ 18.4742179, -33.9603224 ], [ 18.4744354, -33.96025 ] ], [ [ 18.4744354, -33.96025 ], [ 18.4745437, -33.9602183 ] ], [ [ 18.4745437, -33.9602183 ], [ 18.4752092, -33.9599968 ] ], [ [ 18.4752092, -33.9599968 ], [ 18.4754659, -33.9599006 ] ], [ [ 18.4754659, -33.9599006 ], [ 18.4757142, -33.9598029 ], [ 18.4758813, -33.9597326 ], [ 18.476037, -33.959678 ], [ 18.4761294, -33.9596529 ], [ 18.4762428, -33.9596283 ], [ 18.4763406, -33.9596136 ], [ 18.4764713, -33.9595986 ], [ 18.476582, -33.9595965 ] ], [ [ 18.476582, -33.9595965 ], [ 18.4766834, -33.959599 ], [ 18.4767826, -33.959606 ], [ 18.4769628, -33.9596242 ], [ 18.477086, -33.9596359 ], [ 18.4770955, -33.9596369 ], [ 18.477256, -33.959654 ] ], [ [ 18.477256, -33.959654 ], [ 18.4774043, -33.9596575 ], [ 18.4774727, -33.9596592 ], [ 18.4776111, -33.9596608 ] ], [ [ 18.4776111, -33.9596608 ], [ 18.4780593, -33.9596655 ] ], [ [ 18.4780593, -33.9596655 ], [ 18.4781798, -33.959664 ] ], [ [ 18.4781798, -33.959664 ], [ 18.4783102, -33.959656 ] ], [ [ 18.4783102, -33.959656 ], [ 18.4783446, -33.9597738 ] ], [ [ 18.4783446, -33.9597738 ], [ 18.4783544, -33.9598613 ] ], [ [ 18.4783544, -33.9598613 ], [ 18.4783502, -33.959968 ], [ 18.4783348, -33.9600925 ], [ 18.478322, -33.9601617 ], [ 18.4782985, -33.9602333 ] ], [ [ 18.4782985, -33.9602333 ], [ 18.4782275, -33.9603915 ], [ 18.4778625, -33.9611154 ], [ 18.4777869, -33.961262 ] ], [ [ 18.4777869, -33.961262 ], [ 18.4777591, -33.9613002 ], [ 18.4777173, -33.9613575 ], [ 18.477635, -33.9614661 ], [ 18.4775958, -33.9615128 ] ], [ [ 18.4775958, -33.9615128 ], [ 18.4775288, -33.961584 ], [ 18.4773615, -33.9617425 ] ], [ [ 18.4773615, -33.9617425 ], [ 18.4772696, -33.9618342 ], [ 18.4771077, -33.9620208 ], [ 18.4770203, -33.9621289 ], [ 18.4769587, -33.9622207 ], [ 18.4768699, -33.9623608 ], [ 18.4768057, -33.9624789 ], [ 18.4767312, -33.9626493 ], [ 18.4766621, -33.9628319 ], [ 18.4766143, -33.9629682 ] ], [ [ 18.4766143, -33.9629682 ], [ 18.4765284, -33.9632323 ], [ 18.4764342, -33.9634987 ], [ 18.4764245, -33.9635178 ], [ 18.4764014, -33.9635634 ] ], [ [ 18.4764014, -33.9635634 ], [ 18.4763664, -33.9636385 ] ], [ [ 18.4763664, -33.9636385 ], [ 18.4763422, -33.9636892 ], [ 18.4763259, -33.9637234 ] ], [ [ 18.4763259, -33.9637234 ], [ 18.476185, -33.9640683 ], [ 18.4760909, -33.9642767 ] ], [ [ 18.4760909, -33.9642767 ], [ 18.4759516, -33.9645475 ], [ 18.4758758, -33.9646642 ] ], [ [ 18.4758758, -33.9646642 ], [ 18.475857, -33.9647063 ] ], [ [ 18.4757201, -33.9649911 ], [ 18.4757683, -33.9648988 ], [ 18.475857, -33.9647063 ] ], [ [ 18.4757201, -33.9649911 ], [ 18.4758074, -33.9650196 ], [ 18.4758185, -33.9650221 ], [ 18.4758454, -33.9650323 ], [ 18.4758631, -33.9650407 ], [ 18.4758848, -33.9650566 ], [ 18.4759132, -33.965086 ], [ 18.4760695, -33.9653494 ] ], [ [ 18.4760695, -33.9653494 ], [ 18.4764727, -33.965278 ], [ 18.4769141, -33.9651998 ], [ 18.4770146, -33.9651809 ], [ 18.4771002, -33.9651584 ], [ 18.47715, -33.9651364 ], [ 18.4772453, -33.9650653 ], [ 18.4773309, -33.9649857 ], [ 18.4774293, -33.9648748 ], [ 18.4775309, -33.9647699 ], [ 18.477712, -33.9645611 ], [ 18.4778478, -33.9644014 ] ], [ [ 18.4778478, -33.9644014 ], [ 18.4779117, -33.9642991 ], [ 18.4779555, -33.9642172 ], [ 18.4779595, -33.9642099 ], [ 18.4779637, -33.9642023 ], [ 18.4779922, -33.9641507 ] ], [ [ 18.4777084, -33.9640494 ], [ 18.4778051, -33.9640842 ], [ 18.4779922, -33.9641507 ] ], [ [ 18.4764014, -33.9635634 ], [ 18.4764954, -33.9635897 ], [ 18.477061, -33.9637764 ], [ 18.4773705, -33.9638896 ], [ 18.4777084, -33.9640494 ] ], [ [ 18.4762738, -33.9635324 ], [ 18.4764014, -33.9635634 ] ], [ [ 18.4762738, -33.9635324 ], [ 18.4762917, -33.9634849 ], [ 18.4762977, -33.9634691 ], [ 18.4763833, -33.9632382 ], [ 18.4764752, -33.9629812 ], [ 18.4766574, -33.9624883 ], [ 18.4766981, -33.9623747 ] ], [ [ 18.4766981, -33.9623747 ], [ 18.4767515, -33.9622627 ], [ 18.4768232, -33.9621414 ], [ 18.476877, -33.9620375 ], [ 18.4770186, -33.9618768 ], [ 18.4771284, -33.9617544 ], [ 18.4772056, -33.9616785 ], [ 18.4773346, -33.9615492 ], [ 18.4774428, -33.9614489 ], [ 18.4775115, -33.9613762 ], [ 18.4776163, -33.9612671 ], [ 18.4776617, -33.9612162 ] ], [ [ 18.4776617, -33.9612162 ], [ 18.4777512, -33.9610678 ], [ 18.4778052, -33.9609577 ], [ 18.4778835, -33.9607812 ], [ 18.477942, -33.9606477 ], [ 18.4780158, -33.960504 ] ], [ [ 18.4780158, -33.960504 ], [ 18.4780739, -33.9603864 ], [ 18.4781145, -33.9603038 ], [ 18.4781468, -33.9602299 ], [ 18.478176, -33.9601446 ], [ 18.4781974, -33.9600502 ], [ 18.47821, -33.9599583 ], [ 18.4782136, -33.959858 ] ], [ [ 18.4782136, -33.959858 ], [ 18.4782054, -33.9597717 ] ], [ [ 18.4782054, -33.9597717 ], [ 18.478071, -33.9597651 ] ], [ [ 18.478071, -33.9597651 ], [ 18.4778995, -33.959751 ], [ 18.4776059, -33.9597285 ] ], [ [ 18.4776059, -33.9597285 ], [ 18.4774689, -33.9597071 ], [ 18.4773936, -33.959698 ], [ 18.477256, -33.959654 ] ], [ [ 18.476582, -33.9595965 ], [ 18.4766834, -33.959599 ], [ 18.4767826, -33.959606 ], [ 18.4769628, -33.9596242 ], [ 18.477086, -33.9596359 ], [ 18.4770955, -33.9596369 ], [ 18.477256, -33.959654 ] ], [ [ 18.4754659, -33.9599006 ], [ 18.4757142, -33.9598029 ], [ 18.4758813, -33.9597326 ], [ 18.476037, -33.959678 ], [ 18.4761294, -33.9596529 ], [ 18.4762428, -33.9596283 ], [ 18.4763406, -33.9596136 ], [ 18.4764713, -33.9595986 ], [ 18.476582, -33.9595965 ] ], [ [ 18.4752092, -33.9599968 ], [ 18.4754659, -33.9599006 ] ], [ [ 18.4745437, -33.9602183 ], [ 18.4752092, -33.9599968 ] ], [ [ 18.4744354, -33.96025 ], [ 18.4745437, -33.9602183 ] ], [ [ 18.4736874, -33.9605387 ], [ 18.4737258, -33.9605236 ], [ 18.4738043, -33.9604876 ], [ 18.4738882, -33.9604493 ], [ 18.4740525, -33.9603813 ], [ 18.4742179, -33.9603224 ], [ 18.4744354, -33.96025 ] ], [ [ 18.4733286, -33.960704 ], [ 18.4734965, -33.9606353 ], [ 18.4736874, -33.9605387 ] ], [ [ 18.4730907, -33.9607883 ], [ 18.4733286, -33.960704 ] ], [ [ 18.4717792, -33.9612409 ], [ 18.4725121, -33.960988 ], [ 18.4730907, -33.9607883 ] ], [ [ 18.4714982, -33.9613374 ], [ 18.4717792, -33.9612409 ] ], [ [ 18.4710163, -33.9614821 ], [ 18.4710778, -33.9614723 ], [ 18.4711347, -33.961459 ], [ 18.4712147, -33.961435 ], [ 18.4713308, -33.961395 ], [ 18.4714982, -33.9613374 ] ], [ [ 18.4706844, -33.9615082 ], [ 18.4707511, -33.9615096 ], [ 18.4708115, -33.9615075 ], [ 18.4709142, -33.9614991 ], [ 18.4709707, -33.9614905 ], [ 18.4710163, -33.9614821 ] ], [ [ 18.4706312, -33.9615086 ], [ 18.4706844, -33.9615082 ] ], [ [ 18.4705561, -33.9615042 ], [ 18.4706312, -33.9615086 ] ], [ [ 18.4704665, -33.9615069 ], [ 18.4705561, -33.9615042 ] ], [ [ 18.4704665, -33.9615069 ], [ 18.4704018, -33.961523 ], [ 18.4703447, -33.9615296 ], [ 18.4701745, -33.9615242 ], [ 18.4700278, -33.9615178 ] ], [ [ 18.4700278, -33.9615178 ], [ 18.4699252, -33.9615105 ] ], [ [ 18.4698304, -33.961988 ], [ 18.4698586, -33.9618915 ], [ 18.4698802, -33.9617956 ], [ 18.4699146, -33.9615795 ], [ 18.4699252, -33.9615105 ] ], [ [ 18.4695183, -33.9625697 ], [ 18.4695674, -33.9625083 ], [ 18.4695964, -33.9624676 ], [ 18.4697912, -33.9620847 ], [ 18.4698304, -33.961988 ] ], [ [ 18.4669086, -33.9667581 ], [ 18.4670973, -33.9663646 ], [ 18.4671634, -33.9662267 ], [ 18.4672956, -33.9659469 ], [ 18.4674439, -33.9656418 ], [ 18.4675288, -33.965464 ], [ 18.4677775, -33.96495 ], [ 18.468011, -33.9644603 ], [ 18.4682959, -33.963863 ], [ 18.468435, -33.9635712 ], [ 18.468481, -33.9635018 ], [ 18.4685429, -33.9634126 ], [ 18.4685776, -33.9633781 ], [ 18.468644, -33.9633162 ], [ 18.468662, -33.9633002 ], [ 18.4687192, -33.9632491 ], [ 18.468998, -33.9630206 ], [ 18.4692366, -33.9628318 ], [ 18.4693741, -33.9627177 ], [ 18.469442, -33.9626506 ], [ 18.4695183, -33.9625697 ] ], [ [ 18.4668051, -33.9669739 ], [ 18.4669086, -33.9667581 ] ], [ [ 18.466703, -33.967118 ], [ 18.4668051, -33.9669739 ] ], [ [ 18.4664645, -33.9676915 ], [ 18.4665101, -33.9675545 ], [ 18.4666633, -33.9671739 ], [ 18.466703, -33.967118 ] ], [ [ 18.466325, -33.9680591 ], [ 18.4664264, -33.9677882 ], [ 18.4664645, -33.9676915 ] ], [ [ 18.4660399, -33.9688215 ], [ 18.4661609, -33.9684977 ], [ 18.466325, -33.9680591 ] ], [ [ 18.4660249, -33.9688603 ], [ 18.4660399, -33.9688215 ] ], [ [ 18.4656161, -33.9699193 ], [ 18.4659665, -33.9690135 ], [ 18.4660249, -33.9688603 ] ], [ [ 18.465178, -33.9711256 ], [ 18.4656161, -33.9699193 ] ], [ [ 18.4650635, -33.9714548 ], [ 18.4650913, -33.9713698 ], [ 18.465178, -33.9711256 ] ], [ [ 18.4639915, -33.9710954 ], [ 18.4641377, -33.9711473 ], [ 18.4644358, -33.9712542 ], [ 18.4649184, -33.971412 ], [ 18.4649434, -33.9714208 ], [ 18.4650635, -33.9714548 ] ], [ [ 18.4632934, -33.970836 ], [ 18.4639915, -33.9710954 ] ], [ [ 18.4632169, -33.9708084 ], [ 18.4632934, -33.970836 ] ], [ [ 18.4619596, -33.9703506 ], [ 18.4624965, -33.9705454 ], [ 18.4632169, -33.9708084 ] ], [ [ 18.4584537, -33.9689812 ], [ 18.4584729, -33.9690124 ], [ 18.4584816, -33.9690234 ], [ 18.4584953, -33.9690407 ], [ 18.4585179, -33.969058 ], [ 18.4585588, -33.9690831 ], [ 18.4587251, -33.9691773 ], [ 18.4587837, -33.9692037 ], [ 18.4588397, -33.9692276 ], [ 18.4597215, -33.9695563 ], [ 18.4598778, -33.9696092 ], [ 18.4601792, -33.9697113 ], [ 18.4615451, -33.9702032 ], [ 18.4616516, -33.970239 ], [ 18.4617736, -33.9702856 ], [ 18.4619596, -33.9703506 ] ], [ [ 18.4584537, -33.9689812 ], [ 18.4585005, -33.9689422 ], [ 18.4585067, -33.968937 ], [ 18.4589739, -33.9685476 ], [ 18.4590363, -33.9684956 ], [ 18.4591584, -33.9683933 ], [ 18.4596404, -33.9679892 ], [ 18.4599647, -33.96773 ], [ 18.4601942, -33.9675654 ], [ 18.4603434, -33.9674508 ] ], [ [ 18.4603434, -33.9674508 ], [ 18.4604507, -33.9673229 ], [ 18.4605315, -33.9672159 ], [ 18.460548, -33.9671817 ], [ 18.4605604, -33.9671422 ], [ 18.4605664, -33.9671063 ], [ 18.4605657, -33.9670657 ], [ 18.460553, -33.9670087 ], [ 18.4605295, -33.966962 ], [ 18.460492, -33.9669092 ], [ 18.4604336, -33.9668575 ], [ 18.4602948, -33.9667629 ], [ 18.4602237, -33.9667079 ], [ 18.4601802, -33.9666611 ], [ 18.460148, -33.9666305 ] ], [ [ 18.460148, -33.9666305 ], [ 18.4592072, -33.9661167 ] ], [ [ 18.4592072, -33.9661167 ], [ 18.4590791, -33.9660244 ], [ 18.4589866, -33.9659649 ], [ 18.4588763, -33.9658967 ], [ 18.4588129, -33.9658553 ], [ 18.4587004, -33.9657723 ], [ 18.4585427, -33.965639 ], [ 18.4585112, -33.9656089 ] ], [ [ 18.4585112, -33.9656089 ], [ 18.458455, -33.9655522 ] ], [ [ 18.458455, -33.9655522 ], [ 18.458417, -33.9655155 ], [ 18.4583639, -33.9654524 ], [ 18.4583342, -33.9654081 ], [ 18.458312, -33.9653692 ], [ 18.4583023, -33.9653403 ], [ 18.4582848, -33.9652833 ], [ 18.4582741, -33.965231 ], [ 18.4582663, -33.9651693 ], [ 18.4582638, -33.9651274 ], [ 18.4582656, -33.965067 ], [ 18.4582746, -33.9650015 ] ], [ [ 18.4582746, -33.9650015 ], [ 18.4582873, -33.9649521 ], [ 18.4583079, -33.9648918 ], [ 18.4583267, -33.9648489 ], [ 18.4583605, -33.9647905 ], [ 18.4583896, -33.964747 ], [ 18.458426, -33.9647058 ], [ 18.4584739, -33.964658 ], [ 18.4585384, -33.964605 ] ], [ [ 18.4585384, -33.964605 ], [ 18.4586357, -33.9645382 ], [ 18.4587405, -33.964481 ], [ 18.4588482, -33.9644326 ] ], [ [ 18.4588482, -33.9644326 ], [ 18.4591009, -33.9642717 ] ], [ [ 18.4591009, -33.9642717 ], [ 18.4591804, -33.9642111 ], [ 18.4592555, -33.9641352 ], [ 18.4592957, -33.9640762 ], [ 18.4593628, -33.9639222 ] ], [ [ 18.4593628, -33.9639222 ], [ 18.4594078, -33.9638005 ], [ 18.4594972, -33.9635567 ], [ 18.4595617, -33.9633936 ], [ 18.4597696, -33.9629994 ] ], [ [ 18.4597696, -33.9629994 ], [ 18.459973, -33.9624173 ], [ 18.4602459, -33.9616487 ], [ 18.46033, -33.9614143 ] ], [ [ 18.46033, -33.9614143 ], [ 18.4603503, -33.9612288 ], [ 18.4604109, -33.961116 ], [ 18.460473, -33.9610165 ], [ 18.4605317, -33.9609411 ], [ 18.460614, -33.9608511 ], [ 18.4607399, -33.9607365 ], [ 18.4608388, -33.9606654 ], [ 18.4609131, -33.9606174 ], [ 18.4610256, -33.9605565 ], [ 18.4612202, -33.9604503 ], [ 18.4613975, -33.9603578 ], [ 18.4615151, -33.9602902 ] ] ] } },
{ "type": "Feature", "properties": { "name": "Upper Campus - Hiddingh Campus", "ref": null, "operator": "University of Cape Town" }, "geometry": { "type": "MultiLineString", "coordinates": [ [ [ 18.4128863, -33.9297195 ], [ 18.412976, -33.9297505 ], [ 18.413033, -33.9297833 ], [ 18.4132738, -33.9299568 ], [ 18.413444, -33.9300757 ] ], [ [ 18.4128863, -33.9297195 ], [ 18.4128754, -33.9298467 ], [ 18.4128627, -33.9298864 ], [ 18.4128358, -33.9299764 ], [ 18.41282, -33.9300387 ], [ 18.4128189, -33.9300863 ], [ 18.412833, -33.9301554 ], [ 18.4128595, -33.930221 ], [ 18.4128802, -33.930268 ], [ 18.4129389, -33.9303762 ] ], [ [ 18.4129389, -33.9303762 ], [ 18.4133377, -33.9310051 ], [ 18.4134304, -33.931148 ] ], [ [ 18.4134304, -33.931148 ], [ 18.4137172, -33.9315547 ], [ 18.4137275, -33.9315693 ], [ 18.414381, -33.9324905 ], [ 18.4144806, -33.9326286 ] ], [ [ 18.4144806, -33.9326286 ], [ 18.4146087, -33.9328045 ], [ 18.4147467, -33.932992 ], [ 18.4148353, -33.9331124 ], [ 18.4148688, -33.9331579 ], [ 18.4149583, -33.9332824 ], [ 18.4150146, -33.9333472 ] ], [ [ 18.4150146, -33.9333472 ], [ 18.4150514, -33.9333896 ], [ 18.4150627, -33.9334004 ], [ 18.4151607, -33.9334944 ], [ 18.4152108, -33.9335338 ], [ 18.4152936, -33.9335834 ], [ 18.415444, -33.9336528 ], [ 18.4155704, -33.9336938 ], [ 18.4157398, -33.9337436 ], [ 18.4159173, -33.9337801 ], [ 18.4160808, -33.9337838 ], [ 18.4161967, -33.933786 ] ], [ [ 18.4161967, -33.933786 ], [ 18.4163602, -33.9337882 ], [ 18.4169471, -33.9338079 ], [ 18.4171426, -33.9338155 ], [ 18.417441, -33.9338293 ], [ 18.4174905, -33.9338325 ] ], [ [ 18.4174905, -33.9338325 ], [ 18.4178014, -33.9338589 ], [ 18.4179615, -33.933868 ] ], [ [ 18.4179615, -33.933868 ], [ 18.418217, -33.9338826 ], [ 18.418449, -33.9339004 ], [ 18.4186702, -33.9339265 ], [ 18.4189982, -33.9339741 ], [ 18.4192672, -33.9340153 ], [ 18.4199202, -33.934114 ], [ 18.4205592, -33.9342112 ], [ 18.4207685, -33.9342401 ], [ 18.4209555, -33.9342631 ], [ 18.4211545, -33.9342815 ], [ 18.4214085, -33.9342987 ] ], [ [ 18.4214085, -33.9342987 ], [ 18.4216422, -33.9343087 ], [ 18.4218542, -33.9343111 ], [ 18.4220995, -33.934311 ], [ 18.4223101, -33.9342954 ], [ 18.4225752, -33.9342745 ] ], [ [ 18.4225752, -33.9342745 ], [ 18.4229692, -33.9342435 ] ], [ [ 18.4229692, -33.9342435 ], [ 18.4230567, -33.9342366 ], [ 18.4237116, -33.934223 ] ], [ [ 18.4237116, -33.934223 ], [ 18.4238293, -33.934222 ] ], [ [ 18.4238293, -33.934222 ], [ 18.4240894, -33.9342163 ], [ 18.4242068, -33.9342107 ] ], [ [ 18.4242068, -33.9342107 ], [ 18.4243257, -33.9341972 ], [ 18.4244727, -33.9341677 ], [ 18.4246095, -33.9341274 ], [ 18.4247553, -33.9340635 ], [ 18.4248998, -33.9339976 ], [ 18.4250387, -33.9339293 ], [ 18.4252118, -33.9338455 ], [ 18.4253723, -33.933771 ], [ 18.4255763, -33.9336796 ], [ 18.4257591, -33.9336189 ] ], [ [ 18.4257591, -33.9336189 ], [ 18.4262695, -33.9334706 ] ], [ [ 18.4262695, -33.9334706 ], [ 18.4263189, -33.9334635 ], [ 18.4263921, -33.9334578 ], [ 18.4264703, -33.9334649 ], [ 18.4265431, -33.9334811 ], [ 18.4266026, -33.9335028 ], [ 18.4266669, -33.9335325 ], [ 18.4269532, -33.9336773 ], [ 18.4270601, -33.9337313 ], [ 18.4270902, -33.9337421 ], [ 18.4271483, -33.933763 ], [ 18.4272465, -33.9337902 ], [ 18.4273873, -33.9338212 ], [ 18.4274577, -33.9338362 ], [ 18.4275583, -33.9338708 ] ], [ [ 18.4275583, -33.9338708 ], [ 18.4281546, -33.9339646 ] ], [ [ 18.4281546, -33.9339646 ], [ 18.4282798, -33.9339866 ], [ 18.4284488, -33.9340136 ] ], [ [ 18.4284488, -33.9340136 ], [ 18.4288278, -33.9340729 ], [ 18.4292046, -33.9341327 ], [ 18.4294482, -33.9341728 ], [ 18.4295682, -33.9341958 ], [ 18.4296822, -33.9342241 ], [ 18.4298741, -33.9342938 ], [ 18.4315716, -33.934936 ], [ 18.4317685, -33.9350061 ], [ 18.4319701, -33.9350726 ], [ 18.4321603, -33.9351245 ], [ 18.4327872, -33.9352867 ], [ 18.4333244, -33.9354221 ], [ 18.4334481, -33.9354523 ], [ 18.4335837, -33.9354944 ], [ 18.4337299, -33.9355479 ], [ 18.4338606, -33.9356189 ], [ 18.4339761, -33.9357067 ], [ 18.4340523, -33.935794 ], [ 18.4341573, -33.9359284 ], [ 18.4342269, -33.9360556 ], [ 18.4343396, -33.9362581 ], [ 18.4344632, -33.9364841 ], [ 18.4345245, -33.9365748 ], [ 18.4345894, -33.9366446 ], [ 18.4346696, -33.9367225 ], [ 18.4347734, -33.9367998 ], [ 18.4348875, -33.9368616 ], [ 18.4349979, -33.9369041 ], [ 18.4351025, -33.9369372 ] ], [ [ 18.4351025, -33.9369372 ], [ 18.4351967, -33.93696 ], [ 18.4352893, -33.9369762 ], [ 18.4356367, -33.9370117 ], [ 18.4359821, -33.9370573 ], [ 18.4361008, -33.9370846 ], [ 18.4362149, -33.9371169 ], [ 18.436446, -33.9372155 ] ], [ [ 18.436446, -33.9372155 ], [ 18.4367155, -33.937366 ], [ 18.4371518, -33.9376331 ], [ 18.4374237, -33.9377323 ], [ 18.4395565, -33.9379535 ], [ 18.4398136, -33.9380023 ], [ 18.440146, -33.938136 ], [ 18.4407894, -33.9385252 ], [ 18.4410586, -33.9386272 ], [ 18.4412515, -33.9386622 ], [ 18.4415262, -33.9386621 ], [ 18.441791, -33.9386144 ], [ 18.442521, -33.9383019 ], [ 18.4429118, -33.9381974 ], [ 18.4442889, -33.9380384 ], [ 18.4447991, -33.9381033 ], [ 18.4466899, -33.9386783 ], [ 18.4470845, -33.9387934 ], [ 18.4475469, -33.9389651 ], [ 18.4479821, -33.9392349 ], [ 18.4482676, -33.9394632 ], [ 18.4486435, -33.9399006 ], [ 18.4488436, -33.9400843 ], [ 18.4492438, -33.9402742 ], [ 18.4495003, -33.9403307 ], [ 18.4498439, -33.9403339 ], [ 18.4507709, -33.9401285 ], [ 18.451082, -33.9400997 ], [ 18.4514545, -33.9401129 ] ], [ [ 18.4514545, -33.9401129 ], [ 18.4520936, -33.940185 ], [ 18.4523018, -33.9402008 ], [ 18.4525016, -33.940196 ] ], [ [ 18.4525016, -33.940196 ], [ 18.4527889, -33.9401622 ], [ 18.4533518, -33.9400629 ], [ 18.4537067, -33.9400083 ], [ 18.4540716, -33.9399729 ] ], [ [ 18.4540716, -33.9399729 ], [ 18.4541086, -33.9399704 ], [ 18.4544067, -33.939956 ], [ 18.4547003, -33.9399584 ] ], [ [ 18.4547003, -33.9399584 ], [ 18.4551035, -33.9399448 ], [ 18.4568085, -33.9399682 ], [ 18.4570755, -33.9399971 ], [ 18.4573336, -33.9400576 ] ], [ [ 18.4573336, -33.9400576 ], [ 18.4574106, -33.9400846 ], [ 18.4575784, -33.9401557 ], [ 18.4577576, -33.9402562 ], [ 18.4578875, -33.9403476 ], [ 18.4580096, -33.9404501 ], [ 18.4581143, -33.9405525 ], [ 18.4581688, -33.9406223 ], [ 18.4582141, -33.9406869 ], [ 18.4582526, -33.9407506 ], [ 18.4582878, -33.9408211 ], [ 18.4583216, -33.9409014 ], [ 18.4583506, -33.9409792 ] ], [ [ 18.4583506, -33.9409792 ], [ 18.4583706, -33.9410494 ], [ 18.4583867, -33.941115 ], [ 18.4583972, -33.9411828 ], [ 18.4584043, -33.9412533 ], [ 18.4584321, -33.9416834 ] ], [ [ 18.4584321, -33.9416834 ], [ 18.4584459, -33.9418211 ], [ 18.4584648, -33.9419304 ], [ 18.458493, -33.9420623 ], [ 18.4585168, -33.942144 ], [ 18.4585416, -33.9422253 ], [ 18.4585778, -33.9423239 ], [ 18.4586237, -33.9424142 ], [ 18.4587222, -33.9425685 ], [ 18.4587797, -33.9426436 ], [ 18.4588549, -33.9427218 ], [ 18.458937, -33.9427959 ], [ 18.4590054, -33.9428506 ], [ 18.4591103, -33.9429224 ], [ 18.4592003, -33.9430158 ] ], [ [ 18.4592003, -33.9430158 ], [ 18.4593557, -33.9430859 ], [ 18.4596854, -33.9431784 ], [ 18.4600059, -33.9432173 ], [ 18.4611028, -33.9431446 ] ], [ [ 18.4611028, -33.9431446 ], [ 18.4619916, -33.943071 ], [ 18.4622939, -33.9430451 ] ], [ [ 18.4622939, -33.9430451 ], [ 18.4625436, -33.9430465 ], [ 18.4630958, -33.9430679 ], [ 18.4635933, -33.9431272 ], [ 18.4640823, -33.9432239 ], [ 18.4643734, -33.943304 ] ], [ [ 18.4643734, -33.943304 ], [ 18.4645608, -33.9433946 ], [ 18.4647645, -33.943475 ] ], [ [ 18.4647645, -33.943475 ], [ 18.4648524, -33.9435146 ], [ 18.4649511, -33.9435656 ], [ 18.4650388, -33.9436156 ], [ 18.4651407, -33.9436805 ], [ 18.4652236, -33.9437376 ], [ 18.4653038, -33.9438007 ], [ 18.4653784, -33.9438638 ], [ 18.4654651, -33.9439434 ], [ 18.4655569, -33.9440361 ], [ 18.4656254, -33.9441138 ], [ 18.4656819, -33.9441842 ], [ 18.4657317, -33.944252 ] ], [ [ 18.4657317, -33.944252 ], [ 18.4658593, -33.9444485 ], [ 18.4666851, -33.9457346 ], [ 18.4667419, -33.9458979 ] ], [ [ 18.4667419, -33.9458979 ], [ 18.4667721, -33.9459817 ], [ 18.4667989, -33.9460767 ], [ 18.4668154, -33.9461589 ] ], [ [ 18.4668154, -33.9461589 ], [ 18.4668256, -33.9462354 ], [ 18.4668305, -33.946314 ], [ 18.4668345, -33.9463995 ], [ 18.4668205, -33.9465777 ] ], [ [ 18.4668205, -33.9465777 ], [ 18.4667747, -33.9470929 ] ], [ [ 18.4667747, -33.9470929 ], [ 18.4667514, -33.9473591 ], [ 18.4667419, -33.9474777 ] ], [ [ 18.4667419, -33.9474777 ], [ 18.4667413, -33.9476427 ], [ 18.4667496, -33.9477755 ], [ 18.4667707, -33.9479468 ], [ 18.4668028, -33.9481205 ], [ 18.4668437, -33.9483297 ], [ 18.4669236, -33.9486806 ], [ 18.466999, -33.9489357 ] ], [ [ 18.466999, -33.9489357 ], [ 18.4670667, -33.9492187 ], [ 18.4670781, -33.9493505 ], [ 18.4670775, -33.9494738 ], [ 18.4670699, -33.9495648 ], [ 18.467057, -33.949665 ], [ 18.4670369, -33.9497683 ], [ 18.4670115, -33.9498664 ], [ 18.4669797, -33.9499578 ], [ 18.4669146, -33.9501057 ], [ 18.4667965, -33.9503616 ] ], [ [ 18.4667965, -33.9503616 ], [ 18.4664117, -33.95118 ] ], [ [ 18.4664117, -33.95118 ], [ 18.466375, -33.9512663 ] ], [ [ 18.466375, -33.9512663 ], [ 18.4658879, -33.9522942 ], [ 18.4658484, -33.9523759 ], [ 18.4657934, -33.952478 ], [ 18.465746, -33.9525596 ], [ 18.4656689, -33.9526804 ], [ 18.4655858, -33.9528062 ] ], [ [ 18.4655858, -33.9528062 ], [ 18.4655224, -33.9530176 ], [ 18.4654274, -33.9531721 ], [ 18.4653949, -33.9532363 ], [ 18.4653727, -33.9533145 ], [ 18.4653685, -33.9533849 ], [ 18.4653912, -33.9534791 ], [ 18.4654485, -33.95363 ], [ 18.4654922, -33.9537496 ], [ 18.4655104, -33.9538034 ], [ 18.4655212, -33.9538584 ], [ 18.4655196, -33.953929 ], [ 18.4655087, -33.9540147 ] ], [ [ 18.4655087, -33.9540147 ], [ 18.4654635, -33.9541203 ], [ 18.4653442, -33.9543062 ], [ 18.4652463, -33.9544531 ], [ 18.4651916, -33.9545373 ] ], [ [ 18.4651916, -33.9545373 ], [ 18.4651437, -33.9546138 ] ], [ [ 18.4651437, -33.9546138 ], [ 18.4650521, -33.9545687 ] ], [ [ 18.4650521, -33.9545687 ], [ 18.4644114, -33.9542304 ], [ 18.4643594, -33.9541653 ] ], [ [ 18.4642463, -33.9538871 ], [ 18.4642622, -33.9539697 ], [ 18.4642787, -33.9540321 ], [ 18.4643141, -33.9541005 ], [ 18.4643594, -33.9541653 ] ], [ [ 18.4642463, -33.9538871 ], [ 18.4642291, -33.953765 ] ], [ [ 18.4641319, -33.9529453 ], [ 18.4641575, -33.9529859 ], [ 18.4641799, -33.953079 ], [ 18.4641883, -33.9531639 ], [ 18.464232, -33.9535319 ], [ 18.4642291, -33.953765 ] ], [ [ 18.4641319, -33.9529453 ], [ 18.4641074, -33.9528981 ], [ 18.4640487, -33.9528354 ], [ 18.4639755, -33.9527873 ], [ 18.4638825, -33.9527616 ], [ 18.4637767, -33.9527496 ], [ 18.4636821, -33.9527602 ], [ 18.4635929, -33.9527868 ], [ 18.4635184, -33.9528334 ], [ 18.4634698, -33.952883 ], [ 18.4634327, -33.9529469 ], [ 18.463409, -33.9530202 ], [ 18.4631604, -33.9544746 ], [ 18.4631397, -33.9545667 ], [ 18.4630716, -33.954793 ], [ 18.4629516, -33.9551236 ], [ 18.4628894, -33.9553006 ] ], [ [ 18.4628894, -33.9553006 ], [ 18.4628182, -33.9555524 ] ], [ [ 18.4628182, -33.9555524 ], [ 18.4627537, -33.955638 ], [ 18.4627066, -33.9556778 ], [ 18.4626505, -33.9557036 ], [ 18.462573, -33.9557243 ], [ 18.4625016, -33.9557275 ], [ 18.4624219, -33.9557228 ], [ 18.4623463, -33.9557033 ], [ 18.4622877, -33.9556721 ] ], [ [ 18.4622877, -33.9556721 ], [ 18.4622609, -33.9556521 ], [ 18.4622284, -33.955624 ], [ 18.4621774, -33.9555659 ], [ 18.4621403, -33.9555077 ] ], [ [ 18.4621403, -33.9555077 ], [ 18.4621242, -33.9554464 ] ], [ [ 18.4621242, -33.9554464 ], [ 18.4621176, -33.9553453 ], [ 18.4621228, -33.9553217 ], [ 18.4621387, -33.9552903 ] ], [ [ 18.4617688, -33.9550236 ], [ 18.4618936, -33.9550527 ], [ 18.4619502, -33.955071 ], [ 18.4620033, -33.9550962 ], [ 18.4620436, -33.9551251 ], [ 18.4620804, -33.9551619 ], [ 18.462108, -33.9552013 ], [ 18.4621248, -33.9552419 ], [ 18.4621335, -33.9552736 ], [ 18.4621387, -33.9552903 ] ], [ [ 18.4617688, -33.9550236 ], [ 18.4617107, -33.9550322 ], [ 18.4616745, -33.955043 ], [ 18.4616373, -33.9550586 ], [ 18.4616152, -33.9550706 ], [ 18.461594, -33.9550806 ], [ 18.4615682, -33.9550887 ], [ 18.461541, -33.9550928 ], [ 18.4615126, -33.9550923 ], [ 18.4614388, -33.9550817 ] ], [ [ 18.4614388, -33.9550817 ], [ 18.4614566, -33.9549503 ] ], [ [ 18.4597708, -33.9606411 ], [ 18.4596392, -33.960524 ], [ 18.4595874, -33.9604762 ], [ 18.4594952, -33.9603779 ], [ 18.4594413, -33.9603018 ], [ 18.4591459, -33.959885 ], [ 18.4589767, -33.9596328 ], [ 18.4589416, -33.9595781 ], [ 18.4588659, -33.9594434 ], [ 18.458834, -33.9593661 ], [ 18.4588086, -33.9592771 ], [ 18.4587968, -33.9591664 ], [ 18.4588027, -33.9590597 ], [ 18.4588236, -33.9589511 ], [ 18.4588535, -33.9588472 ], [ 18.4589903, -33.9585056 ], [ 18.4593355, -33.9576402 ], [ 18.4596437, -33.9568674 ], [ 18.459683, -33.9567576 ], [ 18.4600055, -33.9559435 ], [ 18.460044, -33.9558059 ], [ 18.4600695, -33.9556791 ], [ 18.4600789, -33.9555734 ], [ 18.4600804, -33.9554798 ], [ 18.4600752, -33.9553515 ], [ 18.4600598, -33.9549747 ], [ 18.4600628, -33.9549248 ], [ 18.4600793, -33.9548798 ], [ 18.4601105, -33.9548373 ], [ 18.4601376, -33.9548003 ], [ 18.4601859, -33.9547619 ], [ 18.4602347, -33.9547374 ], [ 18.4602843, -33.954722 ], [ 18.4603395, -33.9547137 ], [ 18.4604092, -33.9547111 ], [ 18.4604595, -33.9547142 ], [ 18.460787, -33.9547914 ], [ 18.4608578, -33.9548076 ], [ 18.4614566, -33.9549503 ] ], [ [ 18.4599512, -33.9607862 ], [ 18.4598102, -33.960672 ], [ 18.4597708, -33.9606411 ] ], [ [ 18.4599897, -33.9608336 ], [ 18.4599512, -33.9607862 ] ], [ [ 18.4599897, -33.9608336 ], [ 18.460047, -33.9609449 ], [ 18.4600695, -33.9610034 ], [ 18.4600889, -33.961058 ], [ 18.460101, -33.9611208 ], [ 18.4601111, -33.9611925 ], [ 18.4601157, -33.9613021 ], [ 18.4601024, -33.961425 ], [ 18.4600789, -33.9615268 ], [ 18.4599596, -33.9618877 ], [ 18.4599098, -33.9620295 ], [ 18.4597329, -33.9625334 ], [ 18.4597007, -33.962608 ], [ 18.4596184, -33.9627727 ], [ 18.4595948, -33.9628199 ], [ 18.4593426, -33.9632648 ], [ 18.4592321, -33.9634858 ], [ 18.4592135, -33.9635261 ], [ 18.4591609, -33.9636407 ] ], [ [ 18.4591609, -33.9636407 ], [ 18.459096, -33.963796 ], [ 18.459056, -33.9638554 ], [ 18.4589984, -33.9639207 ], [ 18.4589332, -33.9639808 ] ], [ [ 18.4589332, -33.9639808 ], [ 18.4589024, -33.9640256 ], [ 18.4588746, -33.964062 ], [ 18.4588555, -33.964094 ], [ 18.4588387, -33.9641307 ], [ 18.4588257, -33.9641657 ] ], [ [ 18.4588257, -33.9641657 ], [ 18.4588313, -33.964191 ], [ 18.4588381, -33.9642138 ], [ 18.4588488, -33.964235 ], [ 18.4588622, -33.9642544 ], [ 18.458878, -33.9642689 ], [ 18.4588991, -33.9642814 ], [ 18.4589232, -33.9642905 ], [ 18.45895, -33.9642956 ], [ 18.4589765, -33.964297 ], [ 18.4590023, -33.9642948 ], [ 18.4590483, -33.9642859 ], [ 18.4591009, -33.9642717 ] ], [ [ 18.4591009, -33.9642717 ], [ 18.4591804, -33.9642111 ], [ 18.4592555, -33.9641352 ], [ 18.4592957, -33.9640762 ], [ 18.4593628, -33.9639222 ] ], [ [ 18.4593628, -33.9639222 ], [ 18.4594078, -33.9638005 ], [ 18.4594972, -33.9635567 ], [ 18.4595617, -33.9633936 ], [ 18.4597696, -33.9629994 ] ], [ [ 18.4597696, -33.9629994 ], [ 18.459973, -33.9624173 ], [ 18.4602459, -33.9616487 ], [ 18.46033, -33.9614143 ] ], [ [ 18.46033, -33.9614143 ], [ 18.4604015, -33.9612535 ], [ 18.4604706, -33.9611283 ], [ 18.4605356, -33.96103 ], [ 18.4606133, -33.9609395 ], [ 18.4606972, -33.9608538 ], [ 18.460789, -33.9607743 ], [ 18.4608797, -33.9607032 ], [ 18.4609494, -33.9606559 ], [ 18.4610403, -33.9606037 ], [ 18.4612565, -33.9605017 ], [ 18.4614114, -33.9604505 ], [ 18.4616688, -33.960375 ], [ 18.4621207, -33.9602481 ], [ 18.4623353, -33.9601725 ], [ 18.4624654, -33.9601124 ], [ 18.4625834, -33.960049 ], [ 18.4627248, -33.9599477 ], [ 18.4628548, -33.959841 ], [ 18.4629796, -33.9597185 ], [ 18.463103, -33.9595466 ], [ 18.4631668, -33.959425 ], [ 18.4632258, -33.9592804 ], [ 18.4634471, -33.9586163 ], [ 18.4636082, -33.958031 ], [ 18.4636812, -33.9576614 ], [ 18.4637314, -33.9573606 ], [ 18.4637602, -33.9571446 ], [ 18.4637839, -33.9569245 ], [ 18.463796, -33.9567796 ], [ 18.4638144, -33.9564947 ], [ 18.4638551, -33.9558468 ], [ 18.4638654, -33.9557359 ], [ 18.4638832, -33.9556268 ], [ 18.4639071, -33.9555184 ] ], [ [ 18.4639071, -33.9555184 ], [ 18.4639369, -33.9554111 ], [ 18.4639727, -33.955305 ], [ 18.4640144, -33.9552004 ], [ 18.4640619, -33.9550975 ], [ 18.464115, -33.9549965 ], [ 18.4641738, -33.9548977 ], [ 18.4644378, -33.9544719 ] ], [ [ 18.4644378, -33.9544719 ], [ 18.4645754, -33.9542478 ] ], [ [ 18.4645754, -33.9542478 ], [ 18.4646633, -33.9541083 ] ], [ [ 18.4646633, -33.9541083 ], [ 18.4647365, -33.9539902 ] ], [ [ 18.4647365, -33.9539902 ], [ 18.4655163, -33.9527322 ], [ 18.4655888, -33.9526158 ], [ 18.4656358, -33.9525384 ], [ 18.4656799, -33.9524599 ], [ 18.4657211, -33.9523803 ], [ 18.4657594, -33.9522997 ], [ 18.4660131, -33.9517547 ] ], [ [ 18.4660131, -33.9517547 ], [ 18.4666839, -33.9503138 ] ], [ [ 18.4666839, -33.9503138 ], [ 18.4667987, -33.950069 ], [ 18.4668386, -33.9499728 ], [ 18.4668719, -33.9498723 ], [ 18.4668885, -33.9498117 ], [ 18.4669018, -33.9497514 ], [ 18.4669311, -33.9495629 ] ], [ [ 18.4669311, -33.9495629 ], [ 18.4669414, -33.9494429 ], [ 18.4669422, -33.9493695 ], [ 18.4669381, -33.949301 ], [ 18.4669241, -33.949218 ], [ 18.4669022, -33.949106 ], [ 18.466823, -33.9487571 ], [ 18.4667194, -33.9483037 ] ], [ [ 18.4667194, -33.9483037 ], [ 18.4666699, -33.9480893 ] ], [ [ 18.4666699, -33.9480893 ], [ 18.4665661, -33.9477013 ], [ 18.4665291, -33.9475543 ], [ 18.4665005, -33.9474261 ] ], [ [ 18.4665005, -33.9474261 ], [ 18.4664733, -33.9472996 ], [ 18.4664409, -33.9471713 ], [ 18.4664046, -33.9470497 ], [ 18.4663648, -33.9469257 ], [ 18.4663393, -33.9468499 ], [ 18.4663087, -33.9467707 ], [ 18.4662747, -33.9466838 ], [ 18.4662, -33.9465136 ], [ 18.4661321, -33.9463571 ], [ 18.4660676, -33.946206 ], [ 18.4658598, -33.9456908 ] ], [ [ 18.4658598, -33.9456908 ], [ 18.4657985, -33.9455361 ], [ 18.4657835, -33.9452895 ] ], [ [ 18.4657835, -33.9452895 ], [ 18.465716, -33.9451095 ], [ 18.4656775, -33.9450177 ], [ 18.4656589, -33.9449805 ], [ 18.4656397, -33.9449435 ], [ 18.4656198, -33.9449068 ], [ 18.4655993, -33.9448702 ], [ 18.4655782, -33.944834 ], [ 18.4655564, -33.944798 ], [ 18.4655339, -33.9447623 ], [ 18.4655109, -33.9447268 ], [ 18.4654872, -33.9446917 ], [ 18.465463, -33.9446568 ], [ 18.4654381, -33.9446222 ], [ 18.4654132, -33.9445864 ], [ 18.4653925, -33.944558 ] ], [ [ 18.4653925, -33.944558 ], [ 18.4653472, -33.944498 ], [ 18.4652827, -33.9444192 ], [ 18.4652068, -33.9443344 ], [ 18.4651051, -33.9442361 ], [ 18.465016, -33.9441584 ], [ 18.4649155, -33.9440746 ], [ 18.464775, -33.9439699 ], [ 18.4646629, -33.9438955 ], [ 18.4644978, -33.9437965 ], [ 18.4642894, -33.9436889 ], [ 18.4638422, -33.9434964 ] ], [ [ 18.4638422, -33.9434964 ], [ 18.4637476, -33.9434648 ] ], [ [ 18.4637476, -33.9434648 ], [ 18.4631863, -33.9433373 ], [ 18.4626069, -33.9432928 ], [ 18.4617097, -33.9433397 ], [ 18.4603966, -33.9434722 ], [ 18.4599106, -33.9434654 ] ], [ [ 18.4599106, -33.9434654 ], [ 18.4598623, -33.9434603 ], [ 18.4596437, -33.9434267 ], [ 18.4592746, -33.9433398 ], [ 18.4590757, -33.9432569 ] ], [ [ 18.4590757, -33.9432569 ], [ 18.4590325, -33.9432383 ], [ 18.4587924, -33.943099 ], [ 18.4585796, -33.9429318 ], [ 18.4583952, -33.9427313 ], [ 18.4582543, -33.9425289 ] ], [ [ 18.4582543, -33.9425289 ], [ 18.4582324, -33.9424928 ], [ 18.4581404, -33.9422689 ] ], [ [ 18.4581404, -33.9422689 ], [ 18.457917, -33.9419186 ], [ 18.4577261, -33.9414825 ], [ 18.4575251, -33.9411991 ] ], [ [ 18.4575251, -33.9411991 ], [ 18.4574951, -33.9411663 ], [ 18.4572584, -33.9409559 ], [ 18.4569374, -33.9407631 ], [ 18.4566859, -33.940668 ], [ 18.4560236, -33.940452 ] ], [ [ 18.4560236, -33.940452 ], [ 18.4554037, -33.9402556 ], [ 18.4550705, -33.9401708 ], [ 18.4547271, -33.9401219 ], [ 18.4543789, -33.9401096 ], [ 18.4540317, -33.9401341 ] ], [ [ 18.4540317, -33.9401341 ], [ 18.4539335, -33.9401478 ], [ 18.4527388, -33.9403498 ], [ 18.4524246, -33.9403804 ], [ 18.4521574, -33.9403714 ] ], [ [ 18.4521574, -33.9403714 ], [ 18.4514044, -33.9403094 ], [ 18.4508122, -33.9403062 ], [ 18.4498456, -33.940512 ], [ 18.449504, -33.9405154 ], [ 18.4492528, -33.9404672 ], [ 18.4490265, -33.9403889 ], [ 18.4486441, -33.9401311 ], [ 18.4485615, -33.9400503 ] ], [ [ 18.4485615, -33.9400503 ], [ 18.4480193, -33.9395157 ], [ 18.4476852, -33.9392646 ], [ 18.4473307, -33.9390773 ], [ 18.4469228, -33.9389255 ], [ 18.4468241, -33.9388939 ], [ 18.4449604, -33.938307 ], [ 18.4446514, -33.9382358 ], [ 18.4443768, -33.9382073 ], [ 18.4438661, -33.9382274 ], [ 18.4429646, -33.9383505 ], [ 18.4425808, -33.9384735 ], [ 18.4420903, -33.9387349 ] ], [ [ 18.4420903, -33.9387349 ], [ 18.4419842, -33.9387894 ], [ 18.4417534, -33.9388717 ], [ 18.4415166, -33.9389065 ], [ 18.4413014, -33.9389007 ], [ 18.4410922, -33.9388689 ], [ 18.4408535, -33.9387838 ], [ 18.4406987, -33.9386972 ], [ 18.4400455, -33.9382766 ], [ 18.4397756, -33.9381771 ], [ 18.4384324, -33.9380453 ], [ 18.4374553, -33.9379495 ], [ 18.4370949, -33.9378007 ], [ 18.4366221, -33.937539 ] ], [ [ 18.4366221, -33.937539 ], [ 18.4363682, -33.9374026 ], [ 18.4361566, -33.9373133 ], [ 18.4359242, -33.937248 ], [ 18.4357107, -33.9371973 ], [ 18.4354859, -33.9371749 ], [ 18.4352838, -33.9371671 ], [ 18.43515, -33.9371544 ], [ 18.435011, -33.9371377 ], [ 18.4348896, -33.937095 ], [ 18.4347582, -33.937037 ], [ 18.4346183, -33.9369499 ], [ 18.4344992, -33.9368244 ] ], [ [ 18.4344992, -33.9368244 ], [ 18.4344298, -33.9367182 ], [ 18.4343472, -33.9365498 ] ], [ [ 18.4343472, -33.9365498 ], [ 18.434234, -33.9363083 ], [ 18.4341302, -33.9361058 ], [ 18.4340533, -33.9359965 ], [ 18.4339556, -33.935877 ], [ 18.4338701, -33.9357967 ], [ 18.4337826, -33.9357331 ], [ 18.4336597, -33.935655 ], [ 18.4335238, -33.9355874 ], [ 18.4334088, -33.9355368 ], [ 18.4332945, -33.9355022 ], [ 18.4332476, -33.9354905 ], [ 18.4330557, -33.9354425 ], [ 18.4327547, -33.9353673 ], [ 18.4325485, -33.935314 ], [ 18.4323822, -33.935271 ] ], [ [ 18.4323822, -33.935271 ], [ 18.432141, -33.9352086 ], [ 18.4319368, -33.9351524 ], [ 18.4315165, -33.9350062 ], [ 18.4298374, -33.9343692 ], [ 18.4296426, -33.9343092 ], [ 18.4294143, -33.9342575 ], [ 18.4291914, -33.9342244 ], [ 18.4289344, -33.9341994 ] ], [ [ 18.4289344, -33.9341994 ], [ 18.4281686, -33.9341396 ], [ 18.4270695, -33.9340593 ], [ 18.4268577, -33.9340371 ], [ 18.426747, -33.9340146 ], [ 18.4266242, -33.9339777 ], [ 18.4264616, -33.9339161 ], [ 18.4262986, -33.9338353 ] ], [ [ 18.4262986, -33.9338353 ], [ 18.4261375, -33.933781 ], [ 18.42602, -33.9337395 ], [ 18.4260031, -33.9337363 ], [ 18.4259185, -33.9337201 ], [ 18.4258603, -33.933715 ], [ 18.4257886, -33.933715 ], [ 18.4257077, -33.9337227 ], [ 18.4256458, -33.9337356 ] ], [ [ 18.4256458, -33.9337356 ], [ 18.42558, -33.9337566 ], [ 18.4254618, -33.933804 ], [ 18.4252546, -33.9339002 ], [ 18.4250485, -33.9339985 ], [ 18.4248915, -33.9340769 ], [ 18.4247193, -33.9341549 ], [ 18.4246683, -33.9341741 ] ], [ [ 18.4246683, -33.9341741 ], [ 18.4245852, -33.9342054 ], [ 18.424423, -33.9342402 ], [ 18.4242339, -33.9342758 ] ], [ [ 18.4242339, -33.9342758 ], [ 18.424121, -33.9342869 ], [ 18.4240268, -33.9342969 ], [ 18.4237175, -33.9343091 ] ], [ [ 18.4237175, -33.9343091 ], [ 18.4230573, -33.9343301 ] ], [ [ 18.4230573, -33.9343301 ], [ 18.4228142, -33.9343396 ], [ 18.4224669, -33.9343537 ] ], [ [ 18.4224669, -33.9343537 ], [ 18.4221049, -33.9343699 ], [ 18.4218627, -33.9343772 ], [ 18.4216422, -33.9343755 ], [ 18.4214015, -33.9343674 ] ], [ [ 18.4214015, -33.9343674 ], [ 18.4211478, -33.9343532 ], [ 18.4209515, -33.9343377 ], [ 18.4207546, -33.9343167 ], [ 18.4205444, -33.9342873 ], [ 18.4199041, -33.9341886 ], [ 18.4192515, -33.9340894 ], [ 18.4189774, -33.9340484 ], [ 18.4186542, -33.9340027 ], [ 18.4184461, -33.9339848 ], [ 18.4182103, -33.9339671 ], [ 18.4179529, -33.933959 ] ], [ [ 18.4179529, -33.933959 ], [ 18.4177945, -33.9339528 ], [ 18.4176102, -33.9339447 ], [ 18.4173044, -33.9339347 ], [ 18.4170273, -33.9339356 ] ], [ [ 18.4170273, -33.9339356 ], [ 18.4168962, -33.9339353 ], [ 18.41636, -33.9339083 ], [ 18.4162022, -33.9339033 ] ], [ [ 18.4162022, -33.9339033 ], [ 18.4160773, -33.9338993 ], [ 18.415734, -33.9338975 ] ], [ [ 18.415734, -33.9338975 ], [ 18.4156392, -33.9338759 ], [ 18.4154938, -33.9338253 ], [ 18.4153544, -33.9337682 ], [ 18.4152958, -33.9337393 ] ], [ [ 18.4152958, -33.9337393 ], [ 18.4151972, -33.9336906 ], [ 18.4151478, -33.9336547 ], [ 18.4150459, -33.9335806 ], [ 18.4149159, -33.9334692 ], [ 18.4147653, -33.9332819 ] ], [ [ 18.4147653, -33.9332819 ], [ 18.4147153, -33.9332127 ], [ 18.4144799, -33.9328739 ], [ 18.4143711, -33.9327244 ] ], [ [ 18.4143711, -33.9327244 ], [ 18.4142556, -33.932559 ], [ 18.4140744, -33.9322874 ] ], [ [ 18.4140744, -33.9322874 ], [ 18.4136166, -33.9316009 ] ], [ [ 18.4136166, -33.9316009 ], [ 18.4133203, -33.9312025 ], [ 18.4132793, -33.9311352 ], [ 18.4132299, -33.9310541 ], [ 18.4131912, -33.9309897 ], [ 18.4128441, -33.9304123 ], [ 18.4128163, -33.9303661 ], [ 18.4127752, -33.9302692 ], [ 18.4127385, -33.930177 ], [ 18.4127275, -33.9300753 ], [ 18.4127343, -33.9300107 ], [ 18.4127456, -33.9299638 ], [ 18.412787, -33.9298615 ], [ 18.412807, -33.9298211 ], [ 18.4128863, -33.9297195 ] ], [ [ 18.4128863, -33.9297195 ], [ 18.412976, -33.9297505 ], [ 18.413033, -33.9297833 ], [ 18.4132738, -33.9299568 ], [ 18.413444, -33.9300757 ] ] ] } }
]
}
